{
  "type": "FeatureCollection",
  "features": [
    {
      "type": "Feature",
      "properties": {
        "TG_ID": "TG-EH05",
        "HOEHE": 135.0
      },
      "geometry": {
        "type": "Polygon",
        "coordinates": [
          [
            [
              6.554227778166688,
              51.15184892421322
            ],
            [
              6.553933685603112,
              51.15120979957383
            ],
            [
              6.553799078050671,
              51.150599942824286
            ],
            [
              6.552612039803284,
              51.149428334092406
            ],
            [
              6.551891864193374,
              51.148959822742924
            ],
            [
              6.5510738970630324,
              51.14927829235369
            ],
            [
              6.5504246576981435,
              51.1487644932184
            ],
            [
              6.549992665018424,
              51.14838490650613
            ],
            [
              6.549305385498189,
              51.14778098610543
            ],
            [
              6.550193452980203,
              51.147349838127894
            ],
            [
              6.549652494487989,
              51.14692541326095
            ],
            [
              6.549155009652202,
              51.14715247330817
            ],
            [
              6.5486153959399624,
              51.14684039796355
            ],
            [
              6.5490041043931875,
              51.146479018483745
            ],
            [
              6.548499424646283,
              51.146099362069386
            ],
            [
              6.548247753900971,
              51.145965710228126
            ],
            [
              6.547464474892777,
              51.14619410353049
            ],
            [
              6.547320246326329,
              51.146082418451115
            ],
            [
              6.546743931731494,
              51.14556950051266
            ],
            [
              6.54674254200489,
              51.145568263643575
            ],
            [
              6.5461648505409755,
              51.14505410589176
            ],
            [
              6.545622099998522,
              51.144472365719686
            ],
            [
              6.545078833435685,
              51.143845681119274
            ],
            [
              6.5444625495375615,
              51.14308450132125
            ],
            [
              6.543360438000187,
              51.14353907367631
            ],
            [
              6.54326066103831,
              51.14416875736972
            ],
            [
              6.5432373440536615,
              51.145225056009686
            ],
            [
              6.542772141214195,
              51.145159801192094
            ],
            [
              6.542634782742093,
              51.14563235380599
            ],
            [
              6.542323805396703,
              51.14653268245379
            ],
            [
              6.542120520011254,
              51.147477454843774
            ],
            [
              6.54202466920985,
              51.14844420059876
            ],
            [
              6.542810915037225,
              51.14846302341925
            ],
            [
              6.543012871087436,
              51.14740589554187
            ],
            [
              6.5440150397960375,
              51.14755853949414
            ],
            [
              6.5446260830632035,
              51.147870303139705
            ],
            [
              6.545585647444843,
              51.14743885699097
            ],
            [
              6.546234018230944,
              51.14788527071693
            ],
            [
              6.545950332686252,
              51.14806637331369
            ],
            [
              6.546490208458448,
              51.14840093178172
            ],
            [
              6.5468106831090696,
              51.148309544240576
            ],
            [
              6.547314841338187,
              51.14864426601436
            ],
            [
              6.547639041959338,
              51.14886746843763
            ],
            [
              6.548287985508074,
              51.14935881226491
            ],
            [
              6.548042157066064,
              51.14971951920742
            ],
            [
              6.547797655956252,
              51.15019257995838
            ],
            [
              6.547552085419566,
              51.1505757567142
            ],
            [
              6.547947224652373,
              51.150753681614304
            ],
            [
              6.548270643765957,
              51.1509094695556
            ],
            [
              6.548576700712676,
              51.15168543287457
            ],
            [
              6.549499365647579,
              51.151661082027196
            ],
            [
              6.550430607893276,
              51.15235726720162
            ],
            [
              6.551907946967256,
              51.15214012959538
            ],
            [
              6.554227778166688,
              51.15184892421322
            ]
          ]
        ]
      }
    },
    {
      "type": "Feature",
      "properties": {
        "TG_ID": "TG-EH04",
        "HOEHE": 120.0
      },
      "geometry": {
        "type": "Polygon",
        "coordinates": [
          [
            [
              6.540333466286548,
              51.13756713116939
            ],
            [
              6.5473282795060666,
              51.136288789951344
            ],
            [
              6.543131078044163,
              51.13378632338023
            ],
            [
              6.538771670932043,
              51.133706422802526
            ],
            [
              6.536463557146642,
              51.13493803412776
            ],
            [
              6.535319686184702,
              51.13506337744573
            ],
            [
              6.535362617450911,
              51.13602396136765
            ],
            [
              6.534150467035612,
              51.135749280776196
            ],
            [
              6.533300274597544,
              51.13651378180825
            ],
            [
              6.532412480371399,
              51.136778041452295
            ],
            [
              6.531585084295249,
              51.1367617920081
            ],
            [
              6.530317569557242,
              51.13720790877036
            ],
            [
              6.528910639343731,
              51.1393760402793
            ],
            [
              6.533530678093473,
              51.139966350678094
            ],
            [
              6.533567175736772,
              51.14003360047446
            ],
            [
              6.534684107623817,
              51.14085996463976
            ],
            [
              6.534891155005509,
              51.140229797076685
            ],
            [
              6.536844403189932,
              51.139866387322236
            ],
            [
              6.5383104400362,
              51.13914615100474
            ],
            [
              6.540333466286548,
              51.13756713116939
            ]
          ]
        ]
      }
    },
    {
      "type": "Feature",
      "properties": {
        "TG_ID": "TG-EH03",
        "HOEHE": 130.0
      },
      "geometry": {
        "type": "Polygon",
        "coordinates": [
          [
            [
              6.52380280788159,
              51.1326394932404
            ],
            [
              6.524053317548358,
              51.1326833143702
            ],
            [
              6.524327317832153,
              51.13164836537083
            ],
            [
              6.521397788312704,
              51.13157158515965
            ],
            [
              6.520874987404281,
              51.13271999738716
            ],
            [
              6.519694643420667,
              51.13256794773855
            ],
            [
              6.519793707336723,
              51.131848397728255
            ],
            [
              6.518755739826994,
              51.13165076083954
            ],
            [
              6.518309840107109,
              51.133293207701946
            ],
            [
              6.521670333900723,
              51.133570391656825
            ],
            [
              6.521392464122905,
              51.13426826887446
            ],
            [
              6.520497803200448,
              51.13411495227157
            ],
            [
              6.519728723761751,
              51.13560153789839
            ],
            [
              6.520694844525208,
              51.13575454197377
            ],
            [
              6.521254665523537,
              51.134718326850574
            ],
            [
              6.522078415584999,
              51.13491689881853
            ],
            [
              6.522358562430248,
              51.13442125931516
            ],
            [
              6.523587504394573,
              51.13255056949077
            ],
            [
              6.52380280788159,
              51.1326394932404
            ]
          ]
        ]
      }
    },
    {
      "type": "Feature",
      "properties": {
        "TG_ID": "TG-EH02",
        "HOEHE": 130.0
      },
      "geometry": {
        "type": "Polygon",
        "coordinates": [
          [
            [
              6.511435986152162,
              51.135053851547326
            ],
            [
              6.511503691682559,
              51.13471647288735
            ],
            [
              6.511535183499484,
              51.13433430839319
            ],
            [
              6.511534935018552,
              51.134311837324994
            ],
            [
              6.511033673586429,
              51.13420166982448
            ],
            [
              6.511204305641111,
              51.13348181441723
            ],
            [
              6.512276255899566,
              51.13352206419609
            ],
            [
              6.512272025775911,
              51.13314005601904
            ],
            [
              6.512629422977831,
              51.13316096080675
            ],
            [
              6.512479593651073,
              51.132532397481555
            ],
            [
              6.510230332349134,
              51.13260965710547
            ],
            [
              6.509403125830223,
              51.135332397117715
            ],
            [
              6.510441136661682,
              51.13553011675788
            ],
            [
              6.510615751317494,
              51.135169799436504
            ],
            [
              6.511435986152162,
              51.135053851547326
            ]
          ]
        ]
      }
    },
    {
      "type": "Feature",
      "properties": {
        "TG_ID": "TG-EH01",
        "HOEHE": 142.0
      },
      "geometry": {
        "type": "Polygon",
        "coordinates": [
          [
            [
              6.5130397304019425,
              51.1347322111183
            ],
            [
              6.513970844145245,
              51.13495284088731
            ],
            [
              6.51439069316162,
              51.1341644679588
            ],
            [
              6.514040427224534,
              51.134053024496765
            ],
            [
              6.513245799323315,
              51.13398972501646
            ],
            [
              6.511924823990589,
              51.13404046399186
            ],
            [
              6.511928305368079,
              51.13435505893269
            ],
            [
              6.511749477975206,
              51.13433337008747
            ],
            [
              6.511534935018552,
              51.134311837324994
            ],
            [
              6.511535183499484,
              51.13433430839319
            ],
            [
              6.511503691682559,
              51.13471647288735
            ],
            [
              6.511435986152162,
              51.135053851547326
            ],
            [
              6.5130397304019425,
              51.1347322111183
            ]
          ]
        ]
      }
    }
  ]
}