{
  "type": "FeatureCollection",
  "features": [
    {
      "type": "Feature",
      "properties": {
        "TG_ID": "24040",
        "HOEHE": 154.9
      },
      "geometry": {
        "type": "Polygon",
        "coordinates": [
          [
            [
              6.560735849759086,
              51.16819877637164
            ],
            [
              6.561307169479793,
              51.16815108993945
            ],
            [
              6.562341760464442,
              51.167988812434345
            ],
            [
              6.563162717891914,
              51.16789497147763
            ],
            [
              6.563733208842703,
              51.16777986100958
            ],
            [
              6.564161006592185,
              51.16768790865461
            ],
            [
              6.564553061512782,
              51.16759612738171
            ],
            [
              6.564762839361039,
              51.1672130889326
            ],
            [
              6.565077911833415,
              51.16667223662974
            ],
            [
              6.5655007468837026,
              51.16617580620502
            ],
            [
              6.565887282927099,
              51.16563460582025
            ],
            [
              6.5662749113606385,
              51.16518328707665
            ],
            [
              6.5655197125113105,
              51.164804918405196
            ],
            [
              6.566298259441477,
              51.16417193081585
            ],
            [
              6.566791156933459,
              51.16356279561292
            ],
            [
              6.567284041490345,
              51.16295365831695
            ],
            [
              6.567027262278242,
              51.16241557449033
            ],
            [
              6.566550009074595,
              51.16138417320336
            ],
            [
              6.56604199522927,
              51.160757416330675
            ],
            [
              6.565608490630194,
              51.1603774895917
            ],
            [
              6.564637317476751,
              51.15986532748445
            ],
            [
              6.563771999685995,
              51.159240286279626
            ],
            [
              6.5634094489377,
              51.15881506486537
            ],
            [
              6.5632615827685425,
              51.15841127994326
            ],
            [
              6.563252820723907,
              51.157692215187396
            ],
            [
              6.563347697784381,
              51.15668051355774
            ],
            [
              6.563186424881711,
              51.15517566002428
            ],
            [
              6.563031183426443,
              51.15416516323492
            ],
            [
              6.5628088657666686,
              51.153514542885404
            ],
            [
              6.562480732113419,
              51.15297679193672
            ],
            [
              6.561936863997371,
              51.15232771695608
            ],
            [
              6.560268204728964,
              51.153212140702635
            ],
            [
              6.5589930629722115,
              51.154139603107105
            ],
            [
              6.5581793948337745,
              51.15481765517751
            ],
            [
              6.557047095058971,
              51.15574441370831
            ],
            [
              6.556054707575378,
              51.15642330244045
            ],
            [
              6.555238257217078,
              51.1568766259981
            ],
            [
              6.554384979611741,
              51.157240230134896
            ],
            [
              6.553850328088975,
              51.15735512550009
            ],
            [
              6.552634590766863,
              51.157293464231934
            ],
            [
              6.5512753878555365,
              51.15718752295613
            ],
            [
              6.548516734404661,
              51.15659375640934
            ],
            [
              6.54664986364723,
              51.15586092442074
            ],
            [
              6.545356878253573,
              51.15530516279776
            ],
            [
              6.543775430127993,
              51.15452600844555
            ],
            [
              6.5428747627634785,
              51.15390097697271
            ],
            [
              6.542190872715723,
              51.15347718191071
            ],
            [
              6.541435271983571,
              51.15303124298366
            ],
            [
              6.54060770095828,
              51.152540687899496
            ],
            [
              6.539996360230295,
              51.152206432738296
            ],
            [
              6.539491166844134,
              51.15178179599677
            ],
            [
              6.538811005396827,
              51.151672573337656
            ],
            [
              6.538130585583647,
              51.15154087581003
            ],
            [
              6.537092359754361,
              51.151365875072266
            ],
            [
              6.536161848737527,
              51.15123531519878
            ],
            [
              6.535445974476535,
              51.151126236816204
            ],
            [
              6.534837548970111,
              51.15103913446351
            ],
            [
              6.533978248051069,
              51.150885759201074
            ],
            [
              6.533117916357478,
              51.15064249391081
            ],
            [
              6.532365812704964,
              51.15048861773803
            ],
            [
              6.53157824439726,
              51.15035737015774
            ],
            [
              6.530825634454053,
              51.15015854217539
            ],
            [
              6.53025244256882,
              51.150026311721064
            ],
            [
              6.528962130038752,
              51.149672605518965
            ],
            [
              6.527993895316282,
              51.14936237457157
            ],
            [
              6.527205077272386,
              51.149118742659844
            ],
            [
              6.526380540620723,
              51.14887526631812
            ],
            [
              6.525878830767558,
              51.1487426924327
            ],
            [
              6.5248769501554955,
              51.148612363942796
            ],
            [
              6.523946528314478,
              51.148481706511475
            ],
            [
              6.5231225284743735,
              51.1482831490134
            ],
            [
              6.522118889213465,
              51.14799550001461
            ],
            [
              6.521330125160461,
              51.14775182823551
            ],
            [
              6.520469158852918,
              51.147441056398044
            ],
            [
              6.519393850619155,
              51.14713123107209
            ],
            [
              6.518534420728127,
              51.146955270823995
            ],
            [
              6.517567821383543,
              51.146779778960315
            ],
            [
              6.516673935113961,
              51.14671631820112
            ],
            [
              6.516030629384406,
              51.146696688582544
            ],
            [
              6.5156036801953805,
              51.14685587790736
            ],
            [
              6.515892241063351,
              51.14710179758033
            ],
            [
              6.515966701169258,
              51.14737113414894
            ],
            [
              6.515898508910648,
              51.14766357261601
            ],
            [
              6.515760116602218,
              51.14806868140418
            ],
            [
              6.515551270851749,
              51.148563989252374
            ],
            [
              6.515488335399036,
              51.149328318356446
            ],
            [
              6.515570314144847,
              51.15027178486068
            ],
            [
              6.515867421079626,
              51.151281717993065
            ],
            [
              6.516269722361539,
              51.152111408817234
            ],
            [
              6.516741237758404,
              51.15273854333807
            ],
            [
              6.517750483674391,
              51.153520599396856
            ],
            [
              6.519192070415664,
              51.15461533588743
            ],
            [
              6.52020064014509,
              51.1553299574037
            ],
            [
              6.521747510456257,
              51.156244416872084
            ],
            [
              6.522537945929204,
              51.15662291062721
            ],
            [
              6.523038969132212,
              51.15668808559325
            ],
            [
              6.524256182484008,
              51.15688488029439
            ],
            [
              6.5252577300035455,
              51.156970271454085
            ],
            [
              6.5257597830837275,
              51.15712531844484
            ],
            [
              6.5263343297575585,
              51.15736992511736
            ],
            [
              6.526947177863593,
              51.157839077016696
            ],
            [
              6.527381111210416,
              51.158286561116086
            ],
            [
              6.527349479075754,
              51.158646257004165
            ],
            [
              6.5272468897298666,
              51.159051217140906
            ],
            [
              6.527073084763693,
              51.15947897042557
            ],
            [
              6.527008276379423,
              51.16006353642258
            ],
            [
              6.527297493296669,
              51.160354368725294
            ],
            [
              6.52744171846211,
              51.16046607823813
            ],
            [
              6.527764623891908,
              51.160576980819265
            ],
            [
              6.5282299611990835,
              51.16064229470353
            ],
            [
              6.529123874621974,
              51.160683195103324
            ],
            [
              6.530732767813987,
              51.160743316055786
            ],
            [
              6.531984304395579,
              51.160805042077165
            ],
            [
              6.5329859506123835,
              51.16089036665729
            ],
            [
              6.534454249641947,
              51.161153326108035
            ],
            [
              6.536568692137144,
              51.161660495133766
            ],
            [
              6.538649276975229,
              51.16232508643447
            ],
            [
              6.540335755754708,
              51.162901575184236
            ],
            [
              6.540766973776349,
              51.163101829313554
            ],
            [
              6.541013192434092,
              51.16276360888466
            ],
            [
              6.541620466955481,
              51.162738324140214
            ],
            [
              6.542334689527343,
              51.16269006795042
            ],
            [
              6.542374118995552,
              51.163004493861465
            ],
            [
              6.542693911200152,
              51.162845704929275
            ],
            [
              6.543018981774119,
              51.16313633185714
            ],
            [
              6.543555841625452,
              51.16320125245902
            ],
            [
              6.543664905592473,
              51.16335804961121
            ],
            [
              6.544132938633231,
              51.16364800832254
            ],
            [
              6.544634862183984,
              51.163780502805075
            ],
            [
              6.544423873816523,
              51.16407362260092
            ],
            [
              6.543994482563462,
              51.164030677875495
            ],
            [
              6.543457083970839,
              51.16392081767054
            ],
            [
              6.543533317995149,
              51.16432496022454
            ],
            [
              6.543608760378799,
              51.164661690214324
            ],
            [
              6.543755682349923,
              51.164998087604566
            ],
            [
              6.543324962122319,
              51.16484278632254
            ],
            [
              6.543396968819765,
              51.16488739567022
            ],
            [
              6.543972762884574,
              51.16522179800227
            ],
            [
              6.544689669853909,
              51.16539823554975
            ],
            [
              6.545513536008295,
              51.1655516974707
            ],
            [
              6.5463027304296,
              51.16579520387539
            ],
            [
              6.5466257179842415,
              51.16590605399104
            ],
            [
              6.547162348879754,
              51.165948487067176
            ],
            [
              6.547663240762494,
              51.16599108515432
            ],
            [
              6.548163866992975,
              51.1660112102888
            ],
            [
              6.548593547168991,
              51.16607661041637
            ],
            [
              6.549166188895888,
              51.16614133732367
            ],
            [
              6.549774304994378,
              51.166183422512404
            ],
            [
              6.552851986183055,
              51.166505985832885
            ],
            [
              6.553603879399624,
              51.166614787103036
            ],
            [
              6.554747842593704,
              51.16663183506294
            ],
            [
              6.555782963631405,
              51.16651455711717
            ],
            [
              6.556532428065201,
              51.166421102604836
            ],
            [
              6.557104001240181,
              51.1663959075197
            ],
            [
              6.557145160009604,
              51.16684515246824
            ],
            [
              6.557114024996663,
              51.16722732582306
            ],
            [
              6.557190113010993,
              51.16760898803534
            ],
            [
              6.557480108889511,
              51.16794468598779
            ],
            [
              6.557624701649532,
              51.168078828544644
            ],
            [
              6.5573057380507445,
              51.16830507037844
            ],
            [
              6.557593298686523,
              51.16843853117874
            ],
            [
              6.558023285877384,
              51.16852636726468
            ],
            [
              6.558701022942925,
              51.16841076929931
            ],
            [
              6.558808520041905,
              51.16843272745005
            ],
            [
              6.560735849759086,
              51.16819877637164
            ]
          ]
        ]
      }
    },
    {
      "type": "Feature",
      "properties": {
        "TG_ID": "24050",
        "HOEHE": 153.7
      },
      "geometry": {
        "type": "Polygon",
        "coordinates": [
          [
            [
              6.539491166844134,
              51.15178179599677
            ],
            [
              6.539996360230295,
              51.152206432738296
            ],
            [
              6.54060770095828,
              51.152540687899496
            ],
            [
              6.541435271983571,
              51.15303124298366
            ],
            [
              6.542190872715723,
              51.15347718191071
            ],
            [
              6.5428747627634785,
              51.15390097697271
            ],
            [
              6.543775430127993,
              51.15452600844555
            ],
            [
              6.545356878253573,
              51.15530516279776
            ],
            [
              6.54664986364723,
              51.15586092442074
            ],
            [
              6.548516734404661,
              51.15659375640934
            ],
            [
              6.5512753878555365,
              51.15718752295613
            ],
            [
              6.552634590766863,
              51.157293464231934
            ],
            [
              6.553850328088975,
              51.15735512550009
            ],
            [
              6.554384979611741,
              51.157240230134896
            ],
            [
              6.555238257217078,
              51.1568766259981
            ],
            [
              6.556054707575378,
              51.15642330244045
            ],
            [
              6.557047095058971,
              51.15574441370831
            ],
            [
              6.5581793948337745,
              51.15481765517751
            ],
            [
              6.5589930629722115,
              51.154139603107105
            ],
            [
              6.560268204728964,
              51.153212140702635
            ],
            [
              6.561936863997371,
              51.15232771695608
            ],
            [
              6.561323463200208,
              51.15183627819189
            ],
            [
              6.560387428733523,
              51.15125649519101
            ],
            [
              6.5592007776177566,
              51.150632959868915
            ],
            [
              6.558229337762924,
              51.15007580106275
            ],
            [
              6.557292023485569,
              51.14938363870031
            ],
            [
              6.556821076767488,
              51.14884655253599
            ],
            [
              6.556421052755732,
              51.14826418253229
            ],
            [
              6.556163942005951,
              51.14768113107941
            ],
            [
              6.555942563125248,
              51.14709790903614
            ],
            [
              6.555794530201955,
              51.14667164265138
            ],
            [
              6.5556118553008025,
              51.14633542929006
            ],
            [
              6.55546463765009,
              51.14597657496774
            ],
            [
              6.555431072347971,
              51.146156511576415
            ],
            [
              6.555223739418718,
              51.146741772251765
            ],
            [
              6.5546613023727245,
              51.14750849544169
            ],
            [
              6.5538498395624885,
              51.148366284748825
            ],
            [
              6.553357469418836,
              51.1490203087187
            ],
            [
              6.552827208731343,
              51.14949473281365
            ],
            [
              6.552329712054801,
              51.14972180630921
            ],
            [
              6.5526195596376375,
              51.15005751786254
            ],
            [
              6.551945831011793,
              51.150487671939004
            ],
            [
              6.551441887253326,
              51.15017544127765
            ],
            [
              6.5497360391998525,
              51.15094752983363
            ],
            [
              6.549339823537018,
              51.15067972758036
            ],
            [
              6.548911619357451,
              51.150726683820075
            ],
            [
              6.548270643765969,
              51.15090946955558
            ],
            [
              6.547947224652388,
              51.15075368161425
            ],
            [
              6.547163065495335,
              51.15091466041087
            ],
            [
              6.544441360371112,
              51.15038804092734
            ],
            [
              6.543013297885786,
              51.15048457353141
            ],
            [
              6.542016074047152,
              51.15075886815767
            ],
            [
              6.541127338722664,
              51.151145012504834
            ],
            [
              6.539880250392491,
              51.15144291764812
            ],
            [
              6.539491166844134,
              51.15178179599677
            ]
          ]
        ]
      }
    },
    {
      "type": "Feature",
      "properties": {
        "TG_ID": "24080",
        "HOEHE": 165.5
      },
      "geometry": {
        "type": "Polygon",
        "coordinates": [
          [
            [
              6.530794040206659,
              51.138068680569084
            ],
            [
              6.531326462385977,
              51.137774122966924
            ],
            [
              6.531972234261935,
              51.138018378645455
            ],
            [
              6.5323265743182475,
              51.137769571343995
            ],
            [
              6.532935597299269,
              51.13792410049558
            ],
            [
              6.533147835637248,
              51.137743355140394
            ],
            [
              6.5325010267144945,
              51.13740922204661
            ],
            [
              6.532819900310259,
              51.13718304698394
            ],
            [
              6.533931821465358,
              51.13758247056096
            ],
            [
              6.534428500109617,
              51.137288062093866
            ],
            [
              6.535540177394701,
              51.137664999347834
            ],
            [
              6.5356118739492075,
              51.137687142905136
            ],
            [
              6.536710012369077,
              51.136895578926264
            ],
            [
              6.5374642588770735,
              51.137251666858965
            ],
            [
              6.538637191190079,
              51.136751878746075
            ],
            [
              6.5387811079200295,
              51.13684110393291
            ],
            [
              6.541057829734137,
              51.13604405897419
            ],
            [
              6.5396205034574,
              51.13530912364893
            ],
            [
              6.537395909336349,
              51.13444296075761
            ],
            [
              6.536035588683892,
              51.13417954269654
            ],
            [
              6.534925550268921,
              51.133937435533305
            ],
            [
              6.533564739996805,
              51.13362904663851
            ],
            [
              6.532309540968431,
              51.13318532783749
            ],
            [
              6.531268136281134,
              51.13269567939874
            ],
            [
              6.530547921879015,
              51.132182091630774
            ],
            [
              6.529935378994985,
              51.13171295549988
            ],
            [
              6.529393760819083,
              51.13119855048174
            ],
            [
              6.528888381272432,
              51.13072892326408
            ],
            [
              6.528168993455252,
              51.13028273353229
            ],
            [
              6.5275230934699495,
              51.13001598506529
            ],
            [
              6.526555536054474,
              51.129728210749754
            ],
            [
              6.525517587721295,
              51.12953063374745
            ],
            [
              6.52451688841545,
              51.12946771342499
            ],
            [
              6.523588378378561,
              51.129471877634906
            ],
            [
              6.522090759124465,
              51.129680828280684
            ],
            [
              6.520984696017465,
              51.12977565370394
            ],
            [
              6.52027095775489,
              51.12982377814351
            ],
            [
              6.5197709866570355,
              51.12982600318571
            ],
            [
              6.518982293009629,
              51.12955984266686
            ],
            [
              6.5179765702868675,
              51.129047445120825
            ],
            [
              6.517114217044474,
              51.12857934886916
            ],
            [
              6.516178704629494,
              51.12795426416727
            ],
            [
              6.515138338010169,
              51.127531883908986
            ],
            [
              6.514243578015941,
              51.12735604768858
            ],
            [
              6.513494408702265,
              51.12742675892438
            ],
            [
              6.512033016950562,
              51.127680365996895
            ],
            [
              6.511141492693019,
              51.12779663022909
            ],
            [
              6.510892013957186,
              51.12784266565566
            ],
            [
              6.511359482006997,
              51.128132759145544
            ],
            [
              6.511647157563741,
              51.128311277270456
            ],
            [
              6.512114386362177,
              51.12857889659837
            ],
            [
              6.512762668381849,
              51.12907044144977
            ],
            [
              6.5132696116333815,
              51.129697436659804
            ],
            [
              6.513524584873918,
              51.13014575986067
            ],
            [
              6.513815775037642,
              51.13063886756958
            ],
            [
              6.514215110235364,
              51.13122138733643
            ],
            [
              6.514543277885342,
              51.13182669126356
            ],
            [
              6.5146931328537505,
              51.132455251933635
            ],
            [
              6.514485844296552,
              51.13308538537126
            ],
            [
              6.514167658104453,
              51.13337892398791
            ],
            [
              6.51385046628117,
              51.133762345984906
            ],
            [
              6.513245799323315,
              51.13398972501646
            ],
            [
              6.513177858240561,
              51.134304633618754
            ],
            [
              6.5130397304019425,
              51.1347322111183
            ],
            [
              6.512970540944661,
              51.13493476426819
            ],
            [
              6.512761474456846,
              51.13540759708752
            ],
            [
              6.512552154742697,
              51.135857958450806
            ],
            [
              6.5122716453103795,
              51.136331103660886
            ],
            [
              6.5118492541957345,
              51.13689475830939
            ],
            [
              6.5113908862380745,
              51.137436096676666
            ],
            [
              6.511072650660765,
              51.13772962681924
            ],
            [
              6.510541835691219,
              51.13818139003462
            ],
            [
              6.510898774671429,
              51.138157357853494
            ],
            [
              6.511718564454377,
              51.137996465756906
            ],
            [
              6.5121829058504845,
              51.13799443141499
            ],
            [
              6.512861807720274,
              51.1380139258786
            ],
            [
              6.513325899825564,
              51.13798941594943
            ],
            [
              6.514002055238327,
              51.13776172227898
            ],
            [
              6.514926480269218,
              51.13737562590376
            ],
            [
              6.515707267176547,
              51.13692273973894
            ],
            [
              6.516277496632277,
              51.136807861020785
            ],
            [
              6.517814360560201,
              51.13689094940307
            ],
            [
              6.518708814470585,
              51.13702181528158
            ],
            [
              6.5196744566844504,
              51.13712988560398
            ],
            [
              6.520174001263018,
              51.13708271865981
            ],
            [
              6.520567150135854,
              51.13710344005474
            ],
            [
              6.521282013188243,
              51.13714519756873
            ],
            [
              6.522248171241177,
              51.13729818864348
            ],
            [
              6.522963546851832,
              51.137384877890696
            ],
            [
              6.523928697267848,
              51.13744797099423
            ],
            [
              6.524678267076765,
              51.137399663533664
            ],
            [
              6.525499526562713,
              51.137373501050014
            ],
            [
              6.526321296446759,
              51.13739227480224
            ],
            [
              6.526999938809515,
              51.13738921619866
            ],
            [
              6.527750273450415,
              51.137408302049685
            ],
            [
              6.528573071859984,
              51.137516943944455
            ],
            [
              6.5294328782613755,
              51.13773777314916
            ],
            [
              6.530508549773167,
              51.13809244914846
            ],
            [
              6.530794040206659,
              51.138068680569084
            ]
          ]
        ]
      }
    },
    {
      "type": "Feature",
      "properties": {
        "TG_ID": "24060",
        "HOEHE": 160.7
      },
      "geometry": {
        "type": "Polygon",
        "coordinates": [
          [
            [
              6.547947224652388,
              51.15075368161425
            ],
            [
              6.548270643765969,
              51.15090946955558
            ],
            [
              6.548911619357451,
              51.150726683820075
            ],
            [
              6.549339823537018,
              51.15067972758036
            ],
            [
              6.5497360391998525,
              51.15094752983363
            ],
            [
              6.551441887253326,
              51.15017544127765
            ],
            [
              6.551945831011793,
              51.150487671939004
            ],
            [
              6.5526195596376375,
              51.15005751786254
            ],
            [
              6.552329712054801,
              51.14972180630921
            ],
            [
              6.552827208731343,
              51.14949473281365
            ],
            [
              6.553357469418836,
              51.1490203087187
            ],
            [
              6.5538498395624885,
              51.148366284748825
            ],
            [
              6.5546613023727245,
              51.14750849544169
            ],
            [
              6.555223739418718,
              51.146741772251765
            ],
            [
              6.555431072347971,
              51.146156511576415
            ],
            [
              6.55546463765009,
              51.14597657496774
            ],
            [
              6.554711997685596,
              51.14577790066869
            ],
            [
              6.553420812297116,
              51.14535705173721
            ],
            [
              6.552127504052952,
              51.14475642147774
            ],
            [
              6.551120549664136,
              51.14419937109107
            ],
            [
              6.550868078780056,
              51.1439983122034
            ],
            [
              6.550398866267839,
              51.143596024507886
            ],
            [
              6.549819289106727,
              51.14292458849862
            ],
            [
              6.548879845614796,
              51.14203011888885
            ],
            [
              6.548014276319575,
              51.141337544569495
            ],
            [
              6.547187909338442,
              51.14093691818685
            ],
            [
              6.546326101736237,
              51.14055892379571
            ],
            [
              6.545464308183459,
              51.14018092297933
            ],
            [
              6.544743819885313,
              51.13966742427403
            ],
            [
              6.544454359419192,
              51.13935416309767
            ],
            [
              6.544128390661839,
              51.138973654725845
            ],
            [
              6.543583624937513,
              51.13821213672421
            ],
            [
              6.543004478156529,
              51.137563136671645
            ],
            [
              6.5421023095741155,
              51.13678079967197
            ],
            [
              6.541201486000524,
              51.13611081023704
            ],
            [
              6.541057829734137,
              51.13604405897419
            ],
            [
              6.5387811079200295,
              51.13684110393291
            ],
            [
              6.538637191190079,
              51.136751878746075
            ],
            [
              6.5374642588770735,
              51.137251666858965
            ],
            [
              6.536710012369077,
              51.136895578926264
            ],
            [
              6.5356118739492075,
              51.137687142905136
            ],
            [
              6.535540177394701,
              51.137664999347834
            ],
            [
              6.534428500109617,
              51.137288062093866
            ],
            [
              6.533931821465358,
              51.13758247056096
            ],
            [
              6.532819900310259,
              51.13718304698394
            ],
            [
              6.5325010267144945,
              51.13740922204661
            ],
            [
              6.533147835637248,
              51.137743355140394
            ],
            [
              6.532935597299269,
              51.13792410049558
            ],
            [
              6.5323265743182475,
              51.137769571343995
            ],
            [
              6.531972234261935,
              51.138018378645455
            ],
            [
              6.531326462385977,
              51.137774122966924
            ],
            [
              6.530794040206659,
              51.138068680569084
            ],
            [
              6.530508549773167,
              51.13809244914846
            ],
            [
              6.5294328782613755,
              51.13773777314916
            ],
            [
              6.528573071859984,
              51.137516943944455
            ],
            [
              6.527750273450415,
              51.137408302049685
            ],
            [
              6.526999938809515,
              51.13738921619866
            ],
            [
              6.526321296446759,
              51.13739227480224
            ],
            [
              6.525499526562713,
              51.137373501050014
            ],
            [
              6.524678267076765,
              51.137399663533664
            ],
            [
              6.523928697267848,
              51.13744797099423
            ],
            [
              6.522963546851832,
              51.137384877890696
            ],
            [
              6.522248171241177,
              51.13729818864348
            ],
            [
              6.521282013188243,
              51.13714519756873
            ],
            [
              6.520567150135854,
              51.13710344005474
            ],
            [
              6.520174001263018,
              51.13708271865981
            ],
            [
              6.5196744566844504,
              51.13712988560398
            ],
            [
              6.518708814470585,
              51.13702181528158
            ],
            [
              6.517814360560201,
              51.13689094940307
            ],
            [
              6.516277496632277,
              51.136807861020785
            ],
            [
              6.515707267176547,
              51.13692273973894
            ],
            [
              6.514926480269218,
              51.13737562590376
            ],
            [
              6.514002055238327,
              51.13776172227898
            ],
            [
              6.513325899825564,
              51.13798941594943
            ],
            [
              6.512861807720274,
              51.1380139258786
            ],
            [
              6.5121829058504845,
              51.13799443141499
            ],
            [
              6.511718564454377,
              51.137996465756906
            ],
            [
              6.510898774671429,
              51.138157357853494
            ],
            [
              6.510541835691219,
              51.13818139003462
            ],
            [
              6.51004177357651,
              51.138183573777376
            ],
            [
              6.509649857986653,
              51.138275172315964
            ],
            [
              6.50882980877759,
              51.138413578880375
            ],
            [
              6.507974035606553,
              51.138552134987265
            ],
            [
              6.507081552707421,
              51.13860095558084
            ],
            [
              6.506081910559064,
              51.13865023350885
            ],
            [
              6.505546369535538,
              51.13867502380978
            ],
            [
              6.50504630170163,
              51.13867718620901
            ],
            [
              6.50519089631518,
              51.13883386612213
            ],
            [
              6.505699319278705,
              51.139595719516834
            ],
            [
              6.506135334550641,
              51.14026799574311
            ],
            [
              6.506391774015002,
              51.140851160101306
            ],
            [
              6.5064676450555625,
              51.141255329586016
            ],
            [
              6.506365648421405,
              51.14172768625792
            ],
            [
              6.506049810440969,
              51.14224591329844
            ],
            [
              6.505769933463801,
              51.142786455914056
            ],
            [
              6.505633432254362,
              51.14337132174305
            ],
            [
              6.505709546701426,
              51.1437979626075
            ],
            [
              6.50589258697828,
              51.14420166842471
            ],
            [
              6.506217295326266,
              51.14449239974619
            ],
            [
              6.5064331135726325,
              51.14462629731774
            ],
            [
              6.506612963065084,
              51.144737878317606
            ],
            [
              6.506864014890724,
              51.14482667810936
            ],
            [
              6.507222732445777,
              51.14495995430998
            ],
            [
              6.508153284082105,
              51.14511321630166
            ],
            [
              6.509261967858034,
              51.1452207505052
            ],
            [
              6.510049386429336,
              51.145352148983626
            ],
            [
              6.510730629132219,
              51.145573894705414
            ],
            [
              6.511340926135959,
              51.145840891142285
            ],
            [
              6.512022679827262,
              51.14610757131923
            ],
            [
              6.5127748946597475,
              51.14628404991355
            ],
            [
              6.513599064565049,
              51.14650515166821
            ],
            [
              6.514421492365737,
              51.14656895051108
            ],
            [
              6.514994096142537,
              51.1466563169135
            ],
            [
              6.5156036801953805,
              51.14685587790736
            ],
            [
              6.516030629384406,
              51.146696688582544
            ],
            [
              6.516673935113961,
              51.14671631820112
            ],
            [
              6.517567821383543,
              51.146779778960315
            ],
            [
              6.518534420728127,
              51.146955270823995
            ],
            [
              6.519393850619155,
              51.14713123107209
            ],
            [
              6.520469158852918,
              51.147441056398044
            ],
            [
              6.521330125160461,
              51.14775182823551
            ],
            [
              6.522118889213465,
              51.14799550001461
            ],
            [
              6.5231225284743735,
              51.1482831490134
            ],
            [
              6.523946528314478,
              51.148481706511475
            ],
            [
              6.5248769501554955,
              51.148612363942796
            ],
            [
              6.525878830767558,
              51.1487426924327
            ],
            [
              6.526380540620723,
              51.14887526631812
            ],
            [
              6.527205077272386,
              51.149118742659844
            ],
            [
              6.527993895316282,
              51.14936237457157
            ],
            [
              6.528962130038752,
              51.149672605518965
            ],
            [
              6.53025244256882,
              51.150026311721064
            ],
            [
              6.530825634454053,
              51.15015854217539
            ],
            [
              6.53157824439726,
              51.15035737015774
            ],
            [
              6.532365812704964,
              51.15048861773803
            ],
            [
              6.533117916357478,
              51.15064249391081
            ],
            [
              6.533978248051069,
              51.150885759201074
            ],
            [
              6.534837548970111,
              51.15103913446351
            ],
            [
              6.535445974476535,
              51.151126236816204
            ],
            [
              6.536161848737527,
              51.15123531519878
            ],
            [
              6.537092359754361,
              51.151365875072266
            ],
            [
              6.538130585583647,
              51.15154087581003
            ],
            [
              6.538811005396827,
              51.151672573337656
            ],
            [
              6.539491166844134,
              51.15178179599677
            ],
            [
              6.539880250392491,
              51.15144291764812
            ],
            [
              6.541127338722664,
              51.151145012504834
            ],
            [
              6.542016074047152,
              51.15075886815767
            ],
            [
              6.543013297885786,
              51.15048457353141
            ],
            [
              6.544441360371112,
              51.15038804092734
            ],
            [
              6.547163065495335,
              51.15091466041087
            ],
            [
              6.547947224652388,
              51.15075368161425
            ]
          ]
        ]
      }
    },
    {
      "type": "Feature",
      "properties": {
        "TG_ID": "24090",
        "HOEHE": 173.1
      },
      "geometry": {
        "type": "Polygon",
        "coordinates": [
          [
            [
              6.5130397304019425,
              51.1347322111183
            ],
            [
              6.513177858240561,
              51.134304633618754
            ],
            [
              6.513245799323315,
              51.13398972501646
            ],
            [
              6.51385046628117,
              51.133762345984906
            ],
            [
              6.514167658104453,
              51.13337892398791
            ],
            [
              6.514485844296552,
              51.13308538537126
            ],
            [
              6.5146931328537505,
              51.132455251933635
            ],
            [
              6.514543277885342,
              51.13182669126356
            ],
            [
              6.514215110235364,
              51.13122138733643
            ],
            [
              6.513815775037642,
              51.13063886756958
            ],
            [
              6.513524584873918,
              51.13014575986067
            ],
            [
              6.5132696116333815,
              51.129697436659804
            ],
            [
              6.512762668381849,
              51.12907044144977
            ],
            [
              6.512114386362177,
              51.12857889659837
            ],
            [
              6.511647157563741,
              51.128311277270456
            ],
            [
              6.511359482006997,
              51.128132759145544
            ],
            [
              6.510892013957186,
              51.12784266565566
            ],
            [
              6.510428517917424,
              51.127912107826965
            ],
            [
              6.5094266361806286,
              51.127736702664414
            ],
            [
              6.508638284169472,
              51.12749294306885
            ],
            [
              6.507779752802741,
              51.127361844061056
            ],
            [
              6.506744889627252,
              51.12743375323336
            ],
            [
              6.505995953000015,
              51.12752688758133
            ],
            [
              6.505281987769002,
              51.12755244936894
            ],
            [
              6.5049239013872215,
              51.12746410859311
            ],
            [
              6.504098398351789,
              51.12708564586199
            ],
            [
              6.502985031110176,
              51.12650616718858
            ],
            [
              6.502124583009573,
              51.12619525746496
            ],
            [
              6.500979931835319,
              51.1260203933911
            ],
            [
              6.499942659805812,
              51.125867530902276
            ],
            [
              6.4993346320281535,
              51.12578024216813
            ],
            [
              6.498904424141813,
              51.12562477540447
            ],
            [
              6.498223771426389,
              51.12542543143318
            ],
            [
              6.497185552464162,
              51.12518266190203
            ],
            [
              6.496253506488588,
              51.1248495433161
            ],
            [
              6.495427877272775,
              51.124448549354256
            ],
            [
              6.494706984111289,
              51.12382238406844
            ],
            [
              6.494200834640854,
              51.12324025013967
            ],
            [
              6.493838484944113,
              51.12274739475608
            ],
            [
              6.493405927592057,
              51.12236719582285
            ],
            [
              6.492725106956481,
              51.122145348338464
            ],
            [
              6.491938367947694,
              51.12203630407019
            ],
            [
              6.491152348070039,
              51.121994668063124
            ],
            [
              6.490794806781447,
              51.12195122683117
            ],
            [
              6.490470352824749,
              51.12166045143199
            ],
            [
              6.49025206871768,
              51.121279340695644
            ],
            [
              6.4900325985326095,
              51.12078587352912
            ],
            [
              6.489850978811461,
              51.12049449693149
            ],
            [
              6.489597238036799,
              51.120136005829075
            ],
            [
              6.489094992667128,
              51.11991338838711
            ],
            [
              6.488379472386867,
              51.1197815496943
            ],
            [
              6.48770131840508,
              51.11980685597228
            ],
            [
              6.48706052389517,
              51.119989307889206
            ],
            [
              6.486349967179548,
              51.12032935220916
            ],
            [
              6.485854812419091,
              51.12078085718935
            ],
            [
              6.485572233026557,
              51.121074170995385
            ],
            [
              6.485359412356948,
              51.12120988885396
            ],
            [
              6.485003059942835,
              51.12127878593549
            ],
            [
              6.484290351917828,
              51.12141657684726
            ],
            [
              6.483614050293488,
              51.12162162921317
            ],
            [
              6.483152450154925,
              51.12187073395248
            ],
            [
              6.482621072336211,
              51.12227743054738
            ],
            [
              6.482195401406973,
              51.12254885516122
            ],
            [
              6.481733784413128,
              51.12279795430955
            ],
            [
              6.480985569547631,
              51.12295834364678
            ],
            [
              6.480126963140762,
              51.122804571548116
            ],
            [
              6.4801965119403055,
              51.122624508125384
            ],
            [
              6.478980147569499,
              51.12240478159283
            ],
            [
              6.478769161391116,
              51.12272025732888
            ],
            [
              6.478448029923112,
              51.12274404562354
            ],
            [
              6.4774139146857435,
              51.122883110893
            ],
            [
              6.476131229160288,
              51.12315801380639
            ],
            [
              6.47477757415949,
              51.12347813552453
            ],
            [
              6.473637458000674,
              51.12372995912689
            ],
            [
              6.472603306085491,
              51.12386898193174
            ],
            [
              6.471818188178761,
              51.12391710099152
            ],
            [
              6.471068319149298,
              51.12392012824837
            ],
            [
              6.470496533287277,
              51.123877488997984
            ],
            [
              6.470640965330438,
              51.124034212207086
            ],
            [
              6.4708572722208135,
              51.12423558979883
            ],
            [
              6.471253038705317,
              51.12452613161457
            ],
            [
              6.471614246635772,
              51.124929172499705
            ],
            [
              6.47168932960336,
              51.12528842395449
            ],
            [
              6.471587470123076,
              51.125805695173995
            ],
            [
              6.471165134648157,
              51.12641414834452
            ],
            [
              6.4709199679894285,
              51.12688705264852
            ],
            [
              6.470994133798068,
              51.127156419484315
            ],
            [
              6.471245252029235,
              51.12726776722663
            ],
            [
              6.471638756163818,
              51.12733359515159
            ],
            [
              6.472175333649754,
              51.12742131552398
            ],
            [
              6.473140672628067,
              51.127529769267255
            ],
            [
              6.474142878436776,
              51.12775042617074
            ],
            [
              6.47478867403648,
              51.1280399405132
            ],
            [
              6.475470651000093,
              51.12837424829909
            ],
            [
              6.476223367285775,
              51.12864084718732
            ],
            [
              6.476760663164114,
              51.128795960070555
            ],
            [
              6.477297035295099,
              51.12886118563054
            ],
            [
              6.4785828932740825,
              51.12887839544163
            ],
            [
              6.479904697046641,
              51.128917915566525
            ],
            [
              6.481047008972056,
              51.128868271586754
            ],
            [
              6.482047173706575,
              51.128886619739525
            ],
            [
              6.482835178846283,
              51.12910808611437
            ],
            [
              6.4835550553524675,
              51.12964443951029
            ],
            [
              6.4839887759025965,
              51.13013703036286
            ],
            [
              6.484355078955144,
              51.13101192581949
            ],
            [
              6.484645259341016,
              51.131437692904406
            ],
            [
              6.485078065841539,
              51.131840394791354
            ],
            [
              6.485510644033693,
              51.13222062385747
            ],
            [
              6.4860846712400875,
              51.132465429784745
            ],
            [
              6.486401140474323,
              51.13199219704694
            ],
            [
              6.487296362174784,
              51.13221318675124
            ],
            [
              6.4871932422843805,
              51.13259564351276
            ],
            [
              6.487694431876427,
              51.13270591246569
            ],
            [
              6.487626555484182,
              51.13304327810998
            ],
            [
              6.488020842780326,
              51.13317646410033
            ],
            [
              6.487635320026084,
              51.13387471092403
            ],
            [
              6.488996552158459,
              51.13425104596257
            ],
            [
              6.490928788476221,
              51.13458002210316
            ],
            [
              6.49175384338807,
              51.1349136333075
            ],
            [
              6.49243676116562,
              51.13531525448949
            ],
            [
              6.4929025151799475,
              51.1354481226637
            ],
            [
              6.493546616673823,
              51.135557763322815
            ],
            [
              6.4950124521249935,
              51.1356863927111
            ],
            [
              6.4962989868706895,
              51.135748349343764
            ],
            [
              6.4976574426210245,
              51.13585492968462
            ],
            [
              6.498659701681289,
              51.13605290414018
            ],
            [
              6.499304552666493,
              51.136229926331865
            ],
            [
              6.500058016399169,
              51.13654131432815
            ],
            [
              6.501059810549518,
              51.13669432789031
            ],
            [
              6.501846329628951,
              51.136758369056494
            ],
            [
              6.502849111435977,
              51.137001251619196
            ],
            [
              6.503782915090224,
              51.13746914439418
            ],
            [
              6.504465727318422,
              51.13784822496959
            ],
            [
              6.504719434858643,
              51.13818421148351
            ],
            [
              6.50504630170163,
              51.13867718620901
            ],
            [
              6.505546369535538,
              51.13867502380978
            ],
            [
              6.506081910559064,
              51.13865023350885
            ],
            [
              6.507081552707421,
              51.13860095558084
            ],
            [
              6.507974035606553,
              51.138552134987265
            ],
            [
              6.50882980877759,
              51.138413578880375
            ],
            [
              6.509649857986653,
              51.138275172315964
            ],
            [
              6.51004177357651,
              51.138183573777376
            ],
            [
              6.510541835691219,
              51.13818139003462
            ],
            [
              6.511072650660765,
              51.13772962681924
            ],
            [
              6.5113908862380745,
              51.137436096676666
            ],
            [
              6.5118492541957345,
              51.13689475830939
            ],
            [
              6.5122716453103795,
              51.136331103660886
            ],
            [
              6.512552154742697,
              51.135857958450806
            ],
            [
              6.512761474456846,
              51.13540759708752
            ],
            [
              6.512970540944661,
              51.13493476426819
            ],
            [
              6.5130397304019425,
              51.1347322111183
            ]
          ]
        ]
      }
    }
  ]
}