{"type": "FeatureCollection", "features": [{"type": "Feature", "geometry": {"type": "LineString", "coordinates": [[6.116724, 50.822337], [6.116143, 50.827214], [6.115688, 50.83209], [6.115371, 50.836967], [6.115189, 50.841844], [6.115123, 50.84672], [6.11516, 50.851597], [6.115298, 50.856474], [6.115546, 50.86135], [6.115902, 50.866227], [6.116358, 50.871104], [6.116905, 50.87598], [6.1174, 50.879786], [6.117528, 50.880857], [6.118185, 50.885734], [6.118926, 50.89061], [6.119748, 50.895487], [6.12065, 50.900364], [6.12164, 50.90524], [6.122721, 50.910117], [6.123188, 50.91205], [6.12384, 50.914994], [6.125045, 50.91987], [6.12644, 50.924747], [6.128084, 50.929624], [6.128976, 50.931936], [6.129925, 50.9345], [6.131936, 50.939377], [6.134155, 50.944253], [6.134764, 50.945523], [6.13643, 50.94913], [6.138809, 50.954007], [6.140553, 50.957369], [6.141313, 50.958883], [6.143902, 50.96376], [6.146341, 50.967918], [6.146762, 50.968637], [6.149843, 50.973513], [6.152129, 50.976775], [6.15328, 50.97839], [6.15695, 50.983267], [6.157917, 50.984515], [6.160723, 50.988143], [6.163705, 50.991877], [6.164614, 50.99302], [6.168594, 50.997897], [6.169494, 50.998961], [6.172724, 51.002773], [6.175282, 51.005637], [6.1771, 51.00765], [6.18107, 51.011826], [6.181748, 51.012527], [6.186684, 51.017403], [6.186858, 51.017571], [6.191893, 51.02228], [6.192647, 51.022961], [6.197423, 51.027157], [6.198435, 51.028018], [6.203315, 51.032033], [6.204223, 51.032762], [6.209606, 51.03691], [6.210011, 51.037217], [6.215799, 51.041431], [6.216315, 51.041787], [6.221588, 51.045405], [6.223562, 51.046663], [6.227376, 51.049093], [6.231527, 51.05154], [6.233164, 51.05251], [6.238952, 51.055772], [6.240118, 51.056417], [6.24474, 51.059063], [6.248514, 51.061293], [6.250529, 51.062577], [6.255524, 51.06617], [6.256317, 51.066829], [6.26053, 51.071047], [6.262105, 51.073053], [6.26395, 51.075923], [6.26625, 51.0808], [6.267893, 51.085573], [6.267924, 51.085677], [6.269086, 51.090553], [6.270151, 51.09543], [6.271242, 51.100307], [6.272434, 51.105183], [6.273681, 51.109752], [6.273759, 51.11006], [6.275097, 51.114937], [6.276586, 51.119813], [6.278223, 51.12469], [6.27947, 51.128115], [6.279965, 51.129567], [6.28175, 51.134443], [6.283721, 51.13932], [6.285258, 51.142805], [6.285842, 51.144196], [6.288028, 51.149073], [6.290428, 51.15395], [6.291046, 51.155147], [6.292876, 51.158826], [6.295476, 51.163703], [6.296834, 51.166138], [6.298159, 51.16858], [6.300924, 51.173456], [6.302623, 51.176298], [6.303808, 51.178333], [6.306855, 51.18321], [6.308411, 51.185408], [6.310261, 51.188086], [6.314199, 51.192757], [6.314368, 51.192963], [6.319361, 51.19784], [6.319987, 51.198308], [6.32556, 51.202716], [6.325775, 51.202849], [6.331564, 51.206637], [6.332948, 51.207593], [6.337352, 51.210025], [6.341607, 51.21247], [6.34314, 51.2132], [6.348928, 51.216], [6.351671, 51.217346], [6.354716, 51.218636], [6.360505, 51.221058], [6.363273, 51.222223], [6.366293, 51.223375], [6.372081, 51.225539], [6.376286, 51.2271], [6.377869, 51.227663], [6.383657, 51.229683], [6.389446, 51.231633], [6.390454, 51.231976], [6.395234, 51.233583], [6.401022, 51.235444], [6.405485, 51.236853], [6.40681, 51.237286], [6.412599, 51.239129], [6.418387, 51.24088], [6.421222, 51.24173], [6.424175, 51.242662], [6.429963, 51.244403], [6.435751, 51.246048], [6.437754, 51.246606], [6.44154, 51.24774], [6.447328, 51.249358], [6.453116, 51.25088], [6.45548, 51.251483], [6.458904, 51.252437], [6.464692, 51.25394], [6.470481, 51.255361], [6.474642, 51.25636], [6.476269, 51.256789], [6.482057, 51.258242], [6.487845, 51.259625], [6.493634, 51.260975], [6.494786, 51.261236], [6.499422, 51.262358], [6.50521, 51.263676], [6.510998, 51.264947], [6.516419, 51.266113], [6.516786, 51.266197], [6.522575, 51.267423], [6.528363, 51.268573], [6.534151, 51.269664], [6.539939, 51.270703], [6.541721, 51.27099], [6.545727, 51.271656], [6.551516, 51.272481], [6.557304, 51.273155], [6.563092, 51.273637], [6.56888, 51.273854], [6.574668, 51.273686], [6.580457, 51.272939], [6.586245, 51.271349], [6.587129, 51.27099], [6.592033, 51.268535], [6.595845, 51.266113], [6.597821, 51.264778], [6.60292, 51.261236], [6.60361, 51.260774], [6.609398, 51.257058], [6.61053, 51.25636], [6.615186, 51.25357], [6.618633, 51.251483], [6.620974, 51.250079], [6.626493, 51.246606], [6.626762, 51.246437], [6.632551, 51.242624], [6.633825, 51.24173], [6.638339, 51.238542], [6.640596, 51.236853], [6.644127, 51.234182], [6.646904, 51.231976], [6.649915, 51.229536], [6.652799, 51.2271], [6.655703, 51.224573], [6.658312, 51.222223], [6.661492, 51.21925], [6.663473, 51.217346], [6.66728, 51.213519], [6.668304, 51.21247], [6.67284, 51.207593], [6.673068, 51.207339], [6.677182, 51.202716], [6.678856, 51.200725], [6.68128, 51.19784], [6.684644, 51.193577], [6.68513, 51.192963], [6.688837, 51.188086], [6.690433, 51.185846], [6.69233, 51.18321], [6.695608, 51.178333], [6.696221, 51.177374], [6.698776, 51.173456], [6.701685, 51.16858], [6.702009, 51.168008], [6.704529, 51.163703], [6.707141, 51.158826], [6.707797, 51.157527], [6.709678, 51.15395], [6.712038, 51.149073], [6.713586, 51.145591], [6.714235, 51.144196], [6.716368, 51.13932], [6.718304, 51.134443], [6.719374, 51.131532], [6.720141, 51.129567], [6.721924, 51.12469], [6.723554, 51.119813], [6.725039, 51.114937], [6.725162, 51.114502], [6.726519, 51.11006], [6.727851, 51.105183], [6.729017, 51.100307], [6.730009, 51.09543], [6.730832, 51.090553], [6.73095, 51.089717], [6.73157, 51.085677], [6.7322, 51.0808], [6.732742, 51.075923], [6.733213, 51.071047], [6.73363, 51.06617], [6.734046, 51.061293], [6.734569, 51.056417], [6.735368, 51.05154], [6.736632, 51.046663], [6.736738, 51.046382], [6.738685, 51.041787], [6.741302, 51.03691], [6.742527, 51.03488], [6.744333, 51.032033], [6.747407, 51.027157], [6.748315, 51.025648], [6.750393, 51.02228], [6.753163, 51.017403], [6.754103, 51.015635], [6.755802, 51.012527], [6.75829, 51.00765], [6.759891, 51.004302], [6.760648, 51.002773], [6.762944, 50.997897], [6.765031, 50.99302], [6.765679, 50.991385], [6.767031, 50.988143], [6.768901, 50.983267], [6.770622, 50.97839], [6.771468, 50.975852], [6.772305, 50.973513], [6.773956, 50.968637], [6.775472, 50.96376], [6.776824, 50.958883], [6.777256, 50.95711], [6.778067, 50.954007], [6.779154, 50.94913], [6.780076, 50.944253], [6.780875, 50.939377], [6.781583, 50.9345], [6.782207, 50.929624], [6.782746, 50.924747], [6.783044, 50.921537], [6.783215, 50.91987], [6.783626, 50.914994], [6.783954, 50.910117], [6.784195, 50.90524], [6.784329, 50.900364], [6.784323, 50.895487], [6.784159, 50.89061], [6.783846, 50.885734], [6.783409, 50.880857], [6.783044, 50.87753], [6.78289, 50.87598], [6.782321, 50.871104], [6.781647, 50.866227], [6.780852, 50.86135], [6.779928, 50.856474], [6.778887, 50.851597], [6.77776, 50.84672], [6.777256, 50.844575], [6.776665, 50.841844], [6.775635, 50.836967], [6.774637, 50.83209], [6.773631, 50.827214], [6.772524, 50.822337], [6.771468, 50.818388], [6.771227, 50.81746], [6.769719, 50.812584], [6.76794, 50.807707], [6.765912, 50.80283], [6.765679, 50.802315], [6.763636, 50.797954], [6.761084, 50.793077], [6.759891, 50.790974], [6.758265, 50.7882], [6.755189, 50.783324], [6.754103, 50.781695], [6.751965, 50.778447], [6.74854, 50.77357], [6.748315, 50.773265], [6.745076, 50.768694], [6.742527, 50.76538], [6.741387, 50.763817], [6.737517, 50.75894], [6.736738, 50.758014], [6.733531, 50.754064], [6.73095, 50.751086], [6.729344, 50.749187], [6.725162, 50.744503], [6.724992, 50.74431], [6.720549, 50.739434], [6.719374, 50.738196], [6.715818, 50.734557], [6.713586, 50.732367], [6.710717, 50.729681], [6.707797, 50.727026], [6.705244, 50.724804], [6.702009, 50.722046], [6.699433, 50.719927], [6.696221, 50.717342], [6.693255, 50.715051], [6.690433, 50.712922], [6.686588, 50.710174], [6.684644, 50.708809], [6.679317, 50.705297], [6.678856, 50.704995], [6.673068, 50.701375], [6.671445, 50.700421], [6.66728, 50.697953], [6.662921, 50.695544], [6.661492, 50.694744], [6.655703, 50.691684], [6.653629, 50.690667], [6.649915, 50.688809], [6.644127, 50.686187], [6.64318, 50.685791], [6.638339, 50.683702], [6.632551, 50.681459], [6.631044, 50.680914], [6.626762, 50.679305], [6.620974, 50.677309], [6.616938, 50.676037], [6.615186, 50.675463], [6.609398, 50.673736], [6.60361, 50.672237], [6.598753, 50.671161], [6.597821, 50.670943], [6.592033, 50.669799], [6.586245, 50.668883], [6.580457, 50.668175], [6.574668, 50.667638], [6.56888, 50.667229], [6.563092, 50.666917], [6.557304, 50.666694], [6.551516, 50.666571], [6.545727, 50.666568], [6.539939, 50.666689], [6.534151, 50.666896], [6.528363, 50.667096], [6.522575, 50.667144], [6.516786, 50.666853], [6.512661, 50.666284], [6.510998, 50.666025], [6.50521, 50.664483], [6.499422, 50.662343], [6.497313, 50.661407], [6.493634, 50.659668], [6.487845, 50.65677], [6.487381, 50.656531], [6.482057, 50.653659], [6.478084, 50.651654], [6.476269, 50.650698], [6.470481, 50.647811], [6.468307, 50.646777], [6.464692, 50.644975], [6.458904, 50.642174], [6.458347, 50.641901], [6.453116, 50.639184], [6.448934, 50.637024], [6.447328, 50.636162], [6.44154, 50.633018], [6.439918, 50.632147], [6.435751, 50.629841], [6.430895, 50.627271], [6.429963, 50.626769], [6.424175, 50.623902], [6.420584, 50.622394], [6.418387, 50.621454], [6.412599, 50.61951], [6.40681, 50.61809], [6.403693, 50.617517], [6.401022, 50.617024], [6.395234, 50.616091], [6.389446, 50.615135], [6.383657, 50.614088], [6.377869, 50.612973], [6.376126, 50.612641], [6.372081, 50.61188], [6.366293, 50.610988], [6.360505, 50.61047], [6.354716, 50.610425], [6.348928, 50.610831], [6.34314, 50.611559], [6.337352, 50.612433], [6.33595, 50.612641], [6.331564, 50.613242], [6.325775, 50.613876], [6.319987, 50.61435], [6.314199, 50.614784], [6.308411, 50.615348], [6.302623, 50.616166], [6.296834, 50.617255], [6.295557, 50.617517], [6.291046, 50.618421], [6.285258, 50.619589], [6.27947, 50.620715], [6.273681, 50.621913], [6.271889, 50.622394], [6.267893, 50.623451], [6.262105, 50.625638], [6.258971, 50.627271], [6.256317, 50.628622], [6.250869, 50.632147], [6.250529, 50.632364], [6.24474, 50.636671], [6.244303, 50.637024], [6.238952, 50.641361], [6.238307, 50.641901], [6.233164, 50.646253], [6.232544, 50.646777], [6.227376, 50.651216], [6.226856, 50.651654], [6.221588, 50.656177], [6.221164, 50.656531], [6.215799, 50.6611], [6.215427, 50.661407], [6.210011, 50.665968], [6.209624, 50.666284], [6.204223, 50.670777], [6.203748, 50.671161], [6.198435, 50.675531], [6.197803, 50.676037], [6.192647, 50.680244], [6.191808, 50.680914], [6.186858, 50.684976], [6.185855, 50.685791], [6.18107, 50.689879], [6.180154, 50.690667], [6.175282, 50.695239], [6.174963, 50.695544], [6.170335, 50.700421], [6.169494, 50.701403], [6.166191, 50.705297], [6.163705, 50.708521], [6.16243, 50.710174], [6.158906, 50.715051], [6.157917, 50.716502], [6.155545, 50.719927], [6.152418, 50.724804], [6.152129, 50.725274], [6.149349, 50.729681], [6.146541, 50.734557], [6.146341, 50.734923], [6.143798, 50.739434], [6.141296, 50.74431], [6.140553, 50.745851], [6.13887, 50.749187], [6.136579, 50.754064], [6.134764, 50.758257], [6.13445, 50.75894], [6.132334, 50.763817], [6.130439, 50.768694], [6.128976, 50.77289], [6.128723, 50.77357], [6.127027, 50.778447], [6.125469, 50.783324], [6.124013, 50.7882], [6.123188, 50.791126], [6.122599, 50.793077], [6.121234, 50.797954], [6.120033, 50.80283], [6.119006, 50.807707], [6.118144, 50.812584], [6.117417, 50.81746], [6.1174, 50.817593], [6.116724, 50.822337]]}, "properties": {"anstieg_m": 2.0, "name": "Grundwasserwiederanstieg +2.0m", "beschreibung": "Erwarteter lokaler Grundwasserwiederanstieg um ca. 2.0 Meter."}}, {"type": "Feature", "geometry": {"type": "LineString", "coordinates": [[6.162656, 50.81746], [6.16168, 50.822337], [6.160894, 50.827214], [6.160303, 50.83209], [6.159886, 50.836967], [6.159612, 50.841844], [6.159463, 50.84672], [6.159425, 50.851597], [6.159478, 50.856474], [6.159597, 50.86135], [6.159771, 50.866227], [6.160023, 50.871104], [6.160414, 50.87598], [6.161029, 50.880857], [6.161935, 50.885734], [6.163148, 50.89061], [6.163705, 50.892488], [6.164581, 50.895487], [6.166146, 50.900364], [6.167806, 50.90524], [6.169494, 50.90996], [6.169548, 50.910117], [6.171276, 50.914994], [6.173153, 50.91987], [6.175239, 50.924747], [6.175282, 50.92484], [6.177393, 50.929624], [6.179779, 50.9345], [6.18107, 50.936948], [6.182318, 50.939377], [6.185013, 50.944253], [6.186858, 50.947334], [6.187917, 50.94913], [6.191, 50.954007], [6.192647, 50.956419], [6.194316, 50.958883], [6.19788, 50.96376], [6.198435, 50.964481], [6.20164, 50.968637], [6.204223, 50.971773], [6.205674, 50.973513], [6.209977, 50.97839], [6.210011, 50.978428], [6.214534, 50.983267], [6.215799, 50.984555], [6.219443, 50.988143], [6.221588, 50.99016], [6.22477, 50.99302], [6.227376, 50.995265], [6.230608, 50.997897], [6.233164, 50.999906], [6.237049, 51.002773], [6.238952, 51.004144], [6.244152, 51.00765], [6.24474, 51.008042], [6.250529, 51.011685], [6.251962, 51.012527], [6.256317, 51.015073], [6.260673, 51.017403], [6.262105, 51.018171], [6.267893, 51.021047], [6.270579, 51.02228], [6.273681, 51.023726], [6.27947, 51.026299], [6.281377, 51.027157], [6.285258, 51.028982], [6.291046, 51.03194], [6.291204, 51.032033], [6.296834, 51.035789], [6.298241, 51.03691], [6.302623, 51.0413], [6.303029, 51.041787], [6.30596, 51.046663], [6.307845, 51.05154], [6.308411, 51.05381], [6.308974, 51.056417], [6.309706, 51.061293], [6.310297, 51.06617], [6.310867, 51.071047], [6.311493, 51.075923], [6.31223, 51.0808], [6.313118, 51.085677], [6.31418, 51.090553], [6.314199, 51.09063], [6.315325, 51.09543], [6.31663, 51.100307], [6.318089, 51.105183], [6.319702, 51.11006], [6.319987, 51.110861], [6.321377, 51.114937], [6.323216, 51.119813], [6.325264, 51.12469], [6.325775, 51.12582], [6.327424, 51.129567], [6.329773, 51.134443], [6.331564, 51.137864], [6.332311, 51.13932], [6.334984, 51.144196], [6.337352, 51.148163], [6.33789, 51.149073], [6.34094, 51.15395], [6.34314, 51.157204], [6.344236, 51.158826], [6.347734, 51.163703], [6.348928, 51.165277], [6.351436, 51.16858], [6.354716, 51.172635], [6.355383, 51.173456], [6.359544, 51.178333], [6.360505, 51.179392], [6.36405, 51.18321], [6.366293, 51.185456], [6.369046, 51.188086], [6.372081, 51.190819], [6.3746, 51.192963], [6.377869, 51.195644], [6.380689, 51.19784], [6.383657, 51.200084], [6.387315, 51.202716], [6.389446, 51.204181], [6.39466, 51.207593], [6.395234, 51.207941], [6.401022, 51.211342], [6.403034, 51.21247], [6.40681, 51.214411], [6.412599, 51.217285], [6.412726, 51.217346], [6.418387, 51.219817], [6.424068, 51.222223], [6.424175, 51.222264], [6.429963, 51.224399], [6.435751, 51.22648], [6.437577, 51.2271], [6.44154, 51.228324], [6.447328, 51.230038], [6.453116, 51.231657], [6.454385, 51.231976], [6.458904, 51.23302], [6.464692, 51.23423], [6.470481, 51.235297], [6.476269, 51.236215], [6.481035, 51.236853], [6.482057, 51.236985], [6.487845, 51.237622], [6.493634, 51.238175], [6.499422, 51.238637], [6.50521, 51.238991], [6.510998, 51.239208], [6.516786, 51.23925], [6.522575, 51.239069], [6.528363, 51.238615], [6.534151, 51.23784], [6.539239, 51.236853], [6.539939, 51.236719], [6.545727, 51.235341], [6.551516, 51.233663], [6.556511, 51.231976], [6.557304, 51.231728], [6.563092, 51.22971], [6.56888, 51.227415], [6.569603, 51.2271], [6.574668, 51.224993], [6.580457, 51.222239], [6.580488, 51.222223], [6.586245, 51.219333], [6.589839, 51.217346], [6.592033, 51.216158], [6.597821, 51.212786], [6.598338, 51.21247], [6.60361, 51.209248], [6.606156, 51.207593], [6.609398, 51.20545], [6.613288, 51.202716], [6.615186, 51.201341], [6.619734, 51.19784], [6.620974, 51.196848], [6.625553, 51.192963], [6.626762, 51.191893], [6.630846, 51.188086], [6.632551, 51.186428], [6.635722, 51.18321], [6.638339, 51.180433], [6.640261, 51.178333], [6.644127, 51.173895], [6.644503, 51.173456], [6.648514, 51.16858], [6.649915, 51.166767], [6.652269, 51.163703], [6.655703, 51.158893], [6.655751, 51.158826], [6.659103, 51.15395], [6.661492, 51.150183], [6.662201, 51.149073], [6.665134, 51.144196], [6.66728, 51.140282], [6.667816, 51.13932], [6.670361, 51.134443], [6.672662, 51.129567], [6.673068, 51.128641], [6.674856, 51.12469], [6.676855, 51.119813], [6.678654, 51.114937], [6.678856, 51.114346], [6.680392, 51.11006], [6.681972, 51.105183], [6.683378, 51.100307], [6.68461, 51.09543], [6.684644, 51.095274], [6.685763, 51.090553], [6.686768, 51.085677], [6.687652, 51.0808], [6.688438, 51.075923], [6.68913, 51.071047], [6.689714, 51.06617], [6.690166, 51.061293], [6.690433, 51.05701], [6.690473, 51.056417], [6.690674, 51.05154], [6.690849, 51.046663], [6.691176, 51.041787], [6.691878, 51.03691], [6.693158, 51.032033], [6.695103, 51.027157], [6.696221, 51.02499], [6.697749, 51.02228], [6.700852, 51.017403], [6.702009, 51.015669], [6.704148, 51.012527], [6.707388, 51.00765], [6.707797, 51.007014], [6.710523, 51.002773], [6.713448, 50.997897], [6.713586, 50.997659], [6.716278, 50.99302], [6.718909, 50.988143], [6.719374, 50.987241], [6.721422, 50.983267], [6.723735, 50.97839], [6.725162, 50.975125], [6.725876, 50.973513], [6.727893, 50.968637], [6.729696, 50.96376], [6.73095, 50.959941], [6.731315, 50.958883], [6.732815, 50.954007], [6.734111, 50.94913], [6.73523, 50.944253], [6.736213, 50.939377], [6.736738, 50.936491], [6.737126, 50.9345], [6.737995, 50.929624], [6.738781, 50.924747], [6.739475, 50.91987], [6.740076, 50.914994], [6.740599, 50.910117], [6.741051, 50.90524], [6.741413, 50.900364], [6.741633, 50.895487], [6.741652, 50.89061], [6.741434, 50.885734], [6.740973, 50.880857], [6.740287, 50.87598], [6.739411, 50.871104], [6.738388, 50.866227], [6.737255, 50.86135], [6.736738, 50.859286], [6.736063, 50.856474], [6.734791, 50.851597], [6.733368, 50.84672], [6.731745, 50.841844], [6.73095, 50.839719], [6.729926, 50.836967], [6.727882, 50.83209], [6.72561, 50.827214], [6.725162, 50.826298], [6.723256, 50.822337], [6.720801, 50.81746], [6.719374, 50.814695], [6.718318, 50.812584], [6.715825, 50.807707], [6.713586, 50.803464], [6.71326, 50.80283], [6.710667, 50.797954], [6.707875, 50.793077], [6.707797, 50.792949], [6.704852, 50.7882], [6.702009, 50.78414], [6.70141, 50.783324], [6.697486, 50.778447], [6.696221, 50.776999], [6.693107, 50.77357], [6.690433, 50.770805], [6.688348, 50.768694], [6.684644, 50.765135], [6.683255, 50.763817], [6.678856, 50.759868], [6.677812, 50.75894], [6.673068, 50.754941], [6.672008, 50.754064], [6.66728, 50.750315], [6.665801, 50.749187], [6.661492, 50.746004], [6.65906, 50.74431], [6.655703, 50.742024], [6.651629, 50.739434], [6.649915, 50.738357], [6.644127, 50.734963], [6.643387, 50.734557], [6.638339, 50.731791], [6.634068, 50.729681], [6.632551, 50.728926], [6.626762, 50.726304], [6.623041, 50.724804], [6.620974, 50.723953], [6.615186, 50.721781], [6.609663, 50.719927], [6.609398, 50.719835], [6.60361, 50.717996], [6.597821, 50.716394], [6.592157, 50.715051], [6.592033, 50.71502], [6.586245, 50.713778], [6.580457, 50.71272], [6.574668, 50.711822], [6.56888, 50.711083], [6.563092, 50.710521], [6.557629, 50.710174], [6.557304, 50.710152], [6.551516, 50.709974], [6.545727, 50.71], [6.54106, 50.710174], [6.539939, 50.710213], [6.534151, 50.710588], [6.528363, 50.711135], [6.522575, 50.711849], [6.516786, 50.712685], [6.510998, 50.713533], [6.50521, 50.71419], [6.499422, 50.714351], [6.493634, 50.713635], [6.487845, 50.71175], [6.484732, 50.710174], [6.482057, 50.70875], [6.476459, 50.705297], [6.476269, 50.70518], [6.470481, 50.701567], [6.468532, 50.700421], [6.464692, 50.698183], [6.459816, 50.695544], [6.458904, 50.695052], [6.453116, 50.692004], [6.450528, 50.690667], [6.447328, 50.689013], [6.44154, 50.68605], [6.441043, 50.685791], [6.435751, 50.683007], [6.431656, 50.680914], [6.429963, 50.680043], [6.424175, 50.677118], [6.421918, 50.676037], [6.418387, 50.674328], [6.412599, 50.671791], [6.410982, 50.671161], [6.40681, 50.669526], [6.401022, 50.667647], [6.395669, 50.666284], [6.395234, 50.666171], [6.389446, 50.664971], [6.383657, 50.664076], [6.377869, 50.663416], [6.372081, 50.662921], [6.366293, 50.662531], [6.360505, 50.662201], [6.354716, 50.661899], [6.348928, 50.661598], [6.345592, 50.661407], [6.34314, 50.66126], [6.337352, 50.660847], [6.331564, 50.660334], [6.325775, 50.659714], [6.319987, 50.659036], [6.314199, 50.658445], [6.308411, 50.658195], [6.302623, 50.658589], [6.296834, 50.659835], [6.292542, 50.661407], [6.291046, 50.661943], [6.285258, 50.664742], [6.282521, 50.666284], [6.27947, 50.668001], [6.274261, 50.671161], [6.273681, 50.671515], [6.267893, 50.675107], [6.266392, 50.676037], [6.262105, 50.67875], [6.258753, 50.680914], [6.256317, 50.682507], [6.251531, 50.685791], [6.250529, 50.686478], [6.244849, 50.690667], [6.24474, 50.690747], [6.238952, 50.695322], [6.238689, 50.695544], [6.233164, 50.7002], [6.232913, 50.700421], [6.227376, 50.705284], [6.227361, 50.705297], [6.221917, 50.710174], [6.221588, 50.710472], [6.21663, 50.715051], [6.215799, 50.715838], [6.211613, 50.719927], [6.210011, 50.721558], [6.20694, 50.724804], [6.204223, 50.727851], [6.202644, 50.729681], [6.198731, 50.734557], [6.198435, 50.734952], [6.195102, 50.739434], [6.192647, 50.743045], [6.191783, 50.74431], [6.188631, 50.749187], [6.186858, 50.752112], [6.185659, 50.754064], [6.182833, 50.75894], [6.18107, 50.762237], [6.18021, 50.763817], [6.177772, 50.768694], [6.175609, 50.77357], [6.175282, 50.774384], [6.173592, 50.778447], [6.171793, 50.783324], [6.170205, 50.7882], [6.169494, 50.790632], [6.168744, 50.793077], [6.167373, 50.797954], [6.166104, 50.80283], [6.164906, 50.807707], [6.163775, 50.812584], [6.163705, 50.812903], [6.162656, 50.81746]]}, "properties": {"anstieg_m": 5.0, "name": "Grundwasserwiederanstieg +5.0m", "beschreibung": "Erwarteter lokaler Grundwasserwiederanstieg um ca. 5.0 Meter."}}, {"type": "Feature", "geometry": {"type": "LineString", "coordinates": [[6.203388, 50.827214], [6.202647, 50.83209], [6.202065, 50.836967], [6.201651, 50.841844], [6.20142, 50.84672], [6.201385, 50.851597], [6.201545, 50.856474], [6.201895, 50.86135], [6.202437, 50.866227], [6.203178, 50.871104], [6.204109, 50.87598], [6.204223, 50.876494], [6.205134, 50.880857], [6.206258, 50.885734], [6.207474, 50.89061], [6.208809, 50.895487], [6.210011, 50.899377], [6.21031, 50.900364], [6.212006, 50.90524], [6.213992, 50.910117], [6.215799, 50.914008], [6.216264, 50.914994], [6.218772, 50.91987], [6.221558, 50.924747], [6.221588, 50.924796], [6.224591, 50.929624], [6.227376, 50.933689], [6.227947, 50.9345], [6.231622, 50.939377], [6.233164, 50.941287], [6.235648, 50.944253], [6.238952, 50.94798], [6.240015, 50.94913], [6.244716, 50.954007], [6.24474, 50.954031], [6.249773, 50.958883], [6.250529, 50.959582], [6.255255, 50.96376], [6.256317, 50.964656], [6.2613, 50.968637], [6.262105, 50.96925], [6.267893, 50.973378], [6.268098, 50.973513], [6.273681, 50.977108], [6.275844, 50.97839], [6.27947, 50.9805], [6.284666, 50.983267], [6.285258, 50.983578], [6.291046, 50.986366], [6.29526, 50.988143], [6.296834, 50.988807], [6.302623, 50.990944], [6.308411, 50.992824], [6.309062, 50.99302], [6.314199, 50.994698], [6.319987, 50.996709], [6.323051, 50.997897], [6.325775, 50.999125], [6.331564, 51.002114], [6.332734, 51.002773], [6.337352, 51.005838], [6.339822, 51.00765], [6.34314, 51.010606], [6.344948, 51.012527], [6.348257, 51.017403], [6.348928, 51.01889], [6.350115, 51.02228], [6.35107, 51.027157], [6.351478, 51.032033], [6.351563, 51.03691], [6.351504, 51.041787], [6.351438, 51.046663], [6.35146, 51.05154], [6.351619, 51.056417], [6.35193, 51.061293], [6.352387, 51.06617], [6.352981, 51.071047], [6.353711, 51.075923], [6.3546, 51.0808], [6.354716, 51.08133], [6.355653, 51.085677], [6.356936, 51.090553], [6.358467, 51.09543], [6.360229, 51.100307], [6.360505, 51.10101], [6.362132, 51.105183], [6.3642, 51.11006], [6.366293, 51.114586], [6.366454, 51.114937], [6.368894, 51.119813], [6.371625, 51.12469], [6.372081, 51.125438], [6.374624, 51.129567], [6.377869, 51.134346], [6.377937, 51.134443], [6.381521, 51.13932], [6.383657, 51.142024], [6.385422, 51.144196], [6.389446, 51.148847], [6.389648, 51.149073], [6.394221, 51.15395], [6.395234, 51.154974], [6.399228, 51.158826], [6.401022, 51.160466], [6.404772, 51.163703], [6.40681, 51.16538], [6.410948, 51.16858], [6.412599, 51.169809], [6.417843, 51.173456], [6.418387, 51.173825], [6.424175, 51.17748], [6.425652, 51.178333], [6.429963, 51.180794], [6.434673, 51.18321], [6.435751, 51.18376], [6.44154, 51.186411], [6.445765, 51.188086], [6.447328, 51.188705], [6.453116, 51.190701], [6.458904, 51.192411], [6.461037, 51.192963], [6.464692, 51.193917], [6.470481, 51.195232], [6.476269, 51.196329], [6.482057, 51.197187], [6.487845, 51.197789], [6.488695, 51.19784], [6.493634, 51.198142], [6.499422, 51.198248], [6.50521, 51.198127], [6.510226, 51.19784], [6.510998, 51.197797], [6.516786, 51.197273], [6.522575, 51.196525], [6.528363, 51.195529], [6.534151, 51.194267], [6.539086, 51.192963], [6.539939, 51.19274], [6.545727, 51.190978], [6.551516, 51.188936], [6.553664, 51.188086], [6.557304, 51.186625], [6.563092, 51.184028], [6.56476, 51.18321], [6.56888, 51.181159], [6.574046, 51.178333], [6.574668, 51.177989], [6.580457, 51.174524], [6.582097, 51.173456], [6.586245, 51.170713], [6.589226, 51.16858], [6.592033, 51.166523], [6.595618, 51.163703], [6.597821, 51.161897], [6.601311, 51.158826], [6.60361, 51.15667], [6.60632, 51.15395], [6.609398, 51.150623], [6.610765, 51.149073], [6.614807, 51.144196], [6.615186, 51.143717], [6.618578, 51.13932], [6.620974, 51.136001], [6.622079, 51.134443], [6.625323, 51.129567], [6.626762, 51.127234], [6.628315, 51.12469], [6.631067, 51.119813], [6.632551, 51.116946], [6.633587, 51.114937], [6.635876, 51.11006], [6.637875, 51.105183], [6.638339, 51.103907], [6.639668, 51.100307], [6.641266, 51.09543], [6.642702, 51.090553], [6.644004, 51.085677], [6.644127, 51.085165], [6.645224, 51.0808], [6.646285, 51.075923], [6.647181, 51.071047], [6.647929, 51.06617], [6.648536, 51.061293], [6.648987, 51.056417], [6.649275, 51.05154], [6.649431, 51.046663], [6.649545, 51.041787], [6.64974, 51.03691], [6.649915, 51.034698], [6.650133, 51.032033], [6.650791, 51.027157], [6.65174, 51.02228], [6.653007, 51.017403], [6.65465, 51.012527], [6.655703, 51.010046], [6.656719, 51.00765], [6.659251, 51.002773], [6.661492, 50.999051], [6.662195, 50.997897], [6.665395, 50.99302], [6.66728, 50.990185], [6.668653, 50.988143], [6.671872, 50.983267], [6.673068, 50.981395], [6.675004, 50.97839], [6.678009, 50.973513], [6.678856, 50.972081], [6.680913, 50.968637], [6.683649, 50.96376], [6.684644, 50.961849], [6.686204, 50.958883], [6.688485, 50.954007], [6.690421, 50.94913], [6.690433, 50.949098], [6.692109, 50.944253], [6.693547, 50.939377], [6.694804, 50.9345], [6.69591, 50.929624], [6.696221, 50.92807], [6.696897, 50.924747], [6.697751, 50.91987], [6.698475, 50.914994], [6.699083, 50.910117], [6.699561, 50.90524], [6.699863, 50.900364], [6.699924, 50.895487], [6.699701, 50.89061], [6.69921, 50.885734], [6.698531, 50.880857], [6.697763, 50.87598], [6.696978, 50.871104], [6.696221, 50.866512], [6.696174, 50.866227], [6.695276, 50.86135], [6.694121, 50.856474], [6.692558, 50.851597], [6.690502, 50.84672], [6.690433, 50.846584], [6.68802, 50.841844], [6.685224, 50.836967], [6.684644, 50.836], [6.682291, 50.83209], [6.679289, 50.827214], [6.678856, 50.826504], [6.676277, 50.822337], [6.673169, 50.81746], [6.673068, 50.817305], [6.669885, 50.812584], [6.66728, 50.809049], [6.666246, 50.807707], [6.662138, 50.80283], [6.661492, 50.802124], [6.657528, 50.797954], [6.655703, 50.796156], [6.652471, 50.793077], [6.649915, 50.790734], [6.647038, 50.7882], [6.644127, 50.785703], [6.641179, 50.783324], [6.638339, 50.781096], [6.634672, 50.778447], [6.632551, 50.776962], [6.627245, 50.77357], [6.626762, 50.77327], [6.620974, 50.769925], [6.618626, 50.768694], [6.615186, 50.76691], [6.609398, 50.764229], [6.608405, 50.763817], [6.60361, 50.761837], [6.597821, 50.759762], [6.595197, 50.75894], [6.592033, 50.757942], [6.586245, 50.75636], [6.580457, 50.755021], [6.575448, 50.754064], [6.574668, 50.753911], [6.56888, 50.753007], [6.563092, 50.752353], [6.557304, 50.751957], [6.551516, 50.751818], [6.545727, 50.751917], [6.539939, 50.752225], [6.534151, 50.752725], [6.528363, 50.753422], [6.52432, 50.754064], [6.522575, 50.754335], [6.516786, 50.755474], [6.510998, 50.756876], [6.50521, 50.758508], [6.503746, 50.75894], [6.499422, 50.760223], [6.493634, 50.761813], [6.487845, 50.762933], [6.482057, 50.763117], [6.476269, 50.761885], [6.470496, 50.75894], [6.470481, 50.758932], [6.464692, 50.75435], [6.464393, 50.754064], [6.459253, 50.749187], [6.458904, 50.748862], [6.454177, 50.74431], [6.453116, 50.743339], [6.448699, 50.739434], [6.447328, 50.738294], [6.442506, 50.734557], [6.44154, 50.733847], [6.435751, 50.729909], [6.435392, 50.729681], [6.429963, 50.726304], [6.427415, 50.724804], [6.424175, 50.722908], [6.418891, 50.719927], [6.418387, 50.719643], [6.412599, 50.716441], [6.410027, 50.715051], [6.40681, 50.71331], [6.401022, 50.71026], [6.400854, 50.710174], [6.395234, 50.707329], [6.390811, 50.705297], [6.389446, 50.704686], [6.383657, 50.702576], [6.377869, 50.701198], [6.372081, 50.700591], [6.366293, 50.700623], [6.360505, 50.701087], [6.354716, 50.701801], [6.348928, 50.702637], [6.34314, 50.703527], [6.337352, 50.704436], [6.331932, 50.705297], [6.331564, 50.705355], [6.325775, 50.706242], [6.319987, 50.707128], [6.314199, 50.708036], [6.308411, 50.709023], [6.302776, 50.710174], [6.302623, 50.710205], [6.296834, 50.711669], [6.291046, 50.713667], [6.287929, 50.715051], [6.285258, 50.716266], [6.27947, 50.719384], [6.278539, 50.719927], [6.273681, 50.722826], [6.270529, 50.724804], [6.267893, 50.726501], [6.263201, 50.729681], [6.262105, 50.730449], [6.25666, 50.734557], [6.256317, 50.734828], [6.25091, 50.739434], [6.250529, 50.739774], [6.245746, 50.74431], [6.24474, 50.745313], [6.241011, 50.749187], [6.238952, 50.75146], [6.23667, 50.754064], [6.233164, 50.758384], [6.232726, 50.75894], [6.22912, 50.763817], [6.227376, 50.766369], [6.225821, 50.768694], [6.222777, 50.77357], [6.221588, 50.775612], [6.219943, 50.778447], [6.217331, 50.783324], [6.215799, 50.786469], [6.214952, 50.7882], [6.212803, 50.793077], [6.210932, 50.797954], [6.210011, 50.800683], [6.209274, 50.80283], [6.207786, 50.807707], [6.206467, 50.812584], [6.205301, 50.81746], [6.204287, 50.822337], [6.204223, 50.822698], [6.203388, 50.827214]]}, "properties": {"anstieg_m": 10.0, "name": "Grundwasserwiederanstieg +10.0m", "beschreibung": "Erwarteter lokaler Grundwasserwiederanstieg um ca. 10.0 Meter."}}, {"type": "Feature", "geometry": {"type": "LineString", "coordinates": [[6.232793, 50.841844], [6.232571, 50.84672], [6.232581, 50.851597], [6.232825, 50.856474], [6.233164, 50.860073], [6.233283, 50.86135], [6.233913, 50.866227], [6.234688, 50.871104], [6.235601, 50.87598], [6.236681, 50.880857], [6.237988, 50.885734], [6.238952, 50.888686], [6.239592, 50.89061], [6.241528, 50.895487], [6.24379, 50.900364], [6.24474, 50.902199], [6.246328, 50.90524], [6.249139, 50.910117], [6.250529, 50.912313], [6.25227, 50.914994], [6.255802, 50.91987], [6.256317, 50.920519], [6.259825, 50.924747], [6.262105, 50.927264], [6.264335, 50.929624], [6.267893, 50.933184], [6.269264, 50.9345], [6.273681, 50.938586], [6.274588, 50.939377], [6.27947, 50.943469], [6.280496, 50.944253], [6.285258, 50.947731], [6.287415, 50.94913], [6.291046, 50.951384], [6.295869, 50.954007], [6.296834, 50.954514], [6.302623, 50.95719], [6.30691, 50.958883], [6.308411, 50.959461], [6.314199, 50.961381], [6.319987, 50.963008], [6.323088, 50.96376], [6.325775, 50.964411], [6.331564, 50.965597], [6.337352, 50.966525], [6.34314, 50.967144], [6.348928, 50.967427], [6.354716, 50.967394], [6.360505, 50.967092], [6.366293, 50.966561], [6.372081, 50.965828], [6.377869, 50.964932], [6.383657, 50.963982], [6.385561, 50.96376], [6.389446, 50.963317], [6.395234, 50.963283], [6.398148, 50.96376], [6.401022, 50.96467], [6.405209, 50.968637], [6.40508, 50.973513], [6.403055, 50.97839], [6.401022, 50.98204], [6.400392, 50.983267], [6.397621, 50.988143], [6.395234, 50.992876], [6.395165, 50.99302], [6.393031, 50.997897], [6.391309, 51.002773], [6.389898, 51.00765], [6.389446, 51.009433], [6.388664, 51.012527], [6.387528, 51.017403], [6.386454, 51.02228], [6.385438, 51.027157], [6.384513, 51.032033], [6.38373, 51.03691], [6.383657, 51.037493], [6.383128, 51.041787], [6.382752, 51.046663], [6.382623, 51.05154], [6.382747, 51.056417], [6.383117, 51.061293], [6.383657, 51.065754], [6.383708, 51.06617], [6.384483, 51.071047], [6.385436, 51.075923], [6.386591, 51.0808], [6.388001, 51.085677], [6.389446, 51.089787], [6.389718, 51.090553], [6.391739, 51.09543], [6.394033, 51.100307], [6.395234, 51.102651], [6.396553, 51.105183], [6.399297, 51.11006], [6.401022, 51.112873], [6.402331, 51.114937], [6.405723, 51.119813], [6.40681, 51.121248], [6.409537, 51.12469], [6.412599, 51.128245], [6.413798, 51.129567], [6.418387, 51.134271], [6.418566, 51.134443], [6.423961, 51.13932], [6.424175, 51.139503], [6.429963, 51.144085], [6.430116, 51.144196], [6.435751, 51.148114], [6.437278, 51.149073], [6.44154, 51.151658], [6.445779, 51.15395], [6.447328, 51.154762], [6.453116, 51.157458], [6.456503, 51.158826], [6.458904, 51.159775], [6.464692, 51.161746], [6.470481, 51.163396], [6.471789, 51.163703], [6.476269, 51.164752], [6.482057, 51.16581], [6.487845, 51.166567], [6.493634, 51.16703], [6.499422, 51.167205], [6.50521, 51.167095], [6.510998, 51.166695], [6.516786, 51.165994], [6.522575, 51.164968], [6.52786, 51.163703], [6.528363, 51.163582], [6.534151, 51.161822], [6.539939, 51.159656], [6.54186, 51.158826], [6.545727, 51.157121], [6.551516, 51.154261], [6.552106, 51.15395], [6.557304, 51.151123], [6.560818, 51.149073], [6.563092, 51.147709], [6.56854, 51.144196], [6.56888, 51.143971], [6.574668, 51.139797], [6.57527, 51.13932], [6.580457, 51.134982], [6.581041, 51.134443], [6.585983, 51.129567], [6.586245, 51.129288], [6.59029, 51.12469], [6.592033, 51.122555], [6.594173, 51.119813], [6.597714, 51.114937], [6.597821, 51.114778], [6.600935, 51.11006], [6.60361, 51.105577], [6.603838, 51.105183], [6.606391, 51.100307], [6.608571, 51.09543], [6.609398, 51.09321], [6.610373, 51.090553], [6.611832, 51.085677], [6.613007, 51.0808], [6.613971, 51.075923], [6.6148, 51.071047], [6.615186, 51.06854], [6.615554, 51.06617], [6.616237, 51.061293], [6.616794, 51.056417], [6.61715, 51.05154], [6.617249, 51.046663], [6.617083, 51.041787], [6.616693, 51.03691], [6.616147, 51.032033], [6.615534, 51.027157], [6.615186, 51.024153], [6.61497, 51.02228], [6.614594, 51.017403], [6.614552, 51.012527], [6.61504, 51.00765], [6.615186, 51.007061], [6.61636, 51.002773], [6.618795, 50.997897], [6.620974, 50.994948], [6.622546, 50.99302], [6.626762, 50.98872], [6.627338, 50.988143], [6.632394, 50.983267], [6.632551, 50.983113], [6.636991, 50.97839], [6.638339, 50.976845], [6.640994, 50.973513], [6.644127, 50.969227], [6.644534, 50.968637], [6.64773, 50.96376], [6.649915, 50.960227], [6.650733, 50.958883], [6.653558, 50.954007], [6.655703, 50.949994], [6.656163, 50.94913], [6.658496, 50.944253], [6.660515, 50.939377], [6.661492, 50.936632], [6.66225, 50.9345], [6.663741, 50.929624], [6.665001, 50.924747], [6.66603, 50.91987], [6.66683, 50.914994], [6.66728, 50.911292], [6.667425, 50.910117], [6.667853, 50.90524], [6.668122, 50.900364], [6.668199, 50.895487], [6.668016, 50.89061], [6.667512, 50.885734], [6.66728, 50.884362], [6.666694, 50.880857], [6.66563, 50.87598], [6.664408, 50.871104], [6.663073, 50.866227], [6.661584, 50.86135], [6.661492, 50.861088], [6.659857, 50.856474], [6.657762, 50.851597], [6.655703, 50.847574], [6.655264, 50.84672], [6.652414, 50.841844], [6.649915, 50.838001], [6.649231, 50.836967], [6.645741, 50.83209], [6.644127, 50.829984], [6.641926, 50.827214], [6.638339, 50.822976], [6.637773, 50.822337], [6.633217, 50.81746], [6.632551, 50.816787], [6.628148, 50.812584], [6.626762, 50.811345], [6.62238, 50.807707], [6.620974, 50.806613], [6.615638, 50.80283], [6.615186, 50.802527], [6.609398, 50.798975], [6.607553, 50.797954], [6.60361, 50.795832], [6.597863, 50.793077], [6.597821, 50.793057], [6.592033, 50.790626], [6.586245, 50.788562], [6.585043, 50.7882], [6.580457, 50.786832], [6.574668, 50.785429], [6.56888, 50.784331], [6.563092, 50.783528], [6.560773, 50.783324], [6.557304, 50.783016], [6.551516, 50.782807], [6.545727, 50.782917], [6.540429, 50.783324], [6.539939, 50.783361], [6.534151, 50.784141], [6.528363, 50.785257], [6.522575, 50.786682], [6.517364, 50.7882], [6.516786, 50.78837], [6.510998, 50.790256], [6.50521, 50.792354], [6.50338, 50.793077], [6.499422, 50.794655], [6.493634, 50.797187], [6.491946, 50.797954], [6.487845, 50.799904], [6.482057, 50.802652], [6.481577, 50.80283], [6.476269, 50.804991], [6.470481, 50.806107], [6.464692, 50.804815], [6.462116, 50.80283], [6.458904, 50.80012], [6.457254, 50.797954], [6.453552, 50.793077], [6.453116, 50.792517], [6.450203, 50.7882], [6.447328, 50.784234], [6.446687, 50.783324], [6.442977, 50.778447], [6.44154, 50.776695], [6.438859, 50.77357], [6.435751, 50.77022], [6.434194, 50.768694], [6.429963, 50.764833], [6.428683, 50.763817], [6.424175, 50.760421], [6.421883, 50.75894], [6.418387, 50.756731], [6.413631, 50.754064], [6.412599, 50.753484], [6.40681, 50.75043], [6.404379, 50.749187], [6.401022, 50.747451], [6.395234, 50.744491], [6.394877, 50.74431], [6.389446, 50.741548], [6.385205, 50.739434], [6.383657, 50.738668], [6.377869, 50.735989], [6.374229, 50.734557], [6.372081, 50.733748], [6.366293, 50.732203], [6.360505, 50.731431], [6.354716, 50.73134], [6.348928, 50.731733], [6.34314, 50.73242], [6.337352, 50.733264], [6.331564, 50.734186], [6.329375, 50.734557], [6.325775, 50.735171], [6.319987, 50.736259], [6.314199, 50.737554], [6.308411, 50.739209], [6.307794, 50.739434], [6.302623, 50.741412], [6.296834, 50.744236], [6.296704, 50.74431], [6.291046, 50.747664], [6.288741, 50.749187], [6.285258, 50.751558], [6.281831, 50.754064], [6.27947, 50.755853], [6.275645, 50.75894], [6.273681, 50.760601], [6.270107, 50.763817], [6.267893, 50.765927], [6.265158, 50.768694], [6.262105, 50.772005], [6.260739, 50.77357], [6.256795, 50.778447], [6.256317, 50.779084], [6.253245, 50.783324], [6.250529, 50.787409], [6.250016, 50.7882], [6.247098, 50.793077], [6.24474, 50.797519], [6.244516, 50.797954], [6.242272, 50.80283], [6.24033, 50.807707], [6.238952, 50.811652], [6.238631, 50.812584], [6.237129, 50.81746], [6.235832, 50.822337], [6.23475, 50.827214], [6.233886, 50.83209], [6.233236, 50.836967], [6.233164, 50.837764], [6.232793, 50.841844]]}, "properties": {"anstieg_m": 15.0, "name": "Grundwasserwiederanstieg +15.0m", "beschreibung": "Erwarteter lokaler Grundwasserwiederanstieg um ca. 15.0 Meter."}}, {"type": "Feature", "geometry": {"type": "LineString", "coordinates": [[6.261802, 50.836967], [6.26123, 50.841844], [6.260954, 50.84672], [6.260986, 50.851597], [6.261337, 50.856474], [6.261997, 50.86135], [6.262105, 50.861922], [6.262956, 50.866227], [6.264162, 50.871104], [6.265585, 50.87598], [6.267228, 50.880857], [6.267893, 50.882591], [6.269175, 50.885734], [6.271423, 50.89061], [6.273681, 50.894942], [6.273982, 50.895487], [6.277016, 50.900364], [6.27947, 50.903838], [6.280524, 50.90524], [6.28468, 50.910117], [6.285258, 50.910727], [6.289664, 50.914994], [6.291046, 50.916221], [6.295615, 50.91987], [6.296834, 50.920789], [6.302623, 50.924662], [6.302765, 50.924747], [6.308411, 50.927982], [6.311666, 50.929624], [6.314199, 50.930854], [6.319987, 50.933286], [6.323472, 50.9345], [6.325775, 50.935269], [6.331564, 50.936782], [6.337352, 50.937852], [6.34314, 50.938494], [6.348928, 50.938734], [6.354716, 50.938598], [6.360505, 50.938097], [6.366293, 50.937214], [6.372081, 50.935915], [6.376862, 50.9345], [6.377869, 50.934196], [6.383657, 50.932119], [6.389446, 50.92979], [6.389849, 50.929624], [6.395234, 50.927222], [6.400267, 50.924747], [6.401022, 50.924331], [6.40681, 50.920836], [6.40824, 50.91987], [6.412599, 50.916388], [6.414166, 50.914994], [6.418387, 50.910485], [6.418706, 50.910117], [6.422508, 50.90524], [6.424175, 50.902799], [6.42584, 50.900364], [6.428825, 50.895487], [6.429963, 50.893388], [6.431624, 50.89061], [6.434032, 50.885734], [6.435751, 50.88131], [6.435973, 50.880857], [6.437891, 50.87598], [6.439279, 50.871104], [6.440261, 50.866227], [6.440878, 50.86135], [6.441135, 50.856474], [6.441043, 50.851597], [6.440633, 50.84672], [6.43994, 50.841844], [6.438988, 50.836967], [6.437777, 50.83209], [6.436295, 50.827214], [6.435751, 50.82571], [6.434576, 50.822337], [6.432602, 50.81746], [6.430383, 50.812584], [6.429963, 50.811742], [6.427885, 50.807707], [6.425034, 50.80283], [6.424175, 50.801529], [6.421579, 50.797954], [6.418387, 50.794171], [6.41733, 50.793077], [6.412599, 50.788772], [6.411864, 50.7882], [6.40681, 50.784668], [6.404531, 50.783324], [6.401022, 50.781423], [6.395234, 50.77875], [6.394498, 50.778447], [6.389446, 50.776388], [6.383657, 50.774162], [6.382092, 50.77357], [6.377869, 50.77186], [6.372081, 50.76948], [6.370143, 50.768694], [6.366293, 50.76705], [6.360505, 50.764847], [6.356952, 50.763817], [6.354716, 50.763189], [6.348928, 50.762269], [6.34314, 50.762065], [6.337352, 50.762438], [6.331564, 50.763263], [6.328952, 50.763817], [6.325775, 50.764505], [6.319987, 50.766207], [6.314199, 50.768429], [6.313632, 50.768694], [6.308411, 50.771217], [6.304294, 50.77357], [6.302623, 50.774564], [6.296919, 50.778447], [6.296834, 50.778508], [6.291046, 50.78319], [6.290897, 50.783324], [6.285846, 50.7882], [6.285258, 50.788822], [6.281555, 50.793077], [6.27947, 50.795735], [6.277836, 50.797954], [6.274586, 50.80283], [6.273681, 50.804328], [6.271734, 50.807707], [6.269232, 50.812584], [6.267893, 50.815576], [6.267085, 50.81746], [6.265298, 50.822337], [6.263831, 50.827214], [6.262668, 50.83209], [6.262105, 50.835234], [6.261802, 50.836967]]}, "properties": {"anstieg_m": 20.0, "name": "Grundwasserwiederanstieg +20.0m", "beschreibung": "Erwarteter lokaler Grundwasserwiederanstieg um ca. 20.0 Meter."}}, {"type": "Feature", "geometry": {"type": "LineString", "coordinates": [[6.412456, 51.03691], [6.411706, 51.041787], [6.411216, 51.046663], [6.411036, 51.05154], [6.411194, 51.056417], [6.411687, 51.061293], [6.41248, 51.06617], [6.412599, 51.066719], [6.413549, 51.071047], [6.414875, 51.075923], [6.416486, 51.0808], [6.418387, 51.085583], [6.418426, 51.085677], [6.420785, 51.090553], [6.423509, 51.09543], [6.424175, 51.096501], [6.426698, 51.100307], [6.429963, 51.104748], [6.430308, 51.105183], [6.434511, 51.11006], [6.435751, 51.111382], [6.439396, 51.114937], [6.44154, 51.116864], [6.445202, 51.119813], [6.447328, 51.12141], [6.452275, 51.12469], [6.453116, 51.12522], [6.458904, 51.128456], [6.461162, 51.129567], [6.464692, 51.131239], [6.470481, 51.133601], [6.472963, 51.134443], [6.476269, 51.135518], [6.482057, 51.136984], [6.487845, 51.13802], [6.493634, 51.138637], [6.499422, 51.138847], [6.50521, 51.138656], [6.510998, 51.138061], [6.516786, 51.137059], [6.522575, 51.135635], [6.526279, 51.134443], [6.528363, 51.13374], [6.534151, 51.131341], [6.537791, 51.129567], [6.539939, 51.128477], [6.545727, 51.125165], [6.546483, 51.12469], [6.551516, 51.121368], [6.553672, 51.119813], [6.557304, 51.117008], [6.559744, 51.114937], [6.563092, 51.111826], [6.564827, 51.11006], [6.56888, 51.105508], [6.569149, 51.105183], [6.5728, 51.100307], [6.574668, 51.097492], [6.575953, 51.09543], [6.578555, 51.090553], [6.580457, 51.086291], [6.580714, 51.085677], [6.582394, 51.0808], [6.583782, 51.075923], [6.584962, 51.071047], [6.585982, 51.06617], [6.586245, 51.06468], [6.586798, 51.061293], [6.58742, 51.056417], [6.587812, 51.05154], [6.587904, 51.046663], [6.587651, 51.041787], [6.587066, 51.03691], [6.586245, 51.032207], [6.586213, 51.032033], [6.585133, 51.027157], [6.583928, 51.02228], [6.58261, 51.017403], [6.581191, 51.012527], [6.580457, 51.009943], [6.579739, 51.00765], [6.57856, 51.002773], [6.578174, 50.997897], [6.579166, 50.99302], [6.580457, 50.990728], [6.581968, 50.988143], [6.586245, 50.983685], [6.586659, 50.983267], [6.592033, 50.979015], [6.592816, 50.97839], [6.597821, 50.974788], [6.599495, 50.973513], [6.60361, 50.970415], [6.60579, 50.968637], [6.609398, 50.965524], [6.611286, 50.96376], [6.615186, 50.959727], [6.615947, 50.958883], [6.619883, 50.954007], [6.620974, 50.952501], [6.623282, 50.94913], [6.626291, 50.944253], [6.626762, 50.943408], [6.628897, 50.939377], [6.631152, 50.9345], [6.632551, 50.93094], [6.633048, 50.929624], [6.634609, 50.924747], [6.635907, 50.91987], [6.636968, 50.914994], [6.637794, 50.910117], [6.638339, 50.905478], [6.638366, 50.90524], [6.638663, 50.900364], [6.638676, 50.895487], [6.638386, 50.89061], [6.638339, 50.890234], [6.637768, 50.885734], [6.636822, 50.880857], [6.635562, 50.87598], [6.63401, 50.871104], [6.632551, 50.867218], [6.632164, 50.866227], [6.629977, 50.86135], [6.627445, 50.856474], [6.626762, 50.855314], [6.624453, 50.851597], [6.620975, 50.84672], [6.620974, 50.846719], [6.616864, 50.841844], [6.615186, 50.840024], [6.612177, 50.836967], [6.609398, 50.834312], [6.60688, 50.83209], [6.60361, 50.829365], [6.600719, 50.827214], [6.597821, 50.825189], [6.593071, 50.822337], [6.592033, 50.821748], [6.586245, 50.818989], [6.582257, 50.81746], [6.580457, 50.816793], [6.574668, 50.815103], [6.56888, 50.813804], [6.563092, 50.812823], [6.561073, 50.812584], [6.557304, 50.812147], [6.551516, 50.811796], [6.545727, 50.811822], [6.539939, 50.812278], [6.537981, 50.812584], [6.534151, 50.813185], [6.528363, 50.814498], [6.522575, 50.816151], [6.518716, 50.81746], [6.516786, 50.818134], [6.510998, 50.820501], [6.507181, 50.822337], [6.50521, 50.82335], [6.499422, 50.826829], [6.498858, 50.827214], [6.493634, 50.831074], [6.492386, 50.83209], [6.487845, 50.836118], [6.486932, 50.836967], [6.482189, 50.841844], [6.482057, 50.841994], [6.477851, 50.84672], [6.476269, 50.84875], [6.473843, 50.851597], [6.470481, 50.856349], [6.470376, 50.856474], [6.467078, 50.86135], [6.464768, 50.866227], [6.464692, 50.866439], [6.462704, 50.871104], [6.461417, 50.87598], [6.460655, 50.880857], [6.4603, 50.885734], [6.460308, 50.89061], [6.460636, 50.895487], [6.461221, 50.900364], [6.461998, 50.90524], [6.462922, 50.910117], [6.463972, 50.914994], [6.464692, 50.917997], [6.465081, 50.91987], [6.466179, 50.924747], [6.467392, 50.929624], [6.468738, 50.9345], [6.470164, 50.939377], [6.470481, 50.940598], [6.471385, 50.944253], [6.472129, 50.94913], [6.472011, 50.954007], [6.470706, 50.958883], [6.470481, 50.959325], [6.467944, 50.96376], [6.464692, 50.967674], [6.463795, 50.968637], [6.458904, 50.973058], [6.458368, 50.973513], [6.453116, 50.977697], [6.452237, 50.97839], [6.447328, 50.98221], [6.446003, 50.983267], [6.44154, 50.986859], [6.440029, 50.988143], [6.435751, 50.99188], [6.434555, 50.99302], [6.429963, 50.997648], [6.429743, 50.997897], [6.425792, 51.002773], [6.424175, 51.005018], [6.422517, 51.00765], [6.41988, 51.012527], [6.418387, 51.015818], [6.417738, 51.017403], [6.416041, 51.02228], [6.414624, 51.027157], [6.413436, 51.032033], [6.412599, 51.03619], [6.412456, 51.03691]]}, "properties": {"anstieg_m": 20.0, "name": "Grundwasserwiederanstieg +20.0m", "beschreibung": "Erwarteter lokaler Grundwasserwiederanstieg um ca. 20.0 Meter."}}, {"type": "Feature", "geometry": {"type": "LineString", "coordinates": [[6.296234, 50.827214], [6.294527, 50.83209], [6.293354, 50.836967], [6.292717, 50.841844], [6.29262, 50.84672], [6.293068, 50.851597], [6.294059, 50.856474], [6.295562, 50.86135], [6.296834, 50.864563], [6.297523, 50.866227], [6.299866, 50.871104], [6.302461, 50.87598], [6.302623, 50.876266], [6.305428, 50.880857], [6.308411, 50.885328], [6.308718, 50.885734], [6.31276, 50.89061], [6.314199, 50.892136], [6.317873, 50.895487], [6.319987, 50.897162], [6.32471, 50.900364], [6.325775, 50.900992], [6.331564, 50.903832], [6.335344, 50.90524], [6.337352, 50.905901], [6.34314, 50.907162], [6.348928, 50.907765], [6.354716, 50.907734], [6.360505, 50.907078], [6.366293, 50.905793], [6.367977, 50.90524], [6.372081, 50.903778], [6.377869, 50.901068], [6.37909, 50.900364], [6.383657, 50.897467], [6.386278, 50.895487], [6.389446, 50.892824], [6.391712, 50.89061], [6.395234, 50.886734], [6.396034, 50.885734], [6.399448, 50.880857], [6.401022, 50.878209], [6.402218, 50.87598], [6.404377, 50.871104], [6.406077, 50.866227], [6.40681, 50.863373], [6.407291, 50.86135], [6.40803, 50.856474], [6.408337, 50.851597], [6.408214, 50.84672], [6.407678, 50.841844], [6.40681, 50.837347], [6.406731, 50.836967], [6.405276, 50.83209], [6.403366, 50.827214], [6.401022, 50.822495], [6.400934, 50.822337], [6.397588, 50.81746], [6.395234, 50.814686], [6.393203, 50.812584], [6.389446, 50.809315], [6.387342, 50.807707], [6.383657, 50.805253], [6.379434, 50.80283], [6.377869, 50.802036], [6.372081, 50.799569], [6.367465, 50.797954], [6.366293, 50.797575], [6.360505, 50.796032], [6.354716, 50.794776], [6.348928, 50.793876], [6.34314, 50.793503], [6.337352, 50.793849], [6.331564, 50.795027], [6.325775, 50.797043], [6.323874, 50.797954], [6.319987, 50.799998], [6.315689, 50.80283], [6.314199, 50.80392], [6.309831, 50.807707], [6.308411, 50.809086], [6.305273, 50.812584], [6.302623, 50.815942], [6.301554, 50.81746], [6.298599, 50.822337], [6.296834, 50.825889], [6.296234, 50.827214]]}, "properties": {"anstieg_m": 25.0, "name": "Grundwasserwiederanstieg +25.0m", "beschreibung": "Erwarteter lokaler Grundwasserwiederanstieg um ca. 25.0 Meter."}}, {"type": "Feature", "geometry": {"type": "LineString", "coordinates": [[6.445321, 51.03691], [6.443408, 51.041787], [6.442312, 51.046663], [6.441917, 51.05154], [6.442136, 51.056417], [6.442924, 51.061293], [6.444277, 51.06617], [6.446214, 51.071047], [6.447328, 51.073233], [6.44889, 51.075923], [6.452261, 51.0808], [6.453116, 51.081907], [6.456372, 51.085677], [6.458904, 51.088412], [6.461118, 51.090553], [6.464692, 51.093763], [6.466843, 51.09543], [6.470481, 51.097973], [6.474595, 51.100307], [6.476269, 51.101161], [6.482057, 51.103418], [6.487845, 51.10488], [6.490779, 51.105183], [6.493634, 51.105464], [6.499422, 51.105196], [6.499494, 51.105183], [6.50521, 51.104111], [6.510998, 51.102338], [6.515975, 51.100307], [6.516786, 51.099931], [6.522575, 51.096652], [6.524392, 51.09543], [6.528363, 51.092067], [6.529924, 51.090553], [6.533627, 51.085677], [6.534151, 51.084681], [6.536072, 51.0808], [6.537698, 51.075923], [6.538803, 51.071047], [6.539594, 51.06617], [6.539939, 51.063232], [6.540167, 51.061293], [6.540514, 51.056417], [6.540563, 51.05154], [6.540189, 51.046663], [6.539939, 51.045299], [6.539203, 51.041787], [6.537505, 51.03691], [6.535163, 51.032033], [6.534151, 51.030243], [6.532275, 51.027157], [6.529063, 51.02228], [6.528363, 51.021264], [6.52549, 51.017403], [6.522575, 51.013697], [6.521531, 51.012527], [6.51683, 51.00765], [6.516786, 51.007609], [6.510998, 51.00317], [6.510254, 51.002773], [6.50521, 51.000431], [6.499422, 50.999474], [6.493634, 51.000275], [6.487845, 51.002387], [6.487148, 51.002773], [6.482057, 51.005403], [6.478474, 51.00765], [6.476269, 51.00896], [6.471032, 51.012527], [6.470481, 51.012887], [6.464692, 51.017084], [6.464279, 51.017403], [6.458904, 51.021549], [6.458029, 51.02228], [6.453116, 51.026569], [6.45253, 51.027157], [6.448267, 51.032033], [6.447328, 51.033377], [6.445321, 51.03691]]}, "properties": {"anstieg_m": 25.0, "name": "Grundwasserwiederanstieg +25.0m", "beschreibung": "Erwarteter lokaler Grundwasserwiederanstieg um ca. 25.0 Meter."}}, {"type": "Feature", "geometry": {"type": "LineString", "coordinates": [[6.493609, 50.895487], [6.493634, 50.896197], [6.493788, 50.900364], [6.494356, 50.90524], [6.495219, 50.910117], [6.496309, 50.914994], [6.497609, 50.91987], [6.499172, 50.924747], [6.499422, 50.925385], [6.501324, 50.929624], [6.50411, 50.9345], [6.50521, 50.936084], [6.507983, 50.939377], [6.510998, 50.942451], [6.513208, 50.944253], [6.516786, 50.946976], [6.520283, 50.94913], [6.522575, 50.950538], [6.528363, 50.953492], [6.529608, 50.954007], [6.534151, 50.955883], [6.539939, 50.957443], [6.545727, 50.958099], [6.551516, 50.957877], [6.557304, 50.956884], [6.563092, 50.955284], [6.566673, 50.954007], [6.56888, 50.953207], [6.574668, 50.950688], [6.577672, 50.94913], [6.580457, 50.947615], [6.585403, 50.944253], [6.586245, 50.943635], [6.590876, 50.939377], [6.592033, 50.938212], [6.595136, 50.9345], [6.597821, 50.930959], [6.598719, 50.929624], [6.601617, 50.924747], [6.60361, 50.920719], [6.60399, 50.91987], [6.60572, 50.914994], [6.60698, 50.910117], [6.607799, 50.90524], [6.608182, 50.900364], [6.608115, 50.895487], [6.607572, 50.89061], [6.606541, 50.885734], [6.605023, 50.880857], [6.60361, 50.877369], [6.602997, 50.87598], [6.600401, 50.871104], [6.597821, 50.866971], [6.597302, 50.866227], [6.593377, 50.86135], [6.592033, 50.859897], [6.588296, 50.856474], [6.586245, 50.854818], [6.581241, 50.851597], [6.580457, 50.851142], [6.574668, 50.848593], [6.56888, 50.846796], [6.56853, 50.84672], [6.563092, 50.845618], [6.557304, 50.844848], [6.551516, 50.844425], [6.545727, 50.844365], [6.539939, 50.844731], [6.534151, 50.845604], [6.52972, 50.84672], [6.528363, 50.847086], [6.522575, 50.84936], [6.518406, 50.851597], [6.516786, 50.852566], [6.511665, 50.856474], [6.510998, 50.857059], [6.506888, 50.86135], [6.50521, 50.863402], [6.503152, 50.866227], [6.500141, 50.871104], [6.499422, 50.87251], [6.49779, 50.87598], [6.495985, 50.880857], [6.494681, 50.885734], [6.49389, 50.89061], [6.493634, 50.895017], [6.493609, 50.895487]]}, "properties": {"anstieg_m": 25.0, "name": "Grundwasserwiederanstieg +25.0m", "beschreibung": "Erwarteter lokaler Grundwasserwiederanstieg um ca. 25.0 Meter."}}]}