{
  "type": "FeatureCollection",
  "features": [
    {
      "type": "Feature",
      "geometry": {
        "type": "Point",
        "coordinates": [
          6.247028511330684,
          50.554114735853894
        ]
      },
      "properties": {
        "anlagen_nr": "unknown_Städteregion Aachen_0",
        "name": "e",
        "kreis": "Städteregion Aachen",
        "bauwerksart": "",
        "typ": "Gewässerkennzahl / Gewässername / Auflage\t282 / Rur / 3E",
        "gewaesser": "kennzahl / Gewässername / Auflage\t282 / Rur / 3E",
        "quelle": "ELWAS-WEB (Land NRW), Datenlizenz Deutschland - Namensnennung - Version 2.0"
      }
    },
    {
      "type": "Feature",
      "geometry": {
        "type": "Point",
        "coordinates": [
          6.246155785420961,
          50.55234355110938
        ]
      },
      "properties": {
        "anlagen_nr": "unknown_Städteregion Aachen_1",
        "name": "e",
        "kreis": "Städteregion Aachen",
        "bauwerksart": "",
        "typ": "Gewässerkennzahl / Gewässername / Auflage\t282 / Rur / 3E",
        "gewaesser": "kennzahl / Gewässername / Auflage\t282 / Rur / 3E",
        "quelle": "ELWAS-WEB (Land NRW), Datenlizenz Deutschland - Namensnennung - Version 2.0"
      }
    },
    {
      "type": "Feature",
      "geometry": {
        "type": "Point",
        "coordinates": [
          6.106810124984727,
          50.86577817761175
        ]
      },
      "properties": {
        "anlagen_nr": "unknown_Städteregion Aachen_2",
        "name": "e",
        "kreis": "Städteregion Aachen",
        "bauwerksart": "",
        "typ": "Gewässerkennzahl / Gewässername / Auflage\t28284 / Broicher Bach / 3E",
        "gewaesser": "kennzahl / Gewässername / Auflage\t28284 / Broicher Bach / 3E",
        "quelle": "ELWAS-WEB (Land NRW), Datenlizenz Deutschland - Namensnennung - Version 2.0"
      }
    },
    {
      "type": "Feature",
      "geometry": {
        "type": "Point",
        "coordinates": [
          6.306734520333811,
          50.81881555904313
        ]
      },
      "properties": {
        "anlagen_nr": "unknown_Städteregion Aachen_3",
        "name": "e",
        "kreis": "Städteregion Aachen",
        "bauwerksart": "",
        "typ": "Gewässerkennzahl / Gewässername / Auflage\t2824 / Inde / 3E",
        "gewaesser": "kennzahl / Gewässername / Auflage\t2824 / Inde / 3E",
        "quelle": "ELWAS-WEB (Land NRW), Datenlizenz Deutschland - Namensnennung - Version 2.0"
      }
    },
    {
      "type": "Feature",
      "geometry": {
        "type": "Point",
        "coordinates": [
          6.303978200938475,
          50.81779706166768
        ]
      },
      "properties": {
        "anlagen_nr": "unknown_Städteregion Aachen_4",
        "name": "e",
        "kreis": "Städteregion Aachen",
        "bauwerksart": "",
        "typ": "Gewässerkennzahl / Gewässername / Auflage\t2824 / Inde / 3E",
        "gewaesser": "kennzahl / Gewässername / Auflage\t2824 / Inde / 3E",
        "quelle": "ELWAS-WEB (Land NRW), Datenlizenz Deutschland - Namensnennung - Version 2.0"
      }
    },
    {
      "type": "Feature",
      "geometry": {
        "type": "Point",
        "coordinates": [
          6.254486054460798,
          50.52323195724446
        ]
      },
      "properties": {
        "anlagen_nr": "unknown_Städteregion Aachen_5",
        "name": "e",
        "kreis": "Städteregion Aachen",
        "bauwerksart": "",
        "typ": "Gewässerkennzahl / Gewässername / Auflage\t28214 / Perlenbach / 3E",
        "gewaesser": "kennzahl / Gewässername / Auflage\t28214 / Perlenbach / 3E",
        "quelle": "ELWAS-WEB (Land NRW), Datenlizenz Deutschland - Namensnennung - Version 2.0"
      }
    },
    {
      "type": "Feature",
      "geometry": {
        "type": "Point",
        "coordinates": [
          6.234936578804876,
          50.552392805313914
        ]
      },
      "properties": {
        "anlagen_nr": "unknown_Städteregion Aachen_6",
        "name": "e",
        "kreis": "Städteregion Aachen",
        "bauwerksart": "",
        "typ": "Gewässerkennzahl / Gewässername / Auflage\t282 / Rur / 3E",
        "gewaesser": "kennzahl / Gewässername / Auflage\t282 / Rur / 3E",
        "quelle": "ELWAS-WEB (Land NRW), Datenlizenz Deutschland - Namensnennung - Version 2.0"
      }
    },
    {
      "type": "Feature",
      "geometry": {
        "type": "Point",
        "coordinates": [
          6.239268940849639,
          50.57103276216999
        ]
      },
      "properties": {
        "anlagen_nr": "unknown_Städteregion Aachen_7",
        "name": "e",
        "kreis": "Städteregion Aachen",
        "bauwerksart": "",
        "typ": "Gewässerkennzahl / Gewässername / Auflage\t282152 / Laufenbach / 3E",
        "gewaesser": "kennzahl / Gewässername / Auflage\t282152 / Laufenbach / 3E",
        "quelle": "ELWAS-WEB (Land NRW), Datenlizenz Deutschland - Namensnennung - Version 2.0"
      }
    },
    {
      "type": "Feature",
      "geometry": {
        "type": "Point",
        "coordinates": [
          6.364535165670254,
          50.58135814884032
        ]
      },
      "properties": {
        "anlagen_nr": "unknown_Städteregion Aachen_8",
        "name": "e",
        "kreis": "Städteregion Aachen",
        "bauwerksart": "Schwelle unterhalb ehem. Wehr Dedenborn",
        "typ": "Sohlschwelle",
        "gewaesser": "kennzahl / Gewässername / Auflage\t282 / Rur / 3E",
        "quelle": "ELWAS-WEB (Land NRW), Datenlizenz Deutschland - Namensnennung - Version 2.0"
      }
    },
    {
      "type": "Feature",
      "geometry": {
        "type": "Point",
        "coordinates": [
          6.35421123200576,
          50.586844764484205
        ]
      },
      "properties": {
        "anlagen_nr": "unknown_Städteregion Aachen_9",
        "name": "e",
        "kreis": "Städteregion Aachen",
        "bauwerksart": "Wehr Rauchenauel",
        "typ": "Rampe",
        "gewaesser": "kennzahl / Gewässername / Auflage\t282 / Rur / 3E",
        "quelle": "ELWAS-WEB (Land NRW), Datenlizenz Deutschland - Namensnennung - Version 2.0"
      }
    },
    {
      "type": "Feature",
      "geometry": {
        "type": "Point",
        "coordinates": [
          6.110779907315549,
          51.097573397291605
        ]
      },
      "properties": {
        "anlagen_nr": "unknown_Heinsberg_0",
        "name": "e",
        "kreis": "Heinsberg",
        "bauwerksart": "",
        "typ": "Gewässerkennzahl / Gewässername / Auflage\t282 / Rur / 3E",
        "gewaesser": "kennzahl / Gewässername / Auflage\t282 / Rur / 3E",
        "quelle": "ELWAS-WEB (Land NRW), Datenlizenz Deutschland - Namensnennung - Version 2.0"
      }
    },
    {
      "type": "Feature",
      "geometry": {
        "type": "Point",
        "coordinates": [
          6.1089363181543765,
          51.13757466910015
        ]
      },
      "properties": {
        "anlagen_nr": "unknown_Heinsberg_1",
        "name": "e",
        "kreis": "Heinsberg",
        "bauwerksart": "",
        "typ": "Gewässerkennzahl / Gewässername / Auflage\t28298 / Afslagtak Rode Beek Vlodrop / 3E",
        "gewaesser": "kennzahl / Gewässername / Auflage\t28298 / Afslagtak Rode Beek Vlodrop / 3E",
        "quelle": "ELWAS-WEB (Land NRW), Datenlizenz Deutschland - Namensnennung - Version 2.0"
      }
    },
    {
      "type": "Feature",
      "geometry": {
        "type": "Point",
        "coordinates": [
          6.296070278918308,
          51.03852545204426
        ]
      },
      "properties": {
        "anlagen_nr": "unknown_Heinsberg_2",
        "name": "e",
        "kreis": "Heinsberg",
        "bauwerksart": "",
        "typ": "Gewässerkennzahl / Gewässername / Auflage\t28256 / Baaler Bach / 3E",
        "gewaesser": "kennzahl / Gewässername / Auflage\t28256 / Baaler Bach / 3E",
        "quelle": "ELWAS-WEB (Land NRW), Datenlizenz Deutschland - Namensnennung - Version 2.0"
      }
    },
    {
      "type": "Feature",
      "geometry": {
        "type": "Point",
        "coordinates": [
          6.273977313025999,
          51.161451696790664
        ]
      },
      "properties": {
        "anlagen_nr": "unknown_Heinsberg_3",
        "name": "e",
        "kreis": "Heinsberg",
        "bauwerksart": "",
        "typ": "Gewässerkennzahl / Gewässername / Auflage\t2844 / Mühlenbach / 3E",
        "gewaesser": "kennzahl / Gewässername / Auflage\t2844 / Mühlenbach / 3E",
        "quelle": "ELWAS-WEB (Land NRW), Datenlizenz Deutschland - Namensnennung - Version 2.0"
      }
    },
    {
      "type": "Feature",
      "geometry": {
        "type": "Point",
        "coordinates": [
          6.093034605770824,
          51.10350819322635
        ]
      },
      "properties": {
        "anlagen_nr": "unknown_Heinsberg_4",
        "name": "e",
        "kreis": "Heinsberg",
        "bauwerksart": "Karkener Wehr",
        "typ": "Absturz",
        "gewaesser": "kennzahl / Gewässername / Auflage\t282 / Rur / 3E",
        "quelle": "ELWAS-WEB (Land NRW), Datenlizenz Deutschland - Namensnennung - Version 2.0"
      }
    },
    {
      "type": "Feature",
      "geometry": {
        "type": "Point",
        "coordinates": [
          6.1107772512417196,
          51.097580023706875
        ]
      },
      "properties": {
        "anlagen_nr": "unknown_Heinsberg_5",
        "name": "e",
        "kreis": "Heinsberg",
        "bauwerksart": "Klappenwehr Kempen-Hochbrück",
        "typ": "Bewegliches Wehr",
        "gewaesser": "kennzahl / Gewässername / Auflage\t282 / Rur / 3E",
        "quelle": "ELWAS-WEB (Land NRW), Datenlizenz Deutschland - Namensnennung - Version 2.0"
      }
    },
    {
      "type": "Feature",
      "geometry": {
        "type": "Point",
        "coordinates": [
          6.12826440257817,
          51.08901644676729
        ]
      },
      "properties": {
        "anlagen_nr": "unknown_Heinsberg_6",
        "name": "e",
        "kreis": "Heinsberg",
        "bauwerksart": "Raue Rampe Brehm",
        "typ": "Rampe",
        "gewaesser": "kennzahl / Gewässername / Auflage\t282 / Rur / 3E",
        "quelle": "ELWAS-WEB (Land NRW), Datenlizenz Deutschland - Namensnennung - Version 2.0"
      }
    },
    {
      "type": "Feature",
      "geometry": {
        "type": "Point",
        "coordinates": [
          6.1427578637409805,
          51.08536018584502
        ]
      },
      "properties": {
        "anlagen_nr": "unknown_Heinsberg_7",
        "name": "e",
        "kreis": "Heinsberg",
        "bauwerksart": "Wehr Orsbeck",
        "typ": "Absturz",
        "gewaesser": "kennzahl / Gewässername / Auflage\t282 / Rur / 3E",
        "quelle": "ELWAS-WEB (Land NRW), Datenlizenz Deutschland - Namensnennung - Version 2.0"
      }
    },
    {
      "type": "Feature",
      "geometry": {
        "type": "Point",
        "coordinates": [
          6.15529621427163,
          51.07815560667762
        ]
      },
      "properties": {
        "anlagen_nr": "unknown_Heinsberg_8",
        "name": "e",
        "kreis": "Heinsberg",
        "bauwerksart": "Grundschwelle Luchtenberg",
        "typ": "Gleite",
        "gewaesser": "kennzahl / Gewässername / Auflage\t282 / Rur / 3E",
        "quelle": "ELWAS-WEB (Land NRW), Datenlizenz Deutschland - Namensnennung - Version 2.0"
      }
    },
    {
      "type": "Feature",
      "geometry": {
        "type": "Point",
        "coordinates": [
          6.157954597800639,
          51.065537770624005
        ]
      },
      "properties": {
        "anlagen_nr": "unknown_Heinsberg_9",
        "name": "e",
        "kreis": "Heinsberg",
        "bauwerksart": "Sohlgleite Ratheim-Oberbruch",
        "typ": "Gleite",
        "gewaesser": "kennzahl / Gewässername / Auflage\t282 / Rur / 3E",
        "quelle": "ELWAS-WEB (Land NRW), Datenlizenz Deutschland - Namensnennung - Version 2.0"
      }
    },
    {
      "type": "Feature",
      "geometry": {
        "type": "Point",
        "coordinates": [
          6.4648557657800465,
          51.16527739342365
        ]
      },
      "properties": {
        "anlagen_nr": "unknown_Mönchengladbach_0",
        "name": "e",
        "kreis": "Mönchengladbach",
        "bauwerksart": "Bresgespark",
        "typ": "Absturz",
        "gewaesser": "kennzahl / Gewässername / Auflage\t286 / Niers / 3E",
        "quelle": "ELWAS-WEB (Land NRW), Datenlizenz Deutschland - Namensnennung - Version 2.0"
      }
    },
    {
      "type": "Feature",
      "geometry": {
        "type": "Point",
        "coordinates": [
          6.458651181509326,
          51.15922454592184
        ]
      },
      "properties": {
        "anlagen_nr": "unknown_Mönchengladbach_1",
        "name": "e",
        "kreis": "Mönchengladbach",
        "bauwerksart": "Eickesmühle",
        "typ": "Absturz",
        "gewaesser": "kennzahl / Gewässername / Auflage\t286 / Niers / 3C",
        "quelle": "ELWAS-WEB (Land NRW), Datenlizenz Deutschland - Namensnennung - Version 2.0"
      }
    },
    {
      "type": "Feature",
      "geometry": {
        "type": "Point",
        "coordinates": [
          6.45307214477043,
          51.1439209988737
        ]
      },
      "properties": {
        "anlagen_nr": "unknown_Mönchengladbach_2",
        "name": "e",
        "kreis": "Mönchengladbach",
        "bauwerksart": "Wehr Bellermühle",
        "typ": "Bewegliches Wehr",
        "gewaesser": "kennzahl / Gewässername / Auflage\t286 / Niers / 3E",
        "quelle": "ELWAS-WEB (Land NRW), Datenlizenz Deutschland - Namensnennung - Version 2.0"
      }
    },
    {
      "type": "Feature",
      "geometry": {
        "type": "Point",
        "coordinates": [
          6.450076726683321,
          51.13523028042482
        ]
      },
      "properties": {
        "anlagen_nr": "unknown_Mönchengladbach_3",
        "name": "e",
        "kreis": "Mönchengladbach",
        "bauwerksart": "Wehr Henkenmühle",
        "typ": "Bewegliches Wehr",
        "gewaesser": "kennzahl / Gewässername / Auflage\t286 / Niers / 3E",
        "quelle": "ELWAS-WEB (Land NRW), Datenlizenz Deutschland - Namensnennung - Version 2.0"
      }
    },
    {
      "type": "Feature",
      "geometry": {
        "type": "Point",
        "coordinates": [
          6.439117068158346,
          51.13074540711412
        ]
      },
      "properties": {
        "anlagen_nr": "unknown_Mönchengladbach_4",
        "name": "e",
        "kreis": "Mönchengladbach",
        "bauwerksart": "Ehem. Güdderather Mühle",
        "typ": "Bewegliches Wehr",
        "gewaesser": "kennzahl / Gewässername / Auflage\t286 / Niers / 3C",
        "quelle": "ELWAS-WEB (Land NRW), Datenlizenz Deutschland - Namensnennung - Version 2.0"
      }
    },
    {
      "type": "Feature",
      "geometry": {
        "type": "Point",
        "coordinates": [
          6.410666681553066,
          51.11345221497079
        ]
      },
      "properties": {
        "anlagen_nr": "unknown_Mönchengladbach_5",
        "name": "e",
        "kreis": "Mönchengladbach",
        "bauwerksart": "Oelmühle",
        "typ": "Bewegliches Wehr",
        "gewaesser": "kennzahl / Gewässername / Auflage\t286 / Niers / 3C",
        "quelle": "ELWAS-WEB (Land NRW), Datenlizenz Deutschland - Namensnennung - Version 2.0"
      }
    },
    {
      "type": "Feature",
      "geometry": {
        "type": "Point",
        "coordinates": [
          6.409247417473015,
          51.09565705925853
        ]
      },
      "properties": {
        "anlagen_nr": "unknown_Mönchengladbach_6",
        "name": "e",
        "kreis": "Mönchengladbach",
        "bauwerksart": "Hoher Absturz",
        "typ": "Absturz",
        "gewaesser": "kennzahl / Gewässername / Auflage\t286 / Niers / 3E",
        "quelle": "ELWAS-WEB (Land NRW), Datenlizenz Deutschland - Namensnennung - Version 2.0"
      }
    },
    {
      "type": "Feature",
      "geometry": {
        "type": "Point",
        "coordinates": [
          6.409386257116436,
          51.09470674290316
        ]
      },
      "properties": {
        "anlagen_nr": "unknown_Mönchengladbach_7",
        "name": "e",
        "kreis": "Mönchengladbach",
        "bauwerksart": "Kleiner Absturz",
        "typ": "Absturz",
        "gewaesser": "kennzahl / Gewässername / Auflage\t286 / Niers / 3E",
        "quelle": "ELWAS-WEB (Land NRW), Datenlizenz Deutschland - Namensnennung - Version 2.0"
      }
    },
    {
      "type": "Feature",
      "geometry": {
        "type": "Point",
        "coordinates": [
          6.409591897169371,
          51.09383885590609
        ]
      },
      "properties": {
        "anlagen_nr": "unknown_Mönchengladbach_8",
        "name": "e",
        "kreis": "Mönchengladbach",
        "bauwerksart": "Kleiner Absturz",
        "typ": "Absturz",
        "gewaesser": "kennzahl / Gewässername / Auflage\t286 / Niers / 3E",
        "quelle": "ELWAS-WEB (Land NRW), Datenlizenz Deutschland - Namensnennung - Version 2.0"
      }
    },
    {
      "type": "Feature",
      "geometry": {
        "type": "Point",
        "coordinates": [
          6.489553908236236,
          51.23015372751424
        ]
      },
      "properties": {
        "anlagen_nr": "unknown_Mönchengladbach_9",
        "name": "e",
        "kreis": "Mönchengladbach",
        "bauwerksart": "Absturz",
        "typ": "Absturz",
        "gewaesser": "kennzahl / Gewässername / Auflage\t286 / Niers / 3E",
        "quelle": "ELWAS-WEB (Land NRW), Datenlizenz Deutschland - Namensnennung - Version 2.0"
      }
    },
    {
      "type": "Feature",
      "geometry": {
        "type": "Point",
        "coordinates": [
          6.700839791315681,
          51.166115781713316
        ]
      },
      "properties": {
        "anlagen_nr": "unknown_Rhein-Kreis Neuss_0",
        "name": "e",
        "kreis": "Rhein-Kreis Neuss",
        "bauwerksart": "",
        "typ": "Gewässerkennzahl / Gewässername / Auflage\t274 / Erft / 3E",
        "gewaesser": "kennzahl / Gewässername / Auflage\t274 / Erft / 3E",
        "quelle": "ELWAS-WEB (Land NRW), Datenlizenz Deutschland - Namensnennung - Version 2.0"
      }
    },
    {
      "type": "Feature",
      "geometry": {
        "type": "Point",
        "coordinates": [
          6.731539993000455,
          51.177715002394585
        ]
      },
      "properties": {
        "anlagen_nr": "unknown_Rhein-Kreis Neuss_1",
        "name": "e",
        "kreis": "Rhein-Kreis Neuss",
        "bauwerksart": "Fischaufstieg Gnadenthal",
        "typ": "Gewässerkennzahl / Gewässername / Auflage\t274 / Erft / 3E",
        "gewaesser": "kennzahl / Gewässername / Auflage\t274 / Erft / 3E",
        "quelle": "ELWAS-WEB (Land NRW), Datenlizenz Deutschland - Namensnennung - Version 2.0"
      }
    },
    {
      "type": "Feature",
      "geometry": {
        "type": "Point",
        "coordinates": [
          6.716000115004706,
          51.17236791478528
        ]
      },
      "properties": {
        "anlagen_nr": "unknown_Rhein-Kreis Neuss_2",
        "name": "e",
        "kreis": "Rhein-Kreis Neuss",
        "bauwerksart": "",
        "typ": "Gewässerkennzahl / Gewässername / Auflage\t274 / Erft / 3E",
        "gewaesser": "kennzahl / Gewässername / Auflage\t274 / Erft / 3E",
        "quelle": "ELWAS-WEB (Land NRW), Datenlizenz Deutschland - Namensnennung - Version 2.0"
      }
    },
    {
      "type": "Feature",
      "geometry": {
        "type": "Point",
        "coordinates": [
          6.688620395518766,
          51.16051659930617
        ]
      },
      "properties": {
        "anlagen_nr": "unknown_Rhein-Kreis Neuss_3",
        "name": "e",
        "kreis": "Rhein-Kreis Neuss",
        "bauwerksart": "Erprather Muehle, W3",
        "typ": "Bewegliches Wehr",
        "gewaesser": "kennzahl / Gewässername / Auflage\t274 / Erft / 3E",
        "quelle": "ELWAS-WEB (Land NRW), Datenlizenz Deutschland - Namensnennung - Version 2.0"
      }
    },
    {
      "type": "Feature",
      "geometry": {
        "type": "Point",
        "coordinates": [
          6.64009072832338,
          51.132196697519376
        ]
      },
      "properties": {
        "anlagen_nr": "unknown_Rhein-Kreis Neuss_4",
        "name": "e",
        "kreis": "Rhein-Kreis Neuss",
        "bauwerksart": "Neubruecker Muehle, W5",
        "typ": "Absturz",
        "gewaesser": "kennzahl / Gewässername / Auflage\t274 / Erft / 3E",
        "quelle": "ELWAS-WEB (Land NRW), Datenlizenz Deutschland - Namensnennung - Version 2.0"
      }
    },
    {
      "type": "Feature",
      "geometry": {
        "type": "Point",
        "coordinates": [
          6.700842676634212,
          51.166117880038115
        ]
      },
      "properties": {
        "anlagen_nr": "unknown_Rhein-Kreis Neuss_5",
        "name": "e",
        "kreis": "Rhein-Kreis Neuss",
        "bauwerksart": "Wehr Selikum, W2",
        "typ": "Bewegliches Wehr",
        "gewaesser": "kennzahl / Gewässername / Auflage\t274 / Erft / 3E",
        "quelle": "ELWAS-WEB (Land NRW), Datenlizenz Deutschland - Namensnennung - Version 2.0"
      }
    },
    {
      "type": "Feature",
      "geometry": {
        "type": "Point",
        "coordinates": [
          6.624887700826107,
          51.110905896832925
        ]
      },
      "properties": {
        "anlagen_nr": "unknown_Rhein-Kreis Neuss_6",
        "name": "e",
        "kreis": "Rhein-Kreis Neuss",
        "bauwerksart": "Untermühle Wevelinghoven, Vitus, Drees, W7",
        "typ": "Bewegliches Wehr",
        "gewaesser": "kennzahl / Gewässername / Auflage\t2747934 / Vituskanal / 3E",
        "quelle": "ELWAS-WEB (Land NRW), Datenlizenz Deutschland - Namensnennung - Version 2.0"
      }
    },
    {
      "type": "Feature",
      "geometry": {
        "type": "Point",
        "coordinates": [
          6.6084443316422785,
          51.10035339580239
        ]
      },
      "properties": {
        "anlagen_nr": "unknown_Rhein-Kreis Neuss_7",
        "name": "e",
        "kreis": "Rhein-Kreis Neuss",
        "bauwerksart": "Muehle Kottmann, W8",
        "typ": "Absturz",
        "gewaesser": "kennzahl / Gewässername / Auflage\t274 / Erft / 3E",
        "quelle": "ELWAS-WEB (Land NRW), Datenlizenz Deutschland - Namensnennung - Version 2.0"
      }
    },
    {
      "type": "Feature",
      "geometry": {
        "type": "Point",
        "coordinates": [
          6.588407240766173,
          51.0870981373315
        ]
      },
      "properties": {
        "anlagen_nr": "unknown_Rhein-Kreis Neuss_8",
        "name": "e",
        "kreis": "Rhein-Kreis Neuss",
        "bauwerksart": "Wehr Grevenbroich, Kamper, W9",
        "typ": "Bewegliches Wehr",
        "gewaesser": "kennzahl / Gewässername / Auflage\t274792 / Mühlenerft Grevenbroich / 3E",
        "quelle": "ELWAS-WEB (Land NRW), Datenlizenz Deutschland - Namensnennung - Version 2.0"
      }
    },
    {
      "type": "Feature",
      "geometry": {
        "type": "Point",
        "coordinates": [
          6.717114565591498,
          51.06568783822623
        ]
      },
      "properties": {
        "anlagen_nr": "unknown_Rhein-Kreis Neuss_9",
        "name": "e",
        "kreis": "Rhein-Kreis Neuss",
        "bauwerksart": "Überleitung an der Kläranlage",
        "typ": "Bewegliches Wehr",
        "gewaesser": "kennzahl / Gewässername / Auflage\t2748 / Gillbach / 3E",
        "quelle": "ELWAS-WEB (Land NRW), Datenlizenz Deutschland - Namensnennung - Version 2.0"
      }
    },
    {
      "type": "Feature",
      "geometry": {
        "type": "Point",
        "coordinates": [
          6.278490138491854,
          50.97013356158403
        ]
      },
      "properties": {
        "anlagen_nr": "unknown_Düren_0",
        "name": "e",
        "kreis": "Düren",
        "bauwerksart": "",
        "typ": "Gewässerkennzahl / Gewässername / Auflage\t282 / Rur / 3E",
        "gewaesser": "kennzahl / Gewässername / Auflage\t282 / Rur / 3E",
        "quelle": "ELWAS-WEB (Land NRW), Datenlizenz Deutschland - Namensnennung - Version 2.0"
      }
    },
    {
      "type": "Feature",
      "geometry": {
        "type": "Point",
        "coordinates": [
          6.436280133005738,
          50.85184518629818
        ]
      },
      "properties": {
        "anlagen_nr": "unknown_Düren_1",
        "name": "e",
        "kreis": "Düren",
        "bauwerksart": "",
        "typ": "Gewässerkennzahl / Gewässername / Auflage\t282 / Rur / 3E",
        "gewaesser": "kennzahl / Gewässername / Auflage\t282 / Rur / 3E",
        "quelle": "ELWAS-WEB (Land NRW), Datenlizenz Deutschland - Namensnennung - Version 2.0"
      }
    },
    {
      "type": "Feature",
      "geometry": {
        "type": "Point",
        "coordinates": [
          6.442528786557406,
          50.83744574585644
        ]
      },
      "properties": {
        "anlagen_nr": "unknown_Düren_2",
        "name": "e",
        "kreis": "Düren",
        "bauwerksart": "",
        "typ": "Gewässerkennzahl / Gewässername / Auflage\t282 / Rur / 3E",
        "gewaesser": "kennzahl / Gewässername / Auflage\t282 / Rur / 3E",
        "quelle": "ELWAS-WEB (Land NRW), Datenlizenz Deutschland - Namensnennung - Version 2.0"
      }
    },
    {
      "type": "Feature",
      "geometry": {
        "type": "Point",
        "coordinates": [
          6.486671564917806,
          50.76758811931579
        ]
      },
      "properties": {
        "anlagen_nr": "unknown_Düren_3",
        "name": "e",
        "kreis": "Düren",
        "bauwerksart": "",
        "typ": "Gewässerkennzahl / Gewässername / Auflage\t282 / Rur / 3E",
        "gewaesser": "kennzahl / Gewässername / Auflage\t282 / Rur / 3E",
        "quelle": "ELWAS-WEB (Land NRW), Datenlizenz Deutschland - Namensnennung - Version 2.0"
      }
    },
    {
      "type": "Feature",
      "geometry": {
        "type": "Point",
        "coordinates": [
          6.482105396132897,
          50.74696910306235
        ]
      },
      "properties": {
        "anlagen_nr": "unknown_Düren_4",
        "name": "e",
        "kreis": "Düren",
        "bauwerksart": "",
        "typ": "Gewässerkennzahl / Gewässername / Auflage\t282 / Rur / 3E",
        "gewaesser": "kennzahl / Gewässername / Auflage\t282 / Rur / 3E",
        "quelle": "ELWAS-WEB (Land NRW), Datenlizenz Deutschland - Namensnennung - Version 2.0"
      }
    },
    {
      "type": "Feature",
      "geometry": {
        "type": "Point",
        "coordinates": [
          6.467689476018238,
          50.72692931131082
        ]
      },
      "properties": {
        "anlagen_nr": "unknown_Düren_5",
        "name": "e",
        "kreis": "Düren",
        "bauwerksart": "",
        "typ": "Gewässerkennzahl / Gewässername / Auflage\t282 / Rur / 3E",
        "gewaesser": "kennzahl / Gewässername / Auflage\t282 / Rur / 3E",
        "quelle": "ELWAS-WEB (Land NRW), Datenlizenz Deutschland - Namensnennung - Version 2.0"
      }
    },
    {
      "type": "Feature",
      "geometry": {
        "type": "Point",
        "coordinates": [
          6.309541371348099,
          50.781338110973344
        ]
      },
      "properties": {
        "anlagen_nr": "unknown_Düren_6",
        "name": "e",
        "kreis": "Düren",
        "bauwerksart": "",
        "typ": "Gewässerkennzahl / Gewässername / Auflage\t28246 / Omerbach / 3E",
        "gewaesser": "kennzahl / Gewässername / Auflage\t28246 / Omerbach / 3E",
        "quelle": "ELWAS-WEB (Land NRW), Datenlizenz Deutschland - Namensnennung - Version 2.0"
      }
    },
    {
      "type": "Feature",
      "geometry": {
        "type": "Point",
        "coordinates": [
          6.483309483293647,
          50.731095390191676
        ]
      },
      "properties": {
        "anlagen_nr": "unknown_Düren_7",
        "name": "e",
        "kreis": "Düren",
        "bauwerksart": "",
        "typ": "Gewässerkennzahl / Gewässername / Auflage\t282 / Rur / 3E",
        "gewaesser": "kennzahl / Gewässername / Auflage\t282 / Rur / 3E",
        "quelle": "ELWAS-WEB (Land NRW), Datenlizenz Deutschland - Namensnennung - Version 2.0"
      }
    },
    {
      "type": "Feature",
      "geometry": {
        "type": "Point",
        "coordinates": [
          6.366101702431745,
          50.89267545001627
        ]
      },
      "properties": {
        "anlagen_nr": "unknown_Düren_8",
        "name": "e",
        "kreis": "Düren",
        "bauwerksart": "",
        "typ": "Gewässerkennzahl / Gewässername / Auflage\t2824 / Inde / 3E",
        "gewaesser": "kennzahl / Gewässername / Auflage\t2824 / Inde / 3E",
        "quelle": "ELWAS-WEB (Land NRW), Datenlizenz Deutschland - Namensnennung - Version 2.0"
      }
    },
    {
      "type": "Feature",
      "geometry": {
        "type": "Point",
        "coordinates": [
          6.489105024141364,
          50.73498017969772
        ]
      },
      "properties": {
        "anlagen_nr": "unknown_Düren_9",
        "name": "e",
        "kreis": "Düren",
        "bauwerksart": "",
        "typ": "Gewässerkennzahl / Gewässername / Auflage\t282 / Rur / 3E",
        "gewaesser": "kennzahl / Gewässername / Auflage\t282 / Rur / 3E",
        "quelle": "ELWAS-WEB (Land NRW), Datenlizenz Deutschland - Namensnennung - Version 2.0"
      }
    },
    {
      "type": "Feature",
      "geometry": {
        "type": "Point",
        "coordinates": [
          6.714100921212035,
          50.888524190763746
        ]
      },
      "properties": {
        "anlagen_nr": "unknown_Rhein-Erft-Kreis_0",
        "name": "e",
        "kreis": "Rhein-Erft-Kreis",
        "bauwerksart": "",
        "typ": "Gewässerkennzahl / Gewässername / Auflage\t274 / Erft / 3E",
        "gewaesser": "kennzahl / Gewässername / Auflage\t274 / Erft / 3E",
        "quelle": "ELWAS-WEB (Land NRW), Datenlizenz Deutschland - Namensnennung - Version 2.0"
      }
    },
    {
      "type": "Feature",
      "geometry": {
        "type": "Point",
        "coordinates": [
          6.835121438261939,
          50.77434903957484
        ]
      },
      "properties": {
        "anlagen_nr": "unknown_Rhein-Erft-Kreis_1",
        "name": "e",
        "kreis": "Rhein-Erft-Kreis",
        "bauwerksart": "",
        "typ": "Gewässerkennzahl / Gewässername / Auflage\t2742 / Swistbach / 3E",
        "gewaesser": "kennzahl / Gewässername / Auflage\t2742 / Swistbach / 3E",
        "quelle": "ELWAS-WEB (Land NRW), Datenlizenz Deutschland - Namensnennung - Version 2.0"
      }
    },
    {
      "type": "Feature",
      "geometry": {
        "type": "Point",
        "coordinates": [
          6.562563552454129,
          51.00850594493063
        ]
      },
      "properties": {
        "anlagen_nr": "unknown_Rhein-Erft-Kreis_2",
        "name": "e",
        "kreis": "Rhein-Erft-Kreis",
        "bauwerksart": "",
        "typ": "Gewässerkennzahl / Gewässername / Auflage\t274754 / Kasterer Mühlenerft / 3E",
        "gewaesser": "kennzahl / Gewässername / Auflage\t274754 / Kasterer Mühlenerft / 3E",
        "quelle": "ELWAS-WEB (Land NRW), Datenlizenz Deutschland - Namensnennung - Version 2.0"
      }
    },
    {
      "type": "Feature",
      "geometry": {
        "type": "Point",
        "coordinates": [
          6.625704951415736,
          50.95539866141896
        ]
      },
      "properties": {
        "anlagen_nr": "unknown_Rhein-Erft-Kreis_3",
        "name": "e",
        "kreis": "Rhein-Erft-Kreis",
        "bauwerksart": "",
        "typ": "Gewässerkennzahl / Gewässername / Auflage\t274 / Erft / 3E",
        "gewaesser": "kennzahl / Gewässername / Auflage\t274 / Erft / 3E",
        "quelle": "ELWAS-WEB (Land NRW), Datenlizenz Deutschland - Namensnennung - Version 2.0"
      }
    },
    {
      "type": "Feature",
      "geometry": {
        "type": "Point",
        "coordinates": [
          6.835017004948704,
          50.77438880615208
        ]
      },
      "properties": {
        "anlagen_nr": "unknown_Rhein-Erft-Kreis_4",
        "name": "e",
        "kreis": "Rhein-Erft-Kreis",
        "bauwerksart": "",
        "typ": "Gewässerkennzahl / Gewässername / Auflage\t2742 / Swistbach / 3E",
        "gewaesser": "kennzahl / Gewässername / Auflage\t2742 / Swistbach / 3E",
        "quelle": "ELWAS-WEB (Land NRW), Datenlizenz Deutschland - Namensnennung - Version 2.0"
      }
    },
    {
      "type": "Feature",
      "geometry": {
        "type": "Point",
        "coordinates": [
          6.714079917475092,
          50.88854716401148
        ]
      },
      "properties": {
        "anlagen_nr": "unknown_Rhein-Erft-Kreis_5",
        "name": "e",
        "kreis": "Rhein-Erft-Kreis",
        "bauwerksart": "",
        "typ": "Gewässerkennzahl / Gewässername / Auflage\t274 / Erft / 3E",
        "gewaesser": "kennzahl / Gewässername / Auflage\t274 / Erft / 3E",
        "quelle": "ELWAS-WEB (Land NRW), Datenlizenz Deutschland - Namensnennung - Version 2.0"
      }
    },
    {
      "type": "Feature",
      "geometry": {
        "type": "Point",
        "coordinates": [
          6.800180249519988,
          50.81646700226418
        ]
      },
      "properties": {
        "anlagen_nr": "unknown_Rhein-Erft-Kreis_6",
        "name": "e",
        "kreis": "Rhein-Erft-Kreis",
        "bauwerksart": "Wehr Blessem",
        "typ": "Bewegliches Wehr",
        "gewaesser": "kennzahl / Gewässername / Auflage\t27454 / Liblarer Mühlengraben / 3E",
        "quelle": "ELWAS-WEB (Land NRW), Datenlizenz Deutschland - Namensnennung - Version 2.0"
      }
    },
    {
      "type": "Feature",
      "geometry": {
        "type": "Point",
        "coordinates": [
          6.7024375874870135,
          50.914012918295896
        ]
      },
      "properties": {
        "anlagen_nr": "unknown_Rhein-Erft-Kreis_7",
        "name": "e",
        "kreis": "Rhein-Erft-Kreis",
        "bauwerksart": "Standort WKA-2 Horremer Muehle",
        "typ": "Bewegliches Wehr",
        "gewaesser": "kennzahl / Gewässername / Auflage\t274732 / Kleine Erft / 3E",
        "quelle": "ELWAS-WEB (Land NRW), Datenlizenz Deutschland - Namensnennung - Version 2.0"
      }
    },
    {
      "type": "Feature",
      "geometry": {
        "type": "Point",
        "coordinates": [
          6.559127650060511,
          51.010669645432195
        ]
      },
      "properties": {
        "anlagen_nr": "unknown_Rhein-Erft-Kreis_8",
        "name": "e",
        "kreis": "Rhein-Erft-Kreis",
        "bauwerksart": "Muehle Kaster",
        "typ": "Bewegliches Wehr",
        "gewaesser": "kennzahl / Gewässername / Auflage\t274754 / Kasterer Mühlenerft / 3E",
        "quelle": "ELWAS-WEB (Land NRW), Datenlizenz Deutschland - Namensnennung - Version 2.0"
      }
    },
    {
      "type": "Feature",
      "geometry": {
        "type": "Point",
        "coordinates": [
          6.685470472464958,
          50.92908457717765
        ]
      },
      "properties": {
        "anlagen_nr": "unknown_Rhein-Erft-Kreis_9",
        "name": "e",
        "kreis": "Rhein-Erft-Kreis",
        "bauwerksart": "Standort WKA-3 Pliesmuehle",
        "typ": "Bewegliches Wehr",
        "gewaesser": "kennzahl / Gewässername / Auflage\t274732 / Kleine Erft / 3E",
        "quelle": "ELWAS-WEB (Land NRW), Datenlizenz Deutschland - Namensnennung - Version 2.0"
      }
    },
    {
      "type": "Feature",
      "geometry": {
        "type": "Point",
        "coordinates": [
          6.500078637962596,
          50.573599880983835
        ]
      },
      "properties": {
        "anlagen_nr": "unknown_Euskirchen_0",
        "name": "e",
        "kreis": "Euskirchen",
        "bauwerksart": "",
        "typ": "Gewässerkennzahl / Gewässername / Auflage\t2822 / Urft / 3E",
        "gewaesser": "kennzahl / Gewässername / Auflage\t2822 / Urft / 3E",
        "quelle": "ELWAS-WEB (Land NRW), Datenlizenz Deutschland - Namensnennung - Version 2.0"
      }
    },
    {
      "type": "Feature",
      "geometry": {
        "type": "Point",
        "coordinates": [
          6.529673169409752,
          50.56512568399141
        ]
      },
      "properties": {
        "anlagen_nr": "unknown_Euskirchen_1",
        "name": "e",
        "kreis": "Euskirchen",
        "bauwerksart": "",
        "typ": "Gewässerkennzahl / Gewässername / Auflage\t2822 / Urft / 3E",
        "gewaesser": "kennzahl / Gewässername / Auflage\t2822 / Urft / 3E",
        "quelle": "ELWAS-WEB (Land NRW), Datenlizenz Deutschland - Namensnennung - Version 2.0"
      }
    },
    {
      "type": "Feature",
      "geometry": {
        "type": "Point",
        "coordinates": [
          6.463958417283864,
          50.51464772474979
        ]
      },
      "properties": {
        "anlagen_nr": "unknown_Euskirchen_2",
        "name": "e",
        "kreis": "Euskirchen",
        "bauwerksart": "",
        "typ": "Gewässerkennzahl / Gewässername / Auflage\t28228 / Olef / 3E",
        "gewaesser": "kennzahl / Gewässername / Auflage\t28228 / Olef / 3E",
        "quelle": "ELWAS-WEB (Land NRW), Datenlizenz Deutschland - Namensnennung - Version 2.0"
      }
    },
    {
      "type": "Feature",
      "geometry": {
        "type": "Point",
        "coordinates": [
          6.450151797119164,
          50.4901886974535
        ]
      },
      "properties": {
        "anlagen_nr": "unknown_Euskirchen_3",
        "name": "e",
        "kreis": "Euskirchen",
        "bauwerksart": "",
        "typ": "Gewässerkennzahl / Gewässername / Auflage\t28228 / Olef / 3E",
        "gewaesser": "kennzahl / Gewässername / Auflage\t28228 / Olef / 3E",
        "quelle": "ELWAS-WEB (Land NRW), Datenlizenz Deutschland - Namensnennung - Version 2.0"
      }
    },
    {
      "type": "Feature",
      "geometry": {
        "type": "Point",
        "coordinates": [
          6.476461413133498,
          50.52799370036508
        ]
      },
      "properties": {
        "anlagen_nr": "unknown_Euskirchen_4",
        "name": "e",
        "kreis": "Euskirchen",
        "bauwerksart": "",
        "typ": "Gewässerkennzahl / Gewässername / Auflage\t28228 / Olef / 3E",
        "gewaesser": "kennzahl / Gewässername / Auflage\t28228 / Olef / 3E",
        "quelle": "ELWAS-WEB (Land NRW), Datenlizenz Deutschland - Namensnennung - Version 2.0"
      }
    },
    {
      "type": "Feature",
      "geometry": {
        "type": "Point",
        "coordinates": [
          6.490970507166706,
          50.55197629763337
        ]
      },
      "properties": {
        "anlagen_nr": "unknown_Euskirchen_5",
        "name": "e",
        "kreis": "Euskirchen",
        "bauwerksart": "",
        "typ": "Gewässerkennzahl / Gewässername / Auflage\t28228 / Olef / 3E",
        "gewaesser": "kennzahl / Gewässername / Auflage\t28228 / Olef / 3E",
        "quelle": "ELWAS-WEB (Land NRW), Datenlizenz Deutschland - Namensnennung - Version 2.0"
      }
    },
    {
      "type": "Feature",
      "geometry": {
        "type": "Point",
        "coordinates": [
          6.639996934671012,
          50.70237669289331
        ]
      },
      "properties": {
        "anlagen_nr": "unknown_Euskirchen_6",
        "name": "e",
        "kreis": "Euskirchen",
        "bauwerksart": "",
        "typ": "Gewässerkennzahl / Gewässername / Auflage\t2746 / Neffelbach / 3E",
        "gewaesser": "kennzahl / Gewässername / Auflage\t2746 / Neffelbach / 3E",
        "quelle": "ELWAS-WEB (Land NRW), Datenlizenz Deutschland - Namensnennung - Version 2.0"
      }
    },
    {
      "type": "Feature",
      "geometry": {
        "type": "Point",
        "coordinates": [
          6.733900898337583,
          50.70986137093187
        ]
      },
      "properties": {
        "anlagen_nr": "unknown_Euskirchen_7",
        "name": "e",
        "kreis": "Euskirchen",
        "bauwerksart": "",
        "typ": "Gewässerkennzahl / Gewässername / Auflage\t2744 / Rotbach / 3E",
        "gewaesser": "kennzahl / Gewässername / Auflage\t2744 / Rotbach / 3E",
        "quelle": "ELWAS-WEB (Land NRW), Datenlizenz Deutschland - Namensnennung - Version 2.0"
      }
    },
    {
      "type": "Feature",
      "geometry": {
        "type": "Point",
        "coordinates": [
          6.529603781200768,
          50.56513066061127
        ]
      },
      "properties": {
        "anlagen_nr": "unknown_Euskirchen_8",
        "name": "e",
        "kreis": "Euskirchen",
        "bauwerksart": "",
        "typ": "Gewässerkennzahl / Gewässername / Auflage\t2822 / Urft / 3E",
        "gewaesser": "kennzahl / Gewässername / Auflage\t2822 / Urft / 3E",
        "quelle": "ELWAS-WEB (Land NRW), Datenlizenz Deutschland - Namensnennung - Version 2.0"
      }
    },
    {
      "type": "Feature",
      "geometry": {
        "type": "Point",
        "coordinates": [
          6.588981321905832,
          50.511987412746926
        ]
      },
      "properties": {
        "anlagen_nr": "unknown_Euskirchen_9",
        "name": "e",
        "kreis": "Euskirchen",
        "bauwerksart": "",
        "typ": "Gewässerkennzahl / Gewässername / Auflage\t2822 / Urft / 3E",
        "gewaesser": "kennzahl / Gewässername / Auflage\t2822 / Urft / 3E",
        "quelle": "ELWAS-WEB (Land NRW), Datenlizenz Deutschland - Namensnennung - Version 2.0"
      }
    }
  ]
}