{
  "type": "FeatureCollection",
  "features": [
    {
      "type": "Feature",
      "geometry": {
        "type": "Point",
        "coordinates": [
          6.310100555016211,
          50.83149376299212
        ]
      },
      "properties": {
        "anlagen_nr": "222870",
        "name": "/-entlastungsanlagen: Betriebswerkstatt Weisweiler - RKB",
        "kreis": "Städteregion Aachen",
        "gemeinde": "05334012 / Eschweiler",
        "betreiber": "Zustellanschrift\tRWE Power AG - Tagebau Inden",
        "typ": "RKB (Regenklärbecken)",
        "abwasserbereich": "RKB (Regenklärbecken)",
        "quelle": "ELWAS-WEB (Land NRW), Datenlizenz Deutschland - Namensnennung - Version 2.0"
      }
    },
    {
      "type": "Feature",
      "geometry": {
        "type": "Point",
        "coordinates": [
          6.31029730209188,
          50.831777138935095
        ]
      },
      "properties": {
        "anlagen_nr": "222871",
        "name": "/-entlastungsanlagen: Betriebswerkstatt Weisweiler - RRB",
        "kreis": "Städteregion Aachen",
        "gemeinde": "05334012 / Eschweiler",
        "betreiber": "Zustellanschrift\tRWE Power AG - Tagebau Inden",
        "typ": "RRB (Regenrückhaltebecken)",
        "abwasserbereich": "RRB (Regenrückhaltebecken)",
        "quelle": "ELWAS-WEB (Land NRW), Datenlizenz Deutschland - Namensnennung - Version 2.0"
      }
    },
    {
      "type": "Feature",
      "geometry": {
        "type": "Point",
        "coordinates": [
          6.25666836292818,
          50.75179550142291
        ]
      },
      "properties": {
        "anlagen_nr": "2221420",
        "name": "/-entlastungsanlagen: RKB I",
        "kreis": "Städteregion Aachen",
        "gemeinde": "05334032 / Stolberg (Rhld.)",
        "betreiber": "Zustellanschrift\tKERPEN DATACOM GmbH",
        "typ": "RKB (Regenklärbecken)",
        "abwasserbereich": "RKB (Regenklärbecken)",
        "quelle": "ELWAS-WEB (Land NRW), Datenlizenz Deutschland - Namensnennung - Version 2.0"
      }
    },
    {
      "type": "Feature",
      "geometry": {
        "type": "Point",
        "coordinates": [
          6.257882418804695,
          50.7516441759018
        ]
      },
      "properties": {
        "anlagen_nr": "2221421",
        "name": "/-entlastungsanlagen: RKB II",
        "kreis": "Städteregion Aachen",
        "gemeinde": "05334032 / Stolberg (Rhld.)",
        "betreiber": "Zustellanschrift\tKERPEN DATACOM GmbH",
        "typ": "RKB (Regenklärbecken)",
        "abwasserbereich": "RKB (Regenklärbecken)",
        "quelle": "ELWAS-WEB (Land NRW), Datenlizenz Deutschland - Namensnennung - Version 2.0"
      }
    },
    {
      "type": "Feature",
      "geometry": {
        "type": "Point",
        "coordinates": [
          6.222776179779209,
          50.87483470936783
        ]
      },
      "properties": {
        "anlagen_nr": "2221504",
        "name": "/-entlastungsanlagen: RKB Otto-Lilienthal-Straße",
        "kreis": "Städteregion Aachen",
        "gemeinde": "05334004 / Alsdorf",
        "betreiber": "Zustellanschrift\tEigenbetrieb Abwasser der Stadt Alsdorf",
        "typ": "RKB (Regenklärbecken)",
        "abwasserbereich": "RKB (Regenklärbecken)",
        "quelle": "ELWAS-WEB (Land NRW), Datenlizenz Deutschland - Namensnennung - Version 2.0"
      }
    },
    {
      "type": "Feature",
      "geometry": {
        "type": "Point",
        "coordinates": [
          6.262713191593536,
          50.52809554508983
        ]
      },
      "properties": {
        "anlagen_nr": "2221505",
        "name": "/-entlastungsanlagen: Höfen-Alzen",
        "kreis": "Städteregion Aachen",
        "gemeinde": "05334020 / Monschau",
        "betreiber": "Zustellanschrift\tWasserverband Eifel-Rur",
        "typ": "RKB (Regenklärbecken)",
        "abwasserbereich": "RKB (Regenklärbecken)",
        "quelle": "ELWAS-WEB (Land NRW), Datenlizenz Deutschland - Namensnennung - Version 2.0"
      }
    },
    {
      "type": "Feature",
      "geometry": {
        "type": "Point",
        "coordinates": [
          6.13690465638016,
          50.86353853688764
        ]
      },
      "properties": {
        "anlagen_nr": "2221508",
        "name": "/-entlastungsanlagen: Duffesheide",
        "kreis": "Städteregion Aachen",
        "gemeinde": "05334004 / Alsdorf",
        "betreiber": "Zustellanschrift\tWasserverband Eifel-Rur",
        "typ": "SK (Stauraumkanal)",
        "abwasserbereich": "SK (Stauraumkanal)",
        "quelle": "ELWAS-WEB (Land NRW), Datenlizenz Deutschland - Namensnennung - Version 2.0"
      }
    },
    {
      "type": "Feature",
      "geometry": {
        "type": "Point",
        "coordinates": [
          6.150156351524288,
          50.86275672879488
        ]
      },
      "properties": {
        "anlagen_nr": "2221509",
        "name": "/-entlastungsanlagen: Neu Ofden",
        "kreis": "Städteregion Aachen",
        "gemeinde": "05334004 / Alsdorf",
        "betreiber": "Zustellanschrift\tWasserverband Eifel-Rur",
        "typ": "SK (Stauraumkanal)",
        "abwasserbereich": "SK (Stauraumkanal)",
        "quelle": "ELWAS-WEB (Land NRW), Datenlizenz Deutschland - Namensnennung - Version 2.0"
      }
    },
    {
      "type": "Feature",
      "geometry": {
        "type": "Point",
        "coordinates": [
          6.222975472964409,
          50.87650349982546
        ]
      },
      "properties": {
        "anlagen_nr": "2221510",
        "name": "/-entlastungsanlagen: IGA-Süd",
        "kreis": "Städteregion Aachen",
        "gemeinde": "05334004 / Alsdorf",
        "betreiber": "Zustellanschrift\tEigenbetrieb Abwasser der Stadt Alsdorf",
        "typ": "RKB (Regenklärbecken)",
        "abwasserbereich": "RKB (Regenklärbecken)",
        "quelle": "ELWAS-WEB (Land NRW), Datenlizenz Deutschland - Namensnennung - Version 2.0"
      }
    },
    {
      "type": "Feature",
      "geometry": {
        "type": "Point",
        "coordinates": [
          6.14350202155306,
          50.781872556923425
        ]
      },
      "properties": {
        "anlagen_nr": "2221586",
        "name": "/-entlastungsanlagen: RÜB Rödgener Straße",
        "kreis": "Städteregion Aachen",
        "gemeinde": "05334002 / Aachen",
        "betreiber": "Zustellanschrift\tWasserverband Eifel-Rur",
        "typ": "RÜB (Regenüberlaufbecken)",
        "abwasserbereich": "RÜB (Regenüberlaufbecken)",
        "quelle": "ELWAS-WEB (Land NRW), Datenlizenz Deutschland - Namensnennung - Version 2.0"
      }
    },
    {
      "type": "Feature",
      "geometry": {
        "type": "Point",
        "coordinates": [
          6.039284331540938,
          50.967557914999816
        ]
      },
      "properties": {
        "anlagen_nr": "222886",
        "name": "/-entlastungsanlagen: RBF NATO-Flugplatz",
        "kreis": "Heinsberg",
        "gemeinde": "05370008 / Gangelt",
        "betreiber": "Zustellanschrift\tBundeswehr-Dienstleistungszentrum Aachen TGM Geilenkirchen",
        "typ": "RBF (Retentionsbodenfilter)",
        "abwasserbereich": "RBF (Retentionsbodenfilter)",
        "quelle": "ELWAS-WEB (Land NRW), Datenlizenz Deutschland - Namensnennung - Version 2.0"
      }
    },
    {
      "type": "Feature",
      "geometry": {
        "type": "Point",
        "coordinates": [
          6.037660492372004,
          50.96643730482613
        ]
      },
      "properties": {
        "anlagen_nr": "2221448",
        "name": "/-entlastungsanlagen: RKB NATO-Flugplatz",
        "kreis": "Heinsberg",
        "gemeinde": "05370008 / Gangelt",
        "betreiber": "Zustellanschrift\tBundeswehr-Dienstleistungszentrum Aachen TGM Geilenkirchen",
        "typ": "RKB (Regenklärbecken)",
        "abwasserbereich": "RKB (Regenklärbecken)",
        "quelle": "ELWAS-WEB (Land NRW), Datenlizenz Deutschland - Namensnennung - Version 2.0"
      }
    },
    {
      "type": "Feature",
      "geometry": {
        "type": "Point",
        "coordinates": [
          6.15890471226226,
          51.050260854153336
        ]
      },
      "properties": {
        "anlagen_nr": "2221503",
        "name": "/-entlastungsanlagen: Industriegebiet Dremmen",
        "kreis": "Heinsberg",
        "gemeinde": "05370016 / Heinsberg",
        "betreiber": "Zustellanschrift\tBürgermeister Heinsberg",
        "typ": "RKB (Regenklärbecken)",
        "abwasserbereich": "RKB (Regenklärbecken)",
        "quelle": "ELWAS-WEB (Land NRW), Datenlizenz Deutschland - Namensnennung - Version 2.0"
      }
    },
    {
      "type": "Feature",
      "geometry": {
        "type": "Point",
        "coordinates": [
          6.138765103983378,
          51.02463775136034
        ]
      },
      "properties": {
        "anlagen_nr": "2221512",
        "name": "/-entlastungsanlagen: Uetterath",
        "kreis": "Heinsberg",
        "gemeinde": "05370016 / Heinsberg",
        "betreiber": "Zustellanschrift\tWasserverband Eifel-Rur",
        "typ": "RÜB (Regenüberlaufbecken)",
        "abwasserbereich": "RÜB (Regenüberlaufbecken)",
        "quelle": "ELWAS-WEB (Land NRW), Datenlizenz Deutschland - Namensnennung - Version 2.0"
      }
    },
    {
      "type": "Feature",
      "geometry": {
        "type": "Point",
        "coordinates": [
          6.182824639370556,
          51.029055111625254
        ]
      },
      "properties": {
        "anlagen_nr": "2221513",
        "name": "/-entlastungsanlagen: Horst",
        "kreis": "Heinsberg",
        "gemeinde": "05370016 / Heinsberg",
        "betreiber": "Zustellanschrift\tWasserverband Eifel-Rur",
        "typ": "SK (Stauraumkanal)",
        "abwasserbereich": "SK (Stauraumkanal)",
        "quelle": "ELWAS-WEB (Land NRW), Datenlizenz Deutschland - Namensnennung - Version 2.0"
      }
    },
    {
      "type": "Feature",
      "geometry": {
        "type": "Point",
        "coordinates": [
          6.180335114323589,
          51.01978441833972
        ]
      },
      "properties": {
        "anlagen_nr": "2221514",
        "name": "/-entlastungsanlagen: Randerath",
        "kreis": "Heinsberg",
        "gemeinde": "05370016 / Heinsberg",
        "betreiber": "Zustellanschrift\tWasserverband Eifel-Rur",
        "typ": "RÜB (Regenüberlaufbecken)",
        "abwasserbereich": "RÜB (Regenüberlaufbecken)",
        "quelle": "ELWAS-WEB (Land NRW), Datenlizenz Deutschland - Namensnennung - Version 2.0"
      }
    },
    {
      "type": "Feature",
      "geometry": {
        "type": "Point",
        "coordinates": [
          6.174824378462836,
          51.00370350931926
        ]
      },
      "properties": {
        "anlagen_nr": "2221517",
        "name": "/-entlastungsanlagen: Flahstraß",
        "kreis": "Heinsberg",
        "gemeinde": "05370012 / Geilenkirchen",
        "betreiber": "Zustellanschrift\tWVER",
        "typ": "RÜB (Regenüberlaufbecken)",
        "abwasserbereich": "RÜB (Regenüberlaufbecken)",
        "quelle": "ELWAS-WEB (Land NRW), Datenlizenz Deutschland - Namensnennung - Version 2.0"
      }
    },
    {
      "type": "Feature",
      "geometry": {
        "type": "Point",
        "coordinates": [
          6.183155945762003,
          51.0045434536611
        ]
      },
      "properties": {
        "anlagen_nr": "2221518",
        "name": "/-entlastungsanlagen: Honsdorf",
        "kreis": "Heinsberg",
        "gemeinde": "05370012 / Geilenkirchen",
        "betreiber": "Zustellanschrift\tWasserverband Eifel-Rur",
        "typ": "RÜB (Regenüberlaufbecken)",
        "abwasserbereich": "RÜB (Regenüberlaufbecken)",
        "quelle": "ELWAS-WEB (Land NRW), Datenlizenz Deutschland - Namensnennung - Version 2.0"
      }
    },
    {
      "type": "Feature",
      "geometry": {
        "type": "Point",
        "coordinates": [
          6.201114434405212,
          50.995144122625945
        ]
      },
      "properties": {
        "anlagen_nr": "2221519",
        "name": "/-entlastungsanlagen: Lindern",
        "kreis": "Heinsberg",
        "gemeinde": "05370012 / Geilenkirchen",
        "betreiber": "Zustellanschrift\tWasserverband Eifel-Rur",
        "typ": "SK (Stauraumkanal)",
        "abwasserbereich": "SK (Stauraumkanal)",
        "quelle": "ELWAS-WEB (Land NRW), Datenlizenz Deutschland - Namensnennung - Version 2.0"
      }
    },
    {
      "type": "Feature",
      "geometry": {
        "type": "Point",
        "coordinates": [
          6.1864676454307155,
          50.98751528469246
        ]
      },
      "properties": {
        "anlagen_nr": "2221520",
        "name": "/-entlastungsanlagen: Beeck",
        "kreis": "Heinsberg",
        "gemeinde": "05370012 / Geilenkirchen",
        "betreiber": "Zustellanschrift\tStadt Geilenkirchen",
        "typ": "SK (Stauraumkanal)",
        "abwasserbereich": "SK (Stauraumkanal)",
        "quelle": "ELWAS-WEB (Land NRW), Datenlizenz Deutschland - Namensnennung - Version 2.0"
      }
    },
    {
      "type": "Feature",
      "geometry": {
        "type": "Point",
        "coordinates": [
          6.491783089415481,
          51.230255513059404
        ]
      },
      "properties": {
        "anlagen_nr": "2221277",
        "name": "/-entlastungsanlagen: Regenklärbecken",
        "kreis": "Mönchengladbach",
        "gemeinde": "05116000 / Mönchengladbach",
        "betreiber": "Zustellanschrift\tFlughafen Düsseldorf-Mönchengladbach GmbH",
        "typ": "RKB (Regenklärbecken)",
        "abwasserbereich": "RKB (Regenklärbecken)",
        "quelle": "ELWAS-WEB (Land NRW), Datenlizenz Deutschland - Namensnennung - Version 2.0"
      }
    },
    {
      "type": "Feature",
      "geometry": {
        "type": "Point",
        "coordinates": [
          6.498051248921212,
          51.23195470678011
        ]
      },
      "properties": {
        "anlagen_nr": "2221278",
        "name": "/-entlastungsanlagen: Regenrückhaltebecken 2",
        "kreis": "Mönchengladbach",
        "gemeinde": "05116000 / Mönchengladbach",
        "betreiber": "Zustellanschrift\tFlughafen Düsseldorf-Mönchengladbach GmbH",
        "typ": "RRB (Regenrückhaltebecken)",
        "abwasserbereich": "RRB (Regenrückhaltebecken)",
        "quelle": "ELWAS-WEB (Land NRW), Datenlizenz Deutschland - Namensnennung - Version 2.0"
      }
    },
    {
      "type": "Feature",
      "geometry": {
        "type": "Point",
        "coordinates": [
          6.4945047492974375,
          51.23131217517478
        ]
      },
      "properties": {
        "anlagen_nr": "2221279",
        "name": "/-entlastungsanlagen: Regenrückhaltebecken 1",
        "kreis": "Mönchengladbach",
        "gemeinde": "05116000 / Mönchengladbach",
        "betreiber": "Zustellanschrift\tFlughafen Düsseldorf-Mönchengladbach GmbH",
        "typ": "RRB (Regenrückhaltebecken)",
        "abwasserbereich": "RRB (Regenrückhaltebecken)",
        "quelle": "ELWAS-WEB (Land NRW), Datenlizenz Deutschland - Namensnennung - Version 2.0"
      }
    },
    {
      "type": "Feature",
      "geometry": {
        "type": "Point",
        "coordinates": [
          6.435711613900272,
          51.17386978674842
        ]
      },
      "properties": {
        "anlagen_nr": "2226440",
        "name": "/-entlastungsanlagen: Heinrich-Pesch-Straße",
        "kreis": "Mönchengladbach",
        "gemeinde": "05116000 / Mönchengladbach",
        "betreiber": "Zustellanschrift\tNiersverband",
        "typ": "RÜB (Regenüberlaufbecken)",
        "abwasserbereich": "RÜB (Regenüberlaufbecken)",
        "quelle": "ELWAS-WEB (Land NRW), Datenlizenz Deutschland - Namensnennung - Version 2.0"
      }
    },
    {
      "type": "Feature",
      "geometry": {
        "type": "Point",
        "coordinates": [
          6.398652230242029,
          51.108571317927215
        ]
      },
      "properties": {
        "anlagen_nr": "2226441",
        "name": "/-entlastungsanlagen: RÜB An der Wey",
        "kreis": "Mönchengladbach",
        "gemeinde": "05116000 / Mönchengladbach",
        "betreiber": "Zustellanschrift\tNiersverband",
        "typ": "RÜB (Regenüberlaufbecken)",
        "abwasserbereich": "RÜB (Regenüberlaufbecken)",
        "quelle": "ELWAS-WEB (Land NRW), Datenlizenz Deutschland - Namensnennung - Version 2.0"
      }
    },
    {
      "type": "Feature",
      "geometry": {
        "type": "Point",
        "coordinates": [
          6.3613372018151795,
          51.119274409636944
        ]
      },
      "properties": {
        "anlagen_nr": "2226443",
        "name": "/-entlastungsanlagen: Laurentiusstraße",
        "kreis": "Mönchengladbach",
        "gemeinde": "05116000 / Mönchengladbach",
        "betreiber": "Zustellanschrift\tNEW AG Mönchengladbach -",
        "typ": "SK (Stauraumkanal)",
        "abwasserbereich": "SK (Stauraumkanal)",
        "quelle": "ELWAS-WEB (Land NRW), Datenlizenz Deutschland - Namensnennung - Version 2.0"
      }
    },
    {
      "type": "Feature",
      "geometry": {
        "type": "Point",
        "coordinates": [
          6.405723222489886,
          51.12211198665977
        ]
      },
      "properties": {
        "anlagen_nr": "2226444",
        "name": "/-entlastungsanlagen: Beckrather Straße",
        "kreis": "Mönchengladbach",
        "gemeinde": "05116000 / Mönchengladbach",
        "betreiber": "Zustellanschrift\tOberbürgermeister Mönchengladbach",
        "typ": "SK (Stauraumkanal)",
        "abwasserbereich": "SK (Stauraumkanal)",
        "quelle": "ELWAS-WEB (Land NRW), Datenlizenz Deutschland - Namensnennung - Version 2.0"
      }
    },
    {
      "type": "Feature",
      "geometry": {
        "type": "Point",
        "coordinates": [
          6.478149315062788,
          51.23254365181721
        ]
      },
      "properties": {
        "anlagen_nr": "2226445",
        "name": "/-entlastungsanlagen: Grunewaldstraße",
        "kreis": "Mönchengladbach",
        "gemeinde": "05116000 / Mönchengladbach",
        "betreiber": "Zustellanschrift\tNEW AG Mönchengladbach -",
        "typ": "SK (Stauraumkanal)",
        "abwasserbereich": "SK (Stauraumkanal)",
        "quelle": "ELWAS-WEB (Land NRW), Datenlizenz Deutschland - Namensnennung - Version 2.0"
      }
    },
    {
      "type": "Feature",
      "geometry": {
        "type": "Point",
        "coordinates": [
          6.489370557757306,
          51.22431268208675
        ]
      },
      "properties": {
        "anlagen_nr": "2226446",
        "name": "/-entlastungsanlagen: Krefelder Straße",
        "kreis": "Mönchengladbach",
        "gemeinde": "05116000 / Mönchengladbach",
        "betreiber": "Zustellanschrift\tNVV AG Mönchengladbach -",
        "typ": "RKB (Regenklärbecken)",
        "abwasserbereich": "RKB (Regenklärbecken)",
        "quelle": "ELWAS-WEB (Land NRW), Datenlizenz Deutschland - Namensnennung - Version 2.0"
      }
    },
    {
      "type": "Feature",
      "geometry": {
        "type": "Point",
        "coordinates": [
          6.433632422390272,
          51.12731523570175
        ]
      },
      "properties": {
        "anlagen_nr": "2226447",
        "name": "/-entlastungsanlagen: Maria-Juchacz-Str./Güdderath W",
        "kreis": "Mönchengladbach",
        "gemeinde": "05116000 / Mönchengladbach",
        "betreiber": "Zustellanschrift\tNVV AG Mönchengladbach -",
        "typ": "RKB (Regenklärbecken)",
        "abwasserbereich": "RKB (Regenklärbecken)",
        "quelle": "ELWAS-WEB (Land NRW), Datenlizenz Deutschland - Namensnennung - Version 2.0"
      }
    },
    {
      "type": "Feature",
      "geometry": {
        "type": "Point",
        "coordinates": [
          6.785492118501042,
          51.15070867181898
        ]
      },
      "properties": {
        "anlagen_nr": "2221261",
        "name": "/-entlastungsanlagen: Regenklärbecken",
        "kreis": "Rhein-Kreis Neuss",
        "gemeinde": "05162024 / Neuss",
        "betreiber": "Zustellanschrift\tAluminium Norf GmbH",
        "typ": "RKB (Regenklärbecken)",
        "abwasserbereich": "RKB (Regenklärbecken)",
        "quelle": "ELWAS-WEB (Land NRW), Datenlizenz Deutschland - Namensnennung - Version 2.0"
      }
    },
    {
      "type": "Feature",
      "geometry": {
        "type": "Point",
        "coordinates": [
          6.69571850316125,
          51.21666086865568
        ]
      },
      "properties": {
        "anlagen_nr": "2221262",
        "name": "/-entlastungsanlagen: RKB O.&L. Sels",
        "kreis": "Rhein-Kreis Neuss",
        "gemeinde": "05162024 / Neuss",
        "betreiber": "Zustellanschrift\tO. & L. Sels GmbH & Co. KG",
        "typ": "RKB (Regenklärbecken)",
        "abwasserbereich": "RKB (Regenklärbecken)",
        "quelle": "ELWAS-WEB (Land NRW), Datenlizenz Deutschland - Namensnennung - Version 2.0"
      }
    },
    {
      "type": "Feature",
      "geometry": {
        "type": "Point",
        "coordinates": [
          6.785247090278356,
          51.15074899893962
        ]
      },
      "properties": {
        "anlagen_nr": "2221263",
        "name": "/-entlastungsanlagen: Hydro Neuss",
        "kreis": "Rhein-Kreis Neuss",
        "gemeinde": "05162024 / Neuss",
        "betreiber": "Zustellanschrift\tHYDRO Aluminium Rolled Products GmbH Werk Neuss",
        "typ": "RKB (Regenklärbecken)",
        "abwasserbereich": "RKB (Regenklärbecken)",
        "quelle": "ELWAS-WEB (Land NRW), Datenlizenz Deutschland - Namensnennung - Version 2.0"
      }
    },
    {
      "type": "Feature",
      "geometry": {
        "type": "Point",
        "coordinates": [
          6.7995762569495035,
          51.14201688415633
        ]
      },
      "properties": {
        "anlagen_nr": "2221264",
        "name": "/-entlastungsanlagen: RKB Stürzelberg II",
        "kreis": "Rhein-Kreis Neuss",
        "gemeinde": "05162004 / Dormagen",
        "betreiber": "Zustellanschrift\tStürzelberg II, Dormagen Sabine Beyer-Schewe",
        "typ": "RKB (Regenklärbecken)",
        "abwasserbereich": "RKB (Regenklärbecken)",
        "quelle": "ELWAS-WEB (Land NRW), Datenlizenz Deutschland - Namensnennung - Version 2.0"
      }
    },
    {
      "type": "Feature",
      "geometry": {
        "type": "Point",
        "coordinates": [
          6.60279534806762,
          51.09771933094696
        ]
      },
      "properties": {
        "anlagen_nr": "2221265",
        "name": "/-entlastungsanlagen: RRB-Intersnack",
        "kreis": "Rhein-Kreis Neuss",
        "gemeinde": "05162008 / Grevenbroich",
        "betreiber": "Zustellanschrift\tIntersnack Knabber-Gebäck GmbH & Co. KG Wevelinghoven",
        "typ": "RRB (Regenrückhaltebecken)",
        "abwasserbereich": "RRB (Regenrückhaltebecken)",
        "quelle": "ELWAS-WEB (Land NRW), Datenlizenz Deutschland - Namensnennung - Version 2.0"
      }
    },
    {
      "type": "Feature",
      "geometry": {
        "type": "Point",
        "coordinates": [
          6.603456528151999,
          51.095430426361276
        ]
      },
      "properties": {
        "anlagen_nr": "2221267",
        "name": "/-entlastungsanlagen: Intersnack/Pfeifer&Langen",
        "kreis": "Rhein-Kreis Neuss",
        "gemeinde": "05162008 / Grevenbroich",
        "betreiber": "Zustellanschrift\tPfeifer & Langen KG Werk Wevelinghoven",
        "typ": "RÜB (Regenüberlaufbecken)",
        "abwasserbereich": "RÜB (Regenüberlaufbecken)",
        "quelle": "ELWAS-WEB (Land NRW), Datenlizenz Deutschland - Namensnennung - Version 2.0"
      }
    },
    {
      "type": "Feature",
      "geometry": {
        "type": "Point",
        "coordinates": [
          6.558325079970723,
          51.0582229264194
        ]
      },
      "properties": {
        "anlagen_nr": "2221270",
        "name": "/-entlastungsanlagen: Absetzteiche (6Stk.)",
        "kreis": "Rhein-Kreis Neuss",
        "gemeinde": "05162008 / Grevenbroich",
        "betreiber": "Zustellanschrift\tWW Waldhütte/Lodshof NVV AG",
        "typ": "RKB (Regenklärbecken)",
        "abwasserbereich": "RKB (Regenklärbecken)",
        "quelle": "ELWAS-WEB (Land NRW), Datenlizenz Deutschland - Namensnennung - Version 2.0"
      }
    },
    {
      "type": "Feature",
      "geometry": {
        "type": "Point",
        "coordinates": [
          6.614863213660912,
          51.080275063409275
        ]
      },
      "properties": {
        "anlagen_nr": "2221274",
        "name": "/-entlastungsanlagen: Regenklär-/Regenrückhaltebecken",
        "kreis": "Rhein-Kreis Neuss",
        "gemeinde": "05162008 / Grevenbroich",
        "betreiber": "Zustellanschrift\tSpeira GmbH Werk Grevenbroich",
        "typ": "RRB (Regenrückhaltebecken)",
        "abwasserbereich": "RRB (Regenrückhaltebecken)",
        "quelle": "ELWAS-WEB (Land NRW), Datenlizenz Deutschland - Namensnennung - Version 2.0"
      }
    },
    {
      "type": "Feature",
      "geometry": {
        "type": "Point",
        "coordinates": [
          6.713027796007065,
          51.22281050233349
        ]
      },
      "properties": {
        "anlagen_nr": "2221480",
        "name": "/-entlastungsanlagen: RKB Dachser",
        "kreis": "Rhein-Kreis Neuss",
        "gemeinde": "05162024 / Neuss",
        "betreiber": "Zustellanschrift\tDachser GmbH & Co. KG Niederlassung Neuss",
        "typ": "RKB (Regenklärbecken)",
        "abwasserbereich": "RKB (Regenklärbecken)",
        "quelle": "ELWAS-WEB (Land NRW), Datenlizenz Deutschland - Namensnennung - Version 2.0"
      }
    },
    {
      "type": "Feature",
      "geometry": {
        "type": "Point",
        "coordinates": [
          6.64873605539617,
          51.11762090633515
        ]
      },
      "properties": {
        "anlagen_nr": "2226460",
        "name": "/-entlastungsanlagen: SKO Langwaden",
        "kreis": "Rhein-Kreis Neuss",
        "gemeinde": "05162008 / Grevenbroich",
        "betreiber": "Zustellanschrift\tErftverband",
        "typ": "SK (Stauraumkanal)",
        "abwasserbereich": "SK (Stauraumkanal)",
        "quelle": "ELWAS-WEB (Land NRW), Datenlizenz Deutschland - Namensnennung - Version 2.0"
      }
    },
    {
      "type": "Feature",
      "geometry": {
        "type": "Point",
        "coordinates": [
          6.540178633564111,
          50.81782940338693
        ]
      },
      "properties": {
        "anlagen_nr": "222874",
        "name": "/-entlastungsanlagen: RKB",
        "kreis": "Düren",
        "gemeinde": "05358040 / Merzenich",
        "betreiber": "Zustellanschrift\tJ. & W. Stollenwerk OHG",
        "typ": "RKB (Regenklärbecken)",
        "abwasserbereich": "RKB (Regenklärbecken)",
        "quelle": "ELWAS-WEB (Land NRW), Datenlizenz Deutschland - Namensnennung - Version 2.0"
      }
    },
    {
      "type": "Feature",
      "geometry": {
        "type": "Point",
        "coordinates": [
          6.5402528672664495,
          50.818037841611286
        ]
      },
      "properties": {
        "anlagen_nr": "222875",
        "name": "/-entlastungsanlagen: RRB",
        "kreis": "Düren",
        "gemeinde": "05358040 / Merzenich",
        "betreiber": "Zustellanschrift\tJ. & W. Stollenwerk OHG",
        "typ": "RRB (Regenrückhaltebecken)",
        "abwasserbereich": "RRB (Regenrückhaltebecken)",
        "quelle": "ELWAS-WEB (Land NRW), Datenlizenz Deutschland - Namensnennung - Version 2.0"
      }
    },
    {
      "type": "Feature",
      "geometry": {
        "type": "Point",
        "coordinates": [
          6.276931442603363,
          50.97900188324352
        ]
      },
      "properties": {
        "anlagen_nr": "222876",
        "name": "/-entlastungsanlagen: RKB/Stauraumkanal DN 1400",
        "kreis": "Düren",
        "gemeinde": "05358036 / Linnich",
        "betreiber": "Zustellanschrift\tSIG Combibloc GmbH",
        "typ": "RKB (Regenklärbecken)",
        "abwasserbereich": "RKB (Regenklärbecken)",
        "quelle": "ELWAS-WEB (Land NRW), Datenlizenz Deutschland - Namensnennung - Version 2.0"
      }
    },
    {
      "type": "Feature",
      "geometry": {
        "type": "Point",
        "coordinates": [
          6.490876615593716,
          50.8761605307113
        ]
      },
      "properties": {
        "anlagen_nr": "222877",
        "name": "/-entlastungsanlagen: Tagebau Hambach - Tagesanlagen - RRB",
        "kreis": "Düren",
        "gemeinde": "05358048 / Niederzier",
        "betreiber": "Zustellanschrift\tRWE Power AG - Tagebau Hambach",
        "typ": "RRB (Regenrückhaltebecken)",
        "abwasserbereich": "RRB (Regenrückhaltebecken)",
        "quelle": "ELWAS-WEB (Land NRW), Datenlizenz Deutschland - Namensnennung - Version 2.0"
      }
    },
    {
      "type": "Feature",
      "geometry": {
        "type": "Point",
        "coordinates": [
          6.238003067571235,
          50.925027394653675
        ]
      },
      "properties": {
        "anlagen_nr": "222879",
        "name": "/-entlastungsanlagen: EBV Regenrückhaltebecken",
        "kreis": "Düren",
        "gemeinde": "05358004 / Aldenhoven",
        "betreiber": "Zustellanschrift\tEBV Aktiengesellschaft Berghalde Emil Mayrisch (Freialdenhoven)",
        "typ": "RRB (Regenrückhaltebecken)",
        "abwasserbereich": "RRB (Regenrückhaltebecken)",
        "quelle": "ELWAS-WEB (Land NRW), Datenlizenz Deutschland - Namensnennung - Version 2.0"
      }
    },
    {
      "type": "Feature",
      "geometry": {
        "type": "Point",
        "coordinates": [
          6.642297841853594,
          50.82137785531085
        ]
      },
      "properties": {
        "anlagen_nr": "222883",
        "name": "/-entlastungsanlagen: 4 Kaskaden-RKB",
        "kreis": "Düren",
        "gemeinde": "05358052 / Nörvenich",
        "betreiber": "Zustellanschrift\tStandortverwaltung Düren",
        "typ": "RKB (Regenklärbecken)",
        "abwasserbereich": "RKB (Regenklärbecken)",
        "quelle": "ELWAS-WEB (Land NRW), Datenlizenz Deutschland - Namensnennung - Version 2.0"
      }
    },
    {
      "type": "Feature",
      "geometry": {
        "type": "Point",
        "coordinates": [
          6.481418605822357,
          50.750132151622495
        ]
      },
      "properties": {
        "anlagen_nr": "222884",
        "name": "/-entlastungsanlagen: RKB->E1",
        "kreis": "Düren",
        "gemeinde": "05358028 / Kreuzau",
        "betreiber": "Zustellanschrift\tMetsä Tissue GmbH Werk Kreuzau",
        "typ": "RKB (Regenklärbecken)",
        "abwasserbereich": "RKB (Regenklärbecken)",
        "quelle": "ELWAS-WEB (Land NRW), Datenlizenz Deutschland - Namensnennung - Version 2.0"
      }
    },
    {
      "type": "Feature",
      "geometry": {
        "type": "Point",
        "coordinates": [
          6.481295870744405,
          50.751361761476495
        ]
      },
      "properties": {
        "anlagen_nr": "222885",
        "name": "/-entlastungsanlagen: RKB->E3",
        "kreis": "Düren",
        "gemeinde": "05358028 / Kreuzau",
        "betreiber": "Zustellanschrift\tMetsä Tissue GmbH Werk Kreuzau",
        "typ": "RKB (Regenklärbecken)",
        "abwasserbereich": "RKB (Regenklärbecken)",
        "quelle": "ELWAS-WEB (Land NRW), Datenlizenz Deutschland - Namensnennung - Version 2.0"
      }
    },
    {
      "type": "Feature",
      "geometry": {
        "type": "Point",
        "coordinates": [
          6.34940088602814,
          50.925893030827574
        ]
      },
      "properties": {
        "anlagen_nr": "222889",
        "name": "/-entlastungsanlagen: Regenrückhaltebecken",
        "kreis": "Düren",
        "gemeinde": "05358024 / Jülich",
        "betreiber": "Zustellanschrift\tPfeifer & Langen GmbH & Co.KG Zuckerfabrik Jülich",
        "typ": "RRB (Regenrückhaltebecken)",
        "abwasserbereich": "RRB (Regenrückhaltebecken)",
        "quelle": "ELWAS-WEB (Land NRW), Datenlizenz Deutschland - Namensnennung - Version 2.0"
      }
    },
    {
      "type": "Feature",
      "geometry": {
        "type": "Point",
        "coordinates": [
          6.272673736357171,
          50.98746537658285
        ]
      },
      "properties": {
        "anlagen_nr": "2221506",
        "name": "/-entlastungsanlagen: Linnich/Erkelenzer Str.",
        "kreis": "Düren",
        "gemeinde": "05358036 / Linnich",
        "betreiber": "Zustellanschrift\tWasserverband Eifel-Rur",
        "typ": "SK (Stauraumkanal)",
        "abwasserbereich": "SK (Stauraumkanal)",
        "quelle": "ELWAS-WEB (Land NRW), Datenlizenz Deutschland - Namensnennung - Version 2.0"
      }
    },
    {
      "type": "Feature",
      "geometry": {
        "type": "Point",
        "coordinates": [
          6.817189571476923,
          50.8885591048056
        ]
      },
      "properties": {
        "anlagen_nr": "3622",
        "name": "/-entlastungsanlagen: Anschlussstelle Hürth-Gleuel",
        "kreis": "Rhein-Erft-Kreis",
        "gemeinde": "05362028 / Hürth",
        "betreiber": "Zustellanschrift\tLandesbetrieb Straßenbau NRW",
        "typ": "RRB (Regenrückhaltebecken)",
        "abwasserbereich": "RRB (Regenrückhaltebecken)",
        "quelle": "ELWAS-WEB (Land NRW), Datenlizenz Deutschland - Namensnennung - Version 2.0"
      }
    },
    {
      "type": "Feature",
      "geometry": {
        "type": "Point",
        "coordinates": [
          6.664922875713579,
          50.925041657059964
        ]
      },
      "properties": {
        "anlagen_nr": "3623",
        "name": "/-entlastungsanlagen: BP 215, Kleinfeldchen",
        "kreis": "Rhein-Erft-Kreis",
        "gemeinde": "05362008 / Bergheim",
        "betreiber": "Zustellanschrift\tStadtwerke Bergheim GmbH",
        "typ": "SK (Stauraumkanal)",
        "abwasserbereich": "SK (Stauraumkanal)",
        "quelle": "ELWAS-WEB (Land NRW), Datenlizenz Deutschland - Namensnennung - Version 2.0"
      }
    },
    {
      "type": "Feature",
      "geometry": {
        "type": "Point",
        "coordinates": [
          6.824557082093884,
          50.984266172894635
        ]
      },
      "properties": {
        "anlagen_nr": "3628",
        "name": "/-entlastungsanlagen: RRB 32; Mühlenweg BP 63",
        "kreis": "Rhein-Erft-Kreis",
        "gemeinde": "05362036 / Pulheim",
        "betreiber": "Zustellanschrift\tStadt Pulheim Der Bürgermeister",
        "typ": "RRB (Regenrückhaltebecken)",
        "abwasserbereich": "RRB (Regenrückhaltebecken)",
        "quelle": "ELWAS-WEB (Land NRW), Datenlizenz Deutschland - Namensnennung - Version 2.0"
      }
    },
    {
      "type": "Feature",
      "geometry": {
        "type": "Point",
        "coordinates": [
          6.804493036109988,
          50.914529415991915
        ]
      },
      "properties": {
        "anlagen_nr": "36215",
        "name": "/-entlastungsanlagen: Lindenstraße-Süd RRB3.22",
        "kreis": "Rhein-Erft-Kreis",
        "gemeinde": "05362024 / Frechen",
        "betreiber": "Zustellanschrift\tStadt Frechen",
        "typ": "RRB (Regenrückhaltebecken)",
        "abwasserbereich": "RRB (Regenrückhaltebecken)",
        "quelle": "ELWAS-WEB (Land NRW), Datenlizenz Deutschland - Namensnennung - Version 2.0"
      }
    },
    {
      "type": "Feature",
      "geometry": {
        "type": "Point",
        "coordinates": [
          6.902172781362594,
          50.854798750309904
        ]
      },
      "properties": {
        "anlagen_nr": "36216",
        "name": "/-entlastungsanlagen: Lamellenklärer",
        "kreis": "Rhein-Erft-Kreis",
        "gemeinde": "05362028 / Hürth",
        "betreiber": "Zustellanschrift\tAldi GmbH & Co. KG",
        "typ": "RKB (Regenklärbecken)",
        "abwasserbereich": "RKB (Regenklärbecken)",
        "quelle": "ELWAS-WEB (Land NRW), Datenlizenz Deutschland - Namensnennung - Version 2.0"
      }
    },
    {
      "type": "Feature",
      "geometry": {
        "type": "Point",
        "coordinates": [
          6.89946247049109,
          50.80632639269289
        ]
      },
      "properties": {
        "anlagen_nr": "36217",
        "name": "/-entlastungsanlagen: Sedipipe XL",
        "kreis": "Rhein-Erft-Kreis",
        "gemeinde": "05362012 / Brühl",
        "betreiber": "Zustellanschrift\tStadt Brühl",
        "typ": "RKB (Regenklärbecken)",
        "abwasserbereich": "RKB (Regenklärbecken)",
        "quelle": "ELWAS-WEB (Land NRW), Datenlizenz Deutschland - Namensnennung - Version 2.0"
      }
    },
    {
      "type": "Feature",
      "geometry": {
        "type": "Point",
        "coordinates": [
          6.960232539431871,
          50.830636434081306
        ]
      },
      "properties": {
        "anlagen_nr": "36221",
        "name": "/-entlastungsanlagen: Brühler Straße",
        "kreis": "Rhein-Erft-Kreis",
        "gemeinde": "05362040 / Wesseling",
        "betreiber": "Zustellanschrift\tHeitkamp Immobilien GbR",
        "typ": "SK (Stauraumkanal)",
        "abwasserbereich": "SK (Stauraumkanal)",
        "quelle": "ELWAS-WEB (Land NRW), Datenlizenz Deutschland - Namensnennung - Version 2.0"
      }
    },
    {
      "type": "Feature",
      "geometry": {
        "type": "Point",
        "coordinates": [
          6.8205479980494434,
          51.0269481356152
        ]
      },
      "properties": {
        "anlagen_nr": "36227",
        "name": "/-entlastungsanlagen: RRB 2 Roggendorfer Straße",
        "kreis": "Rhein-Erft-Kreis",
        "gemeinde": "05362036 / Pulheim",
        "betreiber": "Zustellanschrift\tStadt Pulheim Der Bürgermeister",
        "typ": "RRB (Regenrückhaltebecken)",
        "abwasserbereich": "RRB (Regenrückhaltebecken)",
        "quelle": "ELWAS-WEB (Land NRW), Datenlizenz Deutschland - Namensnennung - Version 2.0"
      }
    },
    {
      "type": "Feature",
      "geometry": {
        "type": "Point",
        "coordinates": [
          6.659971897442722,
          50.923314552812435
        ]
      },
      "properties": {
        "anlagen_nr": "36232",
        "name": "/-entlastungsanlagen: BP 218.x Ahe \"An der Kapelle\"",
        "kreis": "Rhein-Erft-Kreis",
        "gemeinde": "05362008 / Bergheim",
        "betreiber": "Zustellanschrift\tStadtwerke Bergheim GmbH",
        "typ": "RRB (Regenrückhaltebecken)",
        "abwasserbereich": "RRB (Regenrückhaltebecken)",
        "quelle": "ELWAS-WEB (Land NRW), Datenlizenz Deutschland - Namensnennung - Version 2.0"
      }
    },
    {
      "type": "Feature",
      "geometry": {
        "type": "Point",
        "coordinates": [
          6.6589758934235075,
          50.923879198409324
        ]
      },
      "properties": {
        "anlagen_nr": "36233",
        "name": "/-entlastungsanlagen: BP 218.1 Ahe",
        "kreis": "Rhein-Erft-Kreis",
        "gemeinde": "05362008 / Bergheim",
        "betreiber": "Zustellanschrift\tStadtwerke Bergheim GmbH",
        "typ": "RKB (Regenklärbecken)",
        "abwasserbereich": "RKB (Regenklärbecken)",
        "quelle": "ELWAS-WEB (Land NRW), Datenlizenz Deutschland - Namensnennung - Version 2.0"
      }
    },
    {
      "type": "Feature",
      "geometry": {
        "type": "Point",
        "coordinates": [
          6.605222929523482,
          50.57514407583627
        ]
      },
      "properties": {
        "anlagen_nr": "222873",
        "name": "/-entlastungsanlagen: Rückhaltefilterbecken",
        "kreis": "Euskirchen",
        "gemeinde": "05366028 / Mechernich",
        "betreiber": "Zustellanschrift\tAbfallwirtschaftszentrum Mechernich",
        "typ": "RRB (Regenrückhaltebecken)",
        "abwasserbereich": "RRB (Regenrückhaltebecken)",
        "quelle": "ELWAS-WEB (Land NRW), Datenlizenz Deutschland - Namensnennung - Version 2.0"
      }
    },
    {
      "type": "Feature",
      "geometry": {
        "type": "Point",
        "coordinates": [
          6.461780257341332,
          50.442136738129705
        ]
      },
      "properties": {
        "anlagen_nr": "2221502",
        "name": "/-entlastungsanlagen: Zehnstelle / Wittscheid",
        "kreis": "Euskirchen",
        "gemeinde": "05366020 / Hellenthal",
        "betreiber": "Zustellanschrift\tWasserverband Eifel-Rur",
        "typ": "RRB (Regenrückhaltebecken)",
        "abwasserbereich": "RRB (Regenrückhaltebecken)",
        "quelle": "ELWAS-WEB (Land NRW), Datenlizenz Deutschland - Namensnennung - Version 2.0"
      }
    },
    {
      "type": "Feature",
      "geometry": {
        "type": "Point",
        "coordinates": [
          6.5317403986859786,
          50.5014347918395
        ]
      },
      "properties": {
        "anlagen_nr": "2221515",
        "name": "/-entlastungsanlagen: Alte KA Sistig",
        "kreis": "Euskirchen",
        "gemeinde": "05366024 / Kall",
        "betreiber": "Zustellanschrift\tWasserverband Eifel-Rur",
        "typ": "RÜB (Regenüberlaufbecken)",
        "abwasserbereich": "RÜB (Regenüberlaufbecken)",
        "quelle": "ELWAS-WEB (Land NRW), Datenlizenz Deutschland - Namensnennung - Version 2.0"
      }
    },
    {
      "type": "Feature",
      "geometry": {
        "type": "Point",
        "coordinates": [
          6.510072676007823,
          50.522174025137424
        ]
      },
      "properties": {
        "anlagen_nr": "2221516",
        "name": "/-entlastungsanlagen: alte KA Broich",
        "kreis": "Euskirchen",
        "gemeinde": "05366036 / Schleiden",
        "betreiber": "Zustellanschrift\tWasserverband Eifel-Rur",
        "typ": "RÜB (Regenüberlaufbecken)",
        "abwasserbereich": "RÜB (Regenüberlaufbecken)",
        "quelle": "ELWAS-WEB (Land NRW), Datenlizenz Deutschland - Namensnennung - Version 2.0"
      }
    },
    {
      "type": "Feature",
      "geometry": {
        "type": "Point",
        "coordinates": [
          6.482819858038834,
          50.36122480845468
        ]
      },
      "properties": {
        "anlagen_nr": "2221811",
        "name": "/-entlastungsanlagen: Kronenburg",
        "kreis": "Euskirchen",
        "gemeinde": "05366012 / Dahlem",
        "betreiber": "Zustellanschrift\tAbwasserwerk der Gemeinde Dahlem",
        "typ": "RÜB (Regenüberlaufbecken)",
        "abwasserbereich": "RÜB (Regenüberlaufbecken)",
        "quelle": "ELWAS-WEB (Land NRW), Datenlizenz Deutschland - Namensnennung - Version 2.0"
      }
    },
    {
      "type": "Feature",
      "geometry": {
        "type": "Point",
        "coordinates": [
          6.477194073177148,
          50.36124676078681
        ]
      },
      "properties": {
        "anlagen_nr": "2221812",
        "name": "/-entlastungsanlagen: Kronenburg Ortsmitte Brigida Kapelle",
        "kreis": "Euskirchen",
        "gemeinde": "05366012 / Dahlem",
        "betreiber": "Zustellanschrift\tGemeinde Dahlem",
        "typ": "RÜB (Regenüberlaufbecken)",
        "abwasserbereich": "RÜB (Regenüberlaufbecken)",
        "quelle": "ELWAS-WEB (Land NRW), Datenlizenz Deutschland - Namensnennung - Version 2.0"
      }
    },
    {
      "type": "Feature",
      "geometry": {
        "type": "Point",
        "coordinates": [
          6.505445780274041,
          50.374611514804215
        ]
      },
      "properties": {
        "anlagen_nr": "2221813",
        "name": "/-entlastungsanlagen: Baasem",
        "kreis": "Euskirchen",
        "gemeinde": "05366012 / Dahlem",
        "betreiber": "Zustellanschrift\tAbwasserwerk der Gemeinde Dahlem",
        "typ": "RÜB (Regenüberlaufbecken)",
        "abwasserbereich": "RÜB (Regenüberlaufbecken)",
        "quelle": "ELWAS-WEB (Land NRW), Datenlizenz Deutschland - Namensnennung - Version 2.0"
      }
    },
    {
      "type": "Feature",
      "geometry": {
        "type": "Point",
        "coordinates": [
          6.448412027776674,
          50.37143064495324
        ]
      },
      "properties": {
        "anlagen_nr": "2221814",
        "name": "/-entlastungsanlagen: Frauenkron",
        "kreis": "Euskirchen",
        "gemeinde": "05366012 / Dahlem",
        "betreiber": "Zustellanschrift\tAbwasserwerk der Gemeinde Dahlem",
        "typ": "RÜB (Regenüberlaufbecken)",
        "abwasserbereich": "RÜB (Regenüberlaufbecken)",
        "quelle": "ELWAS-WEB (Land NRW), Datenlizenz Deutschland - Namensnennung - Version 2.0"
      }
    },
    {
      "type": "Feature",
      "geometry": {
        "type": "Point",
        "coordinates": [
          6.549699499500987,
          50.37781047771454
        ]
      },
      "properties": {
        "anlagen_nr": "2221815",
        "name": "/-entlastungsanlagen: KA",
        "kreis": "Euskirchen",
        "gemeinde": "05366012 / Dahlem",
        "betreiber": "Zustellanschrift\tAbwasserwerk der Gemeinde Dahlem",
        "typ": "RÜB (Regenüberlaufbecken)",
        "abwasserbereich": "RÜB (Regenüberlaufbecken)",
        "quelle": "ELWAS-WEB (Land NRW), Datenlizenz Deutschland - Namensnennung - Version 2.0"
      }
    },
    {
      "type": "Feature",
      "geometry": {
        "type": "Point",
        "coordinates": [
          6.457004385900973,
          50.38118074615815
        ]
      },
      "properties": {
        "anlagen_nr": "2221816",
        "name": "/-entlastungsanlagen: Berk",
        "kreis": "Euskirchen",
        "gemeinde": "05366012 / Dahlem",
        "betreiber": "Zustellanschrift\tAbwasserwerk der Gemeinde Dahlem",
        "typ": "RÜB (Regenüberlaufbecken)",
        "abwasserbereich": "RÜB (Regenüberlaufbecken)",
        "quelle": "ELWAS-WEB (Land NRW), Datenlizenz Deutschland - Namensnennung - Version 2.0"
      }
    }
  ]
}