{
  "type": "FeatureCollection",
  "features": [
    {
      "type": "Feature",
      "geometry": {
        "type": "Point",
        "coordinates": [
          6.208677009408064,
          50.65994063861215
        ]
      },
      "properties": {
        "anlagen_nr": "27",
        "name": "Dreilägerbachtalsperre",
        "kreis": "Städteregion Aachen",
        "betreiber": "Absperrbauwerk",
        "gewaesser": "stationierungskarte",
        "typ": "Talsperre",
        "quelle": "ELWAS-WEB (Land NRW), Datenlizenz Deutschland - Namensnennung - Version 2.0"
      }
    },
    {
      "type": "Feature",
      "geometry": {
        "type": "Point",
        "coordinates": [
          6.163865948230775,
          50.853782307062815
        ]
      },
      "properties": {
        "anlagen_nr": "35",
        "name": "HRB Euchen",
        "kreis": "Städteregion Aachen",
        "betreiber": "Absperrbauwerk",
        "gewaesser": "stationierungskarte",
        "typ": "Hochwasserrückhaltebecken",
        "quelle": "ELWAS-WEB (Land NRW), Datenlizenz Deutschland - Namensnennung - Version 2.0"
      }
    },
    {
      "type": "Feature",
      "geometry": {
        "type": "Point",
        "coordinates": [
          6.102462056905574,
          50.866123984571836
        ]
      },
      "properties": {
        "anlagen_nr": "48",
        "name": "HRB Herzogenrath",
        "kreis": "Städteregion Aachen",
        "betreiber": "Absperrbauwerk",
        "gewaesser": "stationierungskarte",
        "typ": "Hochwasserrückhaltebecken",
        "quelle": "ELWAS-WEB (Land NRW), Datenlizenz Deutschland - Namensnennung - Version 2.0"
      }
    },
    {
      "type": "Feature",
      "geometry": {
        "type": "Point",
        "coordinates": [
          6.310748313663952,
          50.64485610786375
        ]
      },
      "properties": {
        "anlagen_nr": "61",
        "name": "Kalltalsperre",
        "kreis": "Städteregion Aachen",
        "betreiber": "Absperrbauwerk",
        "gewaesser": "stationierungskarte",
        "typ": "Talsperre",
        "quelle": "ELWAS-WEB (Land NRW), Datenlizenz Deutschland - Namensnennung - Version 2.0"
      }
    },
    {
      "type": "Feature",
      "geometry": {
        "type": "Point",
        "coordinates": [
          6.239786005539807,
          50.53913974805994
        ]
      },
      "properties": {
        "anlagen_nr": "101",
        "name": "Perlenbachtalsperre",
        "kreis": "Städteregion Aachen",
        "betreiber": "Absperrbauwerk",
        "gewaesser": "stationierungskarte",
        "typ": "Talsperre",
        "quelle": "ELWAS-WEB (Land NRW), Datenlizenz Deutschland - Namensnennung - Version 2.0"
      }
    },
    {
      "type": "Feature",
      "geometry": {
        "type": "Point",
        "coordinates": [
          6.074081997467626,
          50.797484208136396
        ]
      },
      "properties": {
        "anlagen_nr": "105",
        "name": "HRB Rahe",
        "kreis": "Städteregion Aachen",
        "betreiber": "Absperrbauwerk",
        "gewaesser": "stationierungskarte",
        "typ": "Hochwasserrückhaltebecken",
        "quelle": "ELWAS-WEB (Land NRW), Datenlizenz Deutschland - Namensnennung - Version 2.0"
      }
    },
    {
      "type": "Feature",
      "geometry": {
        "type": "Point",
        "coordinates": [
          6.341907923335733,
          50.756007553075015
        ]
      },
      "properties": {
        "anlagen_nr": "164",
        "name": "Wehebachtalsperre",
        "kreis": "Städteregion Aachen",
        "betreiber": "Absperrbauwerk",
        "gewaesser": "stationierungskarte",
        "typ": "Talsperre",
        "quelle": "ELWAS-WEB (Land NRW), Datenlizenz Deutschland - Namensnennung - Version 2.0"
      }
    },
    {
      "type": "Feature",
      "geometry": {
        "type": "Point",
        "coordinates": [
          6.384361173699308,
          50.606209581325096
        ]
      },
      "properties": {
        "anlagen_nr": "171",
        "name": "Vorsperre Eiserbach",
        "kreis": "Städteregion Aachen",
        "betreiber": "Absperrbauwerk",
        "gewaesser": "stationierungskarte",
        "typ": "Talsperre",
        "quelle": "ELWAS-WEB (Land NRW), Datenlizenz Deutschland - Namensnennung - Version 2.0"
      }
    },
    {
      "type": "Feature",
      "geometry": {
        "type": "Point",
        "coordinates": [
          6.081805370057952,
          50.743368309182145
        ]
      },
      "properties": {
        "anlagen_nr": "174",
        "name": "Stauanlage Diepenbenden",
        "kreis": "Städteregion Aachen",
        "betreiber": "Absperrbauwerk",
        "gewaesser": "stationierungskarte",
        "typ": "Talsperre",
        "quelle": "ELWAS-WEB (Land NRW), Datenlizenz Deutschland - Namensnennung - Version 2.0"
      }
    },
    {
      "type": "Feature",
      "geometry": {
        "type": "Point",
        "coordinates": [
          6.09416583019842,
          50.74440241337045
        ]
      },
      "properties": {
        "anlagen_nr": "175",
        "name": "Stauanlage Kupferbach",
        "kreis": "Städteregion Aachen",
        "betreiber": "Absperrbauwerk",
        "gewaesser": "stationierungskarte",
        "typ": "Talsperre",
        "quelle": "ELWAS-WEB (Land NRW), Datenlizenz Deutschland - Namensnennung - Version 2.0"
      }
    },
    {
      "type": "Feature",
      "geometry": {
        "type": "Point",
        "coordinates": [
          6.3207794841522045,
          51.10358249821136
        ]
      },
      "properties": {
        "anlagen_nr": "235",
        "name": "Beeckbach III Erkelenz",
        "kreis": "Heinsberg",
        "betreiber": "Absperrbauwerk",
        "gewaesser": "stationierungskarte",
        "typ": "Hochwasserrückhaltebecken",
        "quelle": "ELWAS-WEB (Land NRW), Datenlizenz Deutschland - Namensnennung - Version 2.0"
      }
    },
    {
      "type": "Feature",
      "geometry": {
        "type": "Point",
        "coordinates": [
          6.310659054567972,
          51.129612894107815
        ]
      },
      "properties": {
        "anlagen_nr": "236",
        "name": "Beeckbach II Grenzlandring",
        "kreis": "Heinsberg",
        "betreiber": "Absperrbauwerk",
        "gewaesser": "stationierungskarte",
        "typ": "Hochwasserrückhaltebecken",
        "quelle": "ELWAS-WEB (Land NRW), Datenlizenz Deutschland - Namensnennung - Version 2.0"
      }
    },
    {
      "type": "Feature",
      "geometry": {
        "type": "Point",
        "coordinates": [
          6.2846097739816,
          51.136397887318964
        ]
      },
      "properties": {
        "anlagen_nr": "237",
        "name": "Beeckbach I Ophover Mühle",
        "kreis": "Heinsberg",
        "betreiber": "Absperrbauwerk",
        "gewaesser": "stationierungskarte",
        "typ": "Hochwasserrückhaltebecken",
        "quelle": "ELWAS-WEB (Land NRW), Datenlizenz Deutschland - Namensnennung - Version 2.0"
      }
    },
    {
      "type": "Feature",
      "geometry": {
        "type": "Point",
        "coordinates": [
          6.163790204573696,
          51.148602815802505
        ]
      },
      "properties": {
        "anlagen_nr": "238",
        "name": "Dahlheimer Mühle",
        "kreis": "Heinsberg",
        "betreiber": "Absperrbauwerk",
        "gewaesser": "stationierungskarte",
        "typ": "Hochwasserrückhaltebecken",
        "quelle": "ELWAS-WEB (Land NRW), Datenlizenz Deutschland - Namensnennung - Version 2.0"
      }
    },
    {
      "type": "Feature",
      "geometry": {
        "type": "Point",
        "coordinates": [
          6.077338514614853,
          50.96967302854949
        ]
      },
      "properties": {
        "anlagen_nr": "239",
        "name": "Nierstraß",
        "kreis": "Heinsberg",
        "betreiber": "Absperrbauwerk",
        "gewaesser": "stationierungskarte",
        "typ": "Hochwasserrückhaltebecken",
        "quelle": "ELWAS-WEB (Land NRW), Datenlizenz Deutschland - Namensnennung - Version 2.0"
      }
    },
    {
      "type": "Feature",
      "geometry": {
        "type": "Point",
        "coordinates": [
          6.076669887280178,
          50.93912417303895
        ]
      },
      "properties": {
        "anlagen_nr": "240",
        "name": "HRB Siepenbusch",
        "kreis": "Heinsberg",
        "betreiber": "Absperrbauwerk",
        "gewaesser": "stationierungskarte",
        "typ": "Hochwasserrückhaltebecken",
        "quelle": "ELWAS-WEB (Land NRW), Datenlizenz Deutschland - Namensnennung - Version 2.0"
      }
    },
    {
      "type": "Feature",
      "geometry": {
        "type": "Point",
        "coordinates": [
          6.102585991173758,
          50.92894309982566
        ]
      },
      "properties": {
        "anlagen_nr": "241",
        "name": "In der Schroiff",
        "kreis": "Heinsberg",
        "betreiber": "Absperrbauwerk",
        "gewaesser": "stationierungskarte",
        "typ": "Hochwasserrückhaltebecken",
        "quelle": "ELWAS-WEB (Land NRW), Datenlizenz Deutschland - Namensnennung - Version 2.0"
      }
    },
    {
      "type": "Feature",
      "geometry": {
        "type": "Point",
        "coordinates": [
          6.194856552004117,
          50.97989358686378
        ]
      },
      "properties": {
        "anlagen_nr": "242",
        "name": "Beeck",
        "kreis": "Heinsberg",
        "betreiber": "Absperrbauwerk",
        "gewaesser": "stationierungskarte",
        "typ": "Hochwasserrückhaltebecken",
        "quelle": "ELWAS-WEB (Land NRW), Datenlizenz Deutschland - Namensnennung - Version 2.0"
      }
    },
    {
      "type": "Feature",
      "geometry": {
        "type": "Point",
        "coordinates": [
          6.1248101879818595,
          51.020565965029235
        ]
      },
      "properties": {
        "anlagen_nr": "243",
        "name": "Uetterath",
        "kreis": "Heinsberg",
        "betreiber": "Absperrbauwerk",
        "gewaesser": "stationierungskarte",
        "typ": "Hochwasserrückhaltebecken",
        "quelle": "ELWAS-WEB (Land NRW), Datenlizenz Deutschland - Namensnennung - Version 2.0"
      }
    },
    {
      "type": "Feature",
      "geometry": {
        "type": "Point",
        "coordinates": [
          6.141613674149045,
          50.97615350289981
        ]
      },
      "properties": {
        "anlagen_nr": "244",
        "name": "Herb",
        "kreis": "Heinsberg",
        "betreiber": "Absperrbauwerk",
        "gewaesser": "stationierungskarte",
        "typ": "Hochwasserrückhaltebecken",
        "quelle": "ELWAS-WEB (Land NRW), Datenlizenz Deutschland - Namensnennung - Version 2.0"
      }
    },
    {
      "type": "Feature",
      "geometry": {
        "type": "Point",
        "coordinates": [
          6.4372216408431715,
          51.130971277196814
        ]
      },
      "properties": {
        "anlagen_nr": "94",
        "name": "HRB Odenkirchen",
        "kreis": "Mönchengladbach",
        "betreiber": "Absperrbauwerk",
        "gewaesser": "stationierungskarte",
        "typ": "Hochwasserrückhaltebecken",
        "quelle": "ELWAS-WEB (Land NRW), Datenlizenz Deutschland - Namensnennung - Version 2.0"
      }
    },
    {
      "type": "Feature",
      "geometry": {
        "type": "Point",
        "coordinates": [
          6.429846010282814,
          51.10208668621303
        ]
      },
      "properties": {
        "anlagen_nr": "516",
        "name": "HRB Hochneukirch",
        "kreis": "Mönchengladbach",
        "betreiber": "Absperrbauwerk",
        "gewaesser": "stationierungskarte",
        "typ": "Hochwasserrückhaltebecken",
        "quelle": "ELWAS-WEB (Land NRW), Datenlizenz Deutschland - Namensnennung - Version 2.0"
      }
    },
    {
      "type": "Feature",
      "geometry": {
        "type": "Point",
        "coordinates": [
          6.47780068488651,
          51.17420969843621
        ]
      },
      "properties": {
        "anlagen_nr": "751",
        "name": "HRB Geneicken",
        "kreis": "Mönchengladbach",
        "betreiber": "Absperrbauwerk",
        "gewaesser": "stationierungskarte",
        "typ": "Hochwasserrückhaltebecken",
        "quelle": "ELWAS-WEB (Land NRW), Datenlizenz Deutschland - Namensnennung - Version 2.0"
      }
    },
    {
      "type": "Feature",
      "geometry": {
        "type": "Point",
        "coordinates": [
          6.6877333905869625,
          51.02569869243008
        ]
      },
      "properties": {
        "anlagen_nr": "315",
        "name": "HRB Gill",
        "kreis": "Rhein-Kreis Neuss",
        "betreiber": "Absperrbauwerk",
        "gewaesser": "stationierungskarte",
        "typ": "Hochwasserrückhaltebecken",
        "quelle": "ELWAS-WEB (Land NRW), Datenlizenz Deutschland - Namensnennung - Version 2.0"
      }
    },
    {
      "type": "Feature",
      "geometry": {
        "type": "Point",
        "coordinates": [
          6.574244521753862,
          51.142083636569055
        ]
      },
      "properties": {
        "anlagen_nr": "316",
        "name": "HRB Damm",
        "kreis": "Rhein-Kreis Neuss",
        "betreiber": "Absperrbauwerk",
        "gewaesser": "stationierungskarte",
        "typ": "Hochwasserrückhaltebecken",
        "quelle": "ELWAS-WEB (Land NRW), Datenlizenz Deutschland - Namensnennung - Version 2.0"
      }
    },
    {
      "type": "Feature",
      "geometry": {
        "type": "Point",
        "coordinates": [
          6.520406986926933,
          51.10790204947395
        ]
      },
      "properties": {
        "anlagen_nr": "317",
        "name": "HRB Herberath",
        "kreis": "Rhein-Kreis Neuss",
        "betreiber": "Absperrbauwerk",
        "gewaesser": "stationierungskarte",
        "typ": "Hochwasserrückhaltebecken",
        "quelle": "ELWAS-WEB (Land NRW), Datenlizenz Deutschland - Namensnennung - Version 2.0"
      }
    },
    {
      "type": "Feature",
      "geometry": {
        "type": "Point",
        "coordinates": [
          6.358388142156191,
          50.9035537014311
        ]
      },
      "properties": {
        "anlagen_nr": "102",
        "name": "Polder 1-3, Zuckerfabrik Jülich (keine Anlage gem. §105 LWG)",
        "kreis": "Düren",
        "betreiber": "Absperrbauwerk",
        "gewaesser": "stationierungskarte",
        "typ": "Sedimentationsbecken",
        "quelle": "ELWAS-WEB (Land NRW), Datenlizenz Deutschland - Namensnennung - Version 2.0"
      }
    },
    {
      "type": "Feature",
      "geometry": {
        "type": "Point",
        "coordinates": [
          6.44351309750883,
          50.63639096002965
        ]
      },
      "properties": {
        "anlagen_nr": "106",
        "name": "Rurtalsperre Schwammenauel",
        "kreis": "Düren",
        "betreiber": "Absperrbauwerk",
        "gewaesser": "stationierungskarte",
        "typ": "Talsperre",
        "quelle": "ELWAS-WEB (Land NRW), Datenlizenz Deutschland - Namensnennung - Version 2.0"
      }
    },
    {
      "type": "Feature",
      "geometry": {
        "type": "Point",
        "coordinates": [
          6.479121870184968,
          50.628454386736294
        ]
      },
      "properties": {
        "anlagen_nr": "134",
        "name": "Stauanlage Heimbach",
        "kreis": "Düren",
        "betreiber": "Absperrbauwerk",
        "gewaesser": "stationierungskarte",
        "typ": "Talsperre",
        "quelle": "ELWAS-WEB (Land NRW), Datenlizenz Deutschland - Namensnennung - Version 2.0"
      }
    },
    {
      "type": "Feature",
      "geometry": {
        "type": "Point",
        "coordinates": [
          6.373606404190138,
          50.83867298417751
        ]
      },
      "properties": {
        "anlagen_nr": "140",
        "name": "Stauanlage Lucherberger See",
        "kreis": "Düren",
        "betreiber": "Absperrbauwerk",
        "gewaesser": "stationierungskarte",
        "typ": "Pumpspeicherbecken",
        "quelle": "ELWAS-WEB (Land NRW), Datenlizenz Deutschland - Namensnennung - Version 2.0"
      }
    },
    {
      "type": "Feature",
      "geometry": {
        "type": "Point",
        "coordinates": [
          6.4464509127304215,
          50.715830312039536
        ]
      },
      "properties": {
        "anlagen_nr": "141",
        "name": "Stauanlage Obermaubach",
        "kreis": "Düren",
        "betreiber": "Absperrbauwerk",
        "gewaesser": "stationierungskarte",
        "typ": "Talsperre",
        "quelle": "ELWAS-WEB (Land NRW), Datenlizenz Deutschland - Namensnennung - Version 2.0"
      }
    },
    {
      "type": "Feature",
      "geometry": {
        "type": "Point",
        "coordinates": [
          6.388401139956722,
          50.60722442234984
        ]
      },
      "properties": {
        "anlagen_nr": "170",
        "name": "Vorsperre Obersee",
        "kreis": "Düren",
        "betreiber": "Absperrbauwerk",
        "gewaesser": "stationierungskarte",
        "typ": "Talsperre",
        "quelle": "ELWAS-WEB (Land NRW), Datenlizenz Deutschland - Namensnennung - Version 2.0"
      }
    },
    {
      "type": "Feature",
      "geometry": {
        "type": "Point",
        "coordinates": [
          6.260131938332995,
          50.877772111648206
        ]
      },
      "properties": {
        "anlagen_nr": "180",
        "name": "Schlangengraben",
        "kreis": "Düren",
        "betreiber": "Absperrbauwerk",
        "gewaesser": "stationierungskarte",
        "typ": "Hochwasserrückhaltebecken",
        "quelle": "ELWAS-WEB (Land NRW), Datenlizenz Deutschland - Namensnennung - Version 2.0"
      }
    },
    {
      "type": "Feature",
      "geometry": {
        "type": "Point",
        "coordinates": [
          6.472796097449849,
          50.86268179198293
        ]
      },
      "properties": {
        "anlagen_nr": "193",
        "name": "Oberzier",
        "kreis": "Düren",
        "betreiber": "Absperrbauwerk",
        "gewaesser": "stationierungskarte",
        "typ": "Hochwasserrückhaltebecken",
        "quelle": "ELWAS-WEB (Land NRW), Datenlizenz Deutschland - Namensnennung - Version 2.0"
      }
    },
    {
      "type": "Feature",
      "geometry": {
        "type": "Point",
        "coordinates": [
          6.512459658881689,
          50.72232142093041
        ]
      },
      "properties": {
        "anlagen_nr": "195",
        "name": "Drove",
        "kreis": "Düren",
        "betreiber": "Absperrbauwerk",
        "gewaesser": "stationierungskarte",
        "typ": "Hochwasserrückhaltebecken",
        "quelle": "ELWAS-WEB (Land NRW), Datenlizenz Deutschland - Namensnennung - Version 2.0"
      }
    },
    {
      "type": "Feature",
      "geometry": {
        "type": "Point",
        "coordinates": [
          6.5254532757787915,
          50.71354024506499
        ]
      },
      "properties": {
        "anlagen_nr": "196",
        "name": "Thum",
        "kreis": "Düren",
        "betreiber": "Absperrbauwerk",
        "gewaesser": "stationierungskarte",
        "typ": "Hochwasserrückhaltebecken",
        "quelle": "ELWAS-WEB (Land NRW), Datenlizenz Deutschland - Namensnennung - Version 2.0"
      }
    },
    {
      "type": "Feature",
      "geometry": {
        "type": "Point",
        "coordinates": [
          6.704773138014704,
          50.98504900544456
        ]
      },
      "properties": {
        "anlagen_nr": "24",
        "name": "HRB Diebenhöhle I",
        "kreis": "Rhein-Erft-Kreis",
        "betreiber": "Absperrbauwerk",
        "gewaesser": "stationierungskarte",
        "typ": "Hochwasserrückhaltebecken",
        "quelle": "ELWAS-WEB (Land NRW), Datenlizenz Deutschland - Namensnennung - Version 2.0"
      }
    }
  ]
}